{"type":"Feature","properties":{"code":"26","nom":"Drôme"},"geometry":{"type":"Polygon","coordinates":[[[4.800493926884063,45.298360661142944],[4.858798773300606,45.30895383074844],[4.879709663152382,45.2969314761542],[4.927837287858217,45.322467078582974],[4.960882968689533,45.329431946438525],[4.989191483458711,45.34404664083611],[5.00965209426827,45.34223102677266],[5.019860000114205,45.32012334781686],[5.054318727576239,45.319054679747346],[5.075414977696186,45.28182474686916],[5.138525456127068,45.29621886821675],[5.121425532367965,45.24833591809063],[5.176540876984406,45.2484020449113],[5.184576231954122,45.231193647083316],[5.165271150444932,45.1998716765054],[5.188573507748233,45.171268538792575],[5.187438130822191,45.12083055585071],[5.162894297608516,45.0984305870661],[5.148624024939402,45.07523359417633],[5.171188406008603,45.06901345142979],[5.1833365351237415,45.08488121016097],[5.226123302713108,45.07917959620953],[5.248350471901153,45.06093433768146],[5.300641951274725,45.06258684321087],[5.317097625615876,45.05144543143657],[5.3438842908647155,45.04990301119417],[5.388382939418146,45.03613916354605],[5.449788835244156,45.070783659173316],[5.4594242070232415,45.084354048653296],[5.482962641076428,45.083813985829416],[5.466222808609953,45.05369264423919],[5.480457675487145,45.013866206651436],[5.493108370230375,44.99650387405212],[5.477674326344703,44.96675249985711],[5.483647138020397,44.92229059824822],[5.475071217930305,44.86759688581832],[5.463794835880649,44.82597088831498],[5.484766003910795,44.82306199061912],[5.4641587549688655,44.79242749679306],[5.538609682625281,44.77435333052135],[5.582046117791262,44.777862736908396],[5.583886354820008,44.76534387074039],[5.627084872571889,44.75246442874924],[5.647101681531142,44.724098953876464],[5.708698705355806,44.720924547440156],[5.7387858126735685,44.712419126045255],[5.757110126926433,44.6960374105235],[5.801469996094522,44.706778512869995],[5.82711625324567,44.70028877822114],[5.825802514085463,44.68569233800322],[5.799407769469486,44.67394966436931],[5.790619766631355,44.65329030204328],[5.753939211901072,44.662713661324155],[5.726039426074854,44.63939834273572],[5.641715054881292,44.65107468886509],[5.643926214041127,44.60972161106435],[5.617737322579476,44.583133580603594],[5.5972487980667855,44.543273727979226],[5.627373773874302,44.53458025973445],[5.664504139914002,44.501894032401594],[5.629785093116038,44.5011871029685],[5.6163088106464185,44.47271206540212],[5.603651238319425,44.465544996850255],[5.562404689872195,44.47485185176209],[5.516510011697751,44.49138247772147],[5.4798758917737445,44.49123966897652],[5.458727518186473,44.46614393059478],[5.464433745418449,44.44788666870274],[5.498303440849121,44.43732497621575],[5.4764897049095795,44.41972379409436],[5.447194165800079,44.431852481873705],[5.418530667075709,44.424947370319],[5.443026623183156,44.391237330733084],[5.434953500862137,44.36911743294876],[5.46065693964672,44.36832054562284],[5.46941457400079,44.35149029453098],[5.4930715607447445,44.33717752081172],[5.521782790630088,44.34931163553876],[5.5373670436986435,44.333525718131106],[5.617135908418277,44.332475894185805],[5.608077262744189,44.30850908328983],[5.637756422122977,44.29968616697366],[5.631970064900461,44.284721309902835],[5.647509019416229,44.27247769824454],[5.676206589256276,44.27551099308782],[5.672996044869041,44.23984311301397],[5.681311859737585,44.23289466958045],[5.676037325543462,44.19143313185896],[5.651592585237082,44.18957707724826],[5.646965152793732,44.166291647187435],[5.68271535182101,44.16321640945639],[5.67860502821166,44.14608869344783],[5.6316731817286305,44.15136802990124],[5.63959354437225,44.16758605191366],[5.609572963808623,44.18817112634557],[5.576187167563138,44.18804165094906],[5.564374392120529,44.17090170649433],[5.582976621063447,44.15762325973775],[5.551327343869811,44.14979115926589],[5.540435810430644,44.13221365213216],[5.498787806458752,44.11571934778835],[5.45471645974309,44.119227904662864],[5.43571830913588,44.1516641531859],[5.383240887752097,44.15528473021913],[5.384523055943825,44.201046720663136],[5.354042708088259,44.21342924717531],[5.3368331508273,44.20353145731521],[5.292247629624085,44.214467072564894],[5.2565087145716225,44.23005632855739],[5.23814970804007,44.213233332998946],[5.174965607033191,44.22080662233339],[5.154903556803357,44.230944996200954],[5.161547590528067,44.24559067110522],[5.1497271329806695,44.28208386834487],[5.167205149288734,44.29205090874127],[5.172696360911815,44.309393695074476],[5.1045087340965685,44.27953745155323],[5.076512049103177,44.2840860159789],[5.060564583015947,44.30813976056077],[5.005535817021755,44.286754820483196],[4.981451791724815,44.2848325971684],[4.932910424012261,44.2621518073366],[4.879050668886603,44.26148357791232],[4.826652705578103,44.22832506640777],[4.814096088903183,44.23231467832123],[4.812665863343398,44.257719064767414],[4.8031008029072115,44.27998919217419],[4.804563291806201,44.303896893827336],[4.762251228111598,44.32538168266028],[4.720123840256769,44.326714895236336],[4.679025302617316,44.32048933622703],[4.6506150134375535,44.329805791511276],[4.648946169255066,44.372462486293166],[4.664373400022996,44.398944273043945],[4.667379937465383,44.43066429434984],[4.69865229412497,44.45230946012676],[4.6989568502390995,44.481694190593686],[4.689973321952771,44.49125058500801],[4.692050189601407,44.5152420465306],[4.707018905489797,44.53084113511007],[4.692361920905272,44.55589194997334],[4.710266499941698,44.58154911470836],[4.741168931840421,44.58877434873562],[4.74040453633284,44.60239249321297],[4.77408913696615,44.644269843250804],[4.7811100231594805,44.682833634690404],[4.762850574483207,44.72009203958483],[4.760941584679994,44.771713549802],[4.795665859771827,44.793769117314746],[4.821656483202532,44.83867049616437],[4.841340887618573,44.842596306238924],[4.85945820884153,44.87175235284045],[4.8579011507481304,44.903155110736876],[4.8855710639544006,44.93465153198947],[4.875684162327823,44.95520873214619],[4.860170175358192,44.96586245571145],[4.851264766161909,44.99467770210391],[4.837672652853049,45.00479181394786],[4.840341325313034,45.03578322392562],[4.860746068970967,45.055429204446796],[4.831651038103518,45.07026753675957],[4.827354281438577,45.10214857279052],[4.804492252463412,45.12194771680664],[4.804461066670614,45.133197210828584],[4.829100372157167,45.15669010756043],[4.813699779096304,45.16341716248438],[4.804809814114698,45.194030298693185],[4.812569706062625,45.204307182925724],[4.802585860487608,45.22693117215798],[4.809597016988471,45.26036757990201],[4.80945700146176,45.28984878023442],[4.800493926884063,45.298360661142944]],[[4.892909784975503,44.36481842003465],[4.871546699824252,44.349624687939915],[4.89532799567956,44.33806148358807],[4.881629025271996,44.32487165610533],[4.8894629809408325,44.30401919301177],[4.922149021948395,44.30878294851454],[4.978583367650993,44.297463038388315],[5.023291388686099,44.34594820774989],[5.0270075535733945,44.362835342005326],[5.052014293962954,44.364659059368094],[5.048760348502809,44.381234267021824],[5.015759498726315,44.39276614596861],[5.013305911983339,44.405345557740354],[4.988609946346962,44.42320030980228],[4.963297700567191,44.42193444899826],[4.918515009368784,44.40778504385655],[4.906627552610216,44.37409911682911],[4.892909784975503,44.36481842003465]]]}}