{"type":"Feature","properties":{"code":"89","nom":"Yonne"},"geometry":{"type":"Polygon","coordinates":[[[2.936314411640624,48.1633917441478],[2.9347486048838207,48.17882262621194],[2.970958045601008,48.194187673485665],[2.97446503722382,48.20555285255294],[3.0051556578134635,48.20767000034546],[3.043627253848888,48.27202235761227],[3.015901008416285,48.3079017396547],[3.041677936242915,48.329416667963116],[3.036760677253472,48.34009779475704],[3.0495188960927044,48.36012035556557],[3.0988849903520745,48.35782222270563],[3.1398687617633554,48.37259875797597],[3.2018573040530143,48.36401635870226],[3.232843707551971,48.37032930740775],[3.254382220567969,48.36502185965591],[3.282397556791885,48.37751802756359],[3.305153213312036,48.37287323488759],[3.3651592673815314,48.37228068710627],[3.367217075047188,48.39431654152582],[3.3833187883415756,48.39970860491622],[3.4147915595010967,48.390273038820325],[3.427513158445058,48.359980231681526],[3.4525858660423605,48.374390245729586],[3.4986883356303173,48.368618101138466],[3.5325118583181596,48.340525877771384],[3.5634013639699584,48.32144364439587],[3.566569286931659,48.30742854994862],[3.5879668741436643,48.30081000040951],[3.587183966868095,48.280173420842885],[3.6168043332338455,48.27133989890988],[3.624328073587777,48.25452852774026],[3.600078611097097,48.23703622325982],[3.6216173506103138,48.22574039972581],[3.6111556712475656,48.21192894753078],[3.57518637671701,48.18874134782558],[3.594183989487009,48.17887516119051],[3.6195505299659145,48.190784479669105],[3.6414970437080063,48.18393657752057],[3.667869602845747,48.1392119036121],[3.7050170955645534,48.14431394210169],[3.740291245795231,48.16970783293559],[3.754823906575138,48.150241865949376],[3.739719908908732,48.13275411908254],[3.773282122246105,48.12969525627175],[3.8049683849961107,48.10254956014992],[3.806792668443169,48.083864090347966],[3.824612213123349,48.06128779150571],[3.8242989358275574,48.04289541931859],[3.8706198703197394,48.01563556441249],[3.839811254672786,48.00389003724434],[3.850029315571996,47.98379240721269],[3.8783088264909926,47.979417724331554],[3.900190065880429,47.99790876198765],[3.91469046126473,47.97569343810935],[3.9015952504180182,47.93863384246034],[3.9480945711713997,47.93089676516494],[3.985962466837663,47.93063908075462],[4.003855529645679,47.94203480301055],[4.01814220173801,47.928474566092724],[4.045237544702236,47.92596854676534],[4.061270050327684,47.945562416892294],[4.092978649387006,47.94297672164551],[4.1117857473984065,47.926995657517516],[4.166327039100888,47.95980433221276],[4.2078337319682335,47.94659557765659],[4.206741721722166,47.972203894649205],[4.228464403152438,47.96915282956105],[4.2221457478233475,47.94969678465566],[4.242723875606858,47.931956917411135],[4.265599591370342,47.924116159008285],[4.2934241069450065,47.92567623483797],[4.311152699462278,47.903922726683135],[4.277339137948259,47.89945297805272],[4.262193864556681,47.88395527973197],[4.2610008241447535,47.84385063866699],[4.300805981058354,47.84877161085865],[4.319285858378513,47.83743970579336],[4.320330919498607,47.81169317443553],[4.340296871154208,47.79956664297927],[4.327231405103721,47.78566401630385],[4.332471702607339,47.756511310391986],[4.289656740825392,47.73317231931354],[4.260502367415732,47.74220354600016],[4.2526277781965405,47.716066198902226],[4.267304312456938,47.70164928916197],[4.258324006422516,47.68389555308575],[4.225637843042874,47.67116302241697],[4.249113979601859,47.65949100902422],[4.212381292101606,47.62796570432303],[4.214168417613283,47.602912165808426],[4.197168115097694,47.59802850906373],[4.17512808182493,47.553259163212694],[4.156528733449272,47.55161760512027],[4.138136112599596,47.52153256449299],[4.112403898450227,47.5034970330936],[4.129760578477719,47.47483692093974],[4.119426533664949,47.443553393311014],[4.066060118363545,47.407251287195685],[4.088307134357006,47.39652090232598],[4.076218510845687,47.383480194423754],[4.106085850126875,47.339255985490894],[4.046432164286821,47.339943756300286],[4.028760221806572,47.31557728480351],[3.999278507688071,47.312773725416655],[3.973097819719344,47.332712674420605],[3.9653529425108722,47.3652327054121],[3.944243142987652,47.38021568332925],[3.9087922026053734,47.38205569491613],[3.8867653218201808,47.3645805378824],[3.8718702934595615,47.36693490948858],[3.8635369268343536,47.395841532600606],[3.8933965172489198,47.410290156628015],[3.878310953801514,47.42929226716236],[3.851506603080638,47.43558613394464],[3.8443762508505244,47.41082738551116],[3.8217875906686545,47.402796919032404],[3.818472205441228,47.380187941025326],[3.785647440559844,47.39054224193822],[3.774605414302544,47.40619956994621],[3.74055092250182,47.39650073819435],[3.7147823454353084,47.406834666623176],[3.6789914842274665,47.445533677873506],[3.580113356556516,47.46490071648911],[3.5806168100615214,47.49786323631363],[3.553140570878716,47.50232679103883],[3.5135049928892266,47.527668013741454],[3.50460694021663,47.557934222629186],[3.492366537968952,47.56012889108053],[3.488276701493949,47.493830911376975],[3.437164175942187,47.50799559642577],[3.3972880002653882,47.508867495938276],[3.3807002450190415,47.48729175533955],[3.3395269332726487,47.47816523272086],[3.2852515362929866,47.50393862662616],[3.2721566613710795,47.49154765493751],[3.2354902376938353,47.4891790840854],[3.2046491761957805,47.522966343570126],[3.165190757880271,47.51750199807388],[3.1350763394879597,47.5419077972082],[3.102009918822544,47.58795615956075],[3.080558427544962,47.5854885999859],[3.059199650745983,47.56884905584853],[3.0187759740569513,47.55731386824091],[2.9765380120036067,47.56942879709582],[2.9622747369522457,47.57678810211018],[2.9403094506517125,47.60348550057479],[2.936290512560618,47.63665230316903],[2.954234275262721,47.64577868896602],[2.9181549279743337,47.66979136771246],[2.911669508308486,47.69146053421784],[2.858973240721994,47.71131839341009],[2.848796639073614,47.72588667336868],[2.8566660682192713,47.76092647077394],[2.9145173600355263,47.76938033260984],[2.9496989968031038,47.76587258709822],[2.954736881556772,47.77555900512353],[2.988221260489061,47.78603448891204],[3.023798094359226,47.78655467899923],[3.0281191130010834,47.80064806639638],[3.0125379851547156,47.834374131761656],[3.0297012521374107,47.83508204151216],[3.029058320822418,47.857123076441624],[3.0053630487182557,47.86404745363208],[3.00722631015934,47.895294555605346],[3.0646112850926173,47.93051941081648],[3.0784722436737018,47.93141992007049],[3.1284501214452565,47.97097324034548],[3.1245523178040195,48.006029252910174],[3.1040899600034066,48.01354534990655],[3.0883177986514796,48.05393639481059],[3.0504714242752176,48.072334131124755],[3.0498962046090887,48.088837886069456],[3.0294654865478936,48.13320717199774],[2.990882804955562,48.15249378691091],[2.9712637126470374,48.15183377076339],[2.936314411640624,48.1633917441478]]]}}