{"type":"Feature","properties":{"code":"44","nom":"Loire-Atlantique"},"geometry":{"type":"Polygon","coordinates":[[[-2.45848916517333,47.44812172071826],[-2.453433891770773,47.46207445240776],[-2.4230264761460525,47.477112579344045],[-2.3999436811786463,47.45598156061156],[-2.370968184053226,47.46338717496278],[-2.354869937092447,47.454890712840786],[-2.31286829291468,47.46446874947645],[-2.3131355987939677,47.48590211028132],[-2.2991284429653516,47.50047998605304],[-2.2613604986657707,47.51360628741794],[-2.244282758246302,47.49360064884759],[-2.1908096601747804,47.51205628181908],[-2.1832952625867295,47.49169698467854],[-2.1541846873077226,47.496364126798106],[-2.1560219978896007,47.52202803044017],[-2.0985539306805943,47.53395835736954],[-2.096505468974894,47.57236562280809],[-2.10372254987444,47.58943141752024],[-2.0869285812433267,47.60277534815358],[-2.084994306680996,47.62123305096733],[-2.097035597340287,47.63135984401428],[-2.0747365598102796,47.65166099544987],[-2.050619855103944,47.65113784113771],[-2.0357262501792506,47.668539150280836],[-2.0093556937669623,47.67137826011831],[-1.9690539759076384,47.688369032568346],[-1.9546408028570217,47.67170187943092],[-1.9363047156903395,47.68664646647229],[-1.8640133393104241,47.7069846705491],[-1.8225344895568474,47.70628736859361],[-1.7724163023563184,47.69845339608558],[-1.752032319383817,47.70741764750666],[-1.7236704751667482,47.698676218818825],[-1.6911255411567772,47.71282712864092],[-1.6556020388557997,47.71053299603197],[-1.6381801885560439,47.72231564110314],[-1.635569613301689,47.74266025266195],[-1.6163557701095264,47.76415676086167],[-1.5934074072820492,47.77605009178189],[-1.5280651896409132,47.78584499709324],[-1.5042371318422498,47.8009448646891],[-1.4666150070573418,47.8074975400483],[-1.475255403833222,47.82540410017005],[-1.4651862054088018,47.83460451273148],[-1.4178432025307772,47.82748441208516],[-1.3904279688415837,47.828280801153184],[-1.360603817710753,47.798432206803135],[-1.318489521021141,47.79233158240722],[-1.2458823462890538,47.776717547680406],[-1.2355437776358398,47.757046555422306],[-1.2545772523262662,47.733641751506994],[-1.2154187219671249,47.718817804901974],[-1.1951181057962028,47.72154902070605],[-1.1894960789668845,47.69916325132362],[-1.1749295691501485,47.694565013829596],[-1.1824294262619501,47.6680046714435],[-1.1608077767122782,47.65632049258235],[-1.1579089209094204,47.63660321755249],[-1.137956817334609,47.619736138890346],[-1.1006492140245874,47.62068366379477],[-1.0564895204285647,47.601479248609785],[-1.026009375226936,47.599308629561634],[-1.0068639898836467,47.58905339488284],[-1.0525094143946503,47.56363638662836],[-1.0397778230870207,47.54883710607215],[-1.0444575006084293,47.50550106908369],[-1.0086170505041334,47.489110660531026],[-0.9674825559179046,47.492800296900974],[-0.9672169416067916,47.468248780242014],[-0.9542208546281663,47.4539097574189],[-0.9610616341565943,47.418146960038484],[-0.9500724202369605,47.40418985727392],[-0.9508302510459343,47.38350557596203],[-0.9748672757080542,47.371382608948814],[-1.0178737847602033,47.36506226317233],[-1.0787286518898893,47.370791947022845],[-1.1082260597696614,47.36577684975045],[-1.167609698077546,47.365887235139574],[-1.182960128465649,47.35431013426607],[-1.2286336711215902,47.34992378396915],[-1.2612216058119492,47.34085259435289],[-1.2998771573086019,47.33762366530587],[-1.3358228427021601,47.3189666448679],[-1.3443707665147786,47.300912351608176],[-1.3017706698751919,47.30303238335918],[-1.2798655849130829,47.29443954491049],[-1.279481478733716,47.274997858626456],[-1.251834385400758,47.248391505350874],[-1.2283649350807286,47.239712044540795],[-1.1980384206236745,47.252940714686886],[-1.1809669432498426,47.24081046650355],[-1.1880521879881976,47.219792216059965],[-1.1784570598013726,47.193390310739396],[-1.1634008936162523,47.18546752937314],[-1.175868309084218,47.16311976069785],[-1.207726991440738,47.1438706405948],[-1.2374293726181724,47.13493300477958],[-1.2258419448390925,47.11944408223294],[-1.2423703743532273,47.10123014862037],[-1.170292292370527,47.093053598552416],[-1.145027574182689,47.06837675006014],[-1.1155386203739606,47.06269707451897],[-1.1170476687025708,47.04013159004134],[-1.1485704887534398,47.029545162586565],[-1.200679265181828,47.04002068735864],[-1.230646678052403,47.0647662671337],[-1.248272600668004,47.068248451977425],[-1.2683044893940385,47.08474885032919],[-1.2903251112226377,47.07019181205101],[-1.2946349782361042,47.03948346966515],[-1.3124114592110108,47.03350963450989],[-1.3627515861913184,47.04068820066417],[-1.3786124689367814,47.03085386698655],[-1.363022131692666,47.005231806651935],[-1.3775094300897999,46.990940454807415],[-1.3590587331965938,46.98113458794234],[-1.3729857700949506,46.95218446660972],[-1.4181594787532137,46.943057239909116],[-1.4582677297055284,46.92583846037384],[-1.4715165512848787,46.93291787054446],[-1.4572082927387657,46.95464665401728],[-1.4769594857010369,46.98097074445235],[-1.469172627780506,47.00198697021648],[-1.4759335714372155,47.029463554503664],[-1.4998449288829532,47.04068947453796],[-1.515724271893768,47.027732420842334],[-1.5552723334553664,47.01533738692226],[-1.542665987015755,47.00327217070728],[-1.5543623514658027,46.97816341773942],[-1.5309030377362816,46.94498074264914],[-1.527927453698693,46.92377826735825],[-1.5007668577856463,46.88389115282979],[-1.5485110748777025,46.86007983436468],[-1.634820511862539,46.87837868837905],[-1.6645131258008816,46.874779205029014],[-1.6870033984268769,46.89055113474326],[-1.7202546726947285,46.88456447923729],[-1.7371139932046213,46.89680599083098],[-1.7362508076850236,46.91143568904478],[-1.7513270577094098,46.929611815604666],[-1.77556460551789,46.92540682943319],[-1.8309821821134158,46.932033724154486],[-1.8318237164160205,46.953809822447525],[-1.872614380314098,46.95312868208426],[-1.9174428113267457,46.97508381963422],[-1.9166202315157645,46.991518959422415],[-1.9432276192598639,46.99471092059494],[-1.9688489284381314,47.02767329905578],[-1.980414486742876,47.02890649407564],[-2.0047172984420274,47.06145903008165],[-2.032603631969014,47.07351687202541],[-2.0534725301465024,47.09412159709027],[-2.114087677200522,47.10989368059357],[-2.1555864883203406,47.11283045616817],[-2.1776732744717013,47.1220648516062],[-2.214466888230872,47.123901610790035],[-2.226823218085358,47.13094036238744],[-2.226132030050598,47.15227424383228],[-2.167064477781809,47.16618049901811],[-2.1583713304619327,47.20905347867946],[-2.1805520828108604,47.23299057764472],[-2.1705404081241095,47.23975355445233],[-2.169993937357407,47.26847661211524],[-2.1873645299124624,47.28061948952369],[-2.245373274313404,47.25599310446833],[-2.2698943084243393,47.23956836515538],[-2.301643363345213,47.23640440229174],[-2.339599042924339,47.25518767687217],[-2.3697489457624465,47.27743476237253],[-2.398380900159916,47.28144600126307],[-2.441973190559724,47.26058258477878],[-2.4555196699772877,47.26813905362376],[-2.513904074004327,47.284623375273924],[-2.502914104344962,47.328751209072664],[-2.5211551419585674,47.35881029297989],[-2.5589409930083042,47.374567573551786],[-2.5341025675524826,47.38296506334218],[-2.483893499163002,47.412419341696214],[-2.4508581636576396,47.425325950967114],[-2.45848916517333,47.44812172071826]]]}}