{"type":"Feature","properties":{"code":"15","nom":"Cantal"},"geometry":{"type":"Polygon","coordinates":[[[2.508408697113082,45.47849879874483],[2.5437058143512723,45.47758527668323],[2.590384711197607,45.45005773186534],[2.6396930053973264,45.44570657455579],[2.663390372512316,45.43416415509558],[2.6764584284787265,45.43907413938682],[2.6871186111491756,45.40629147061533],[2.714857227145231,45.38155782083131],[2.742824191956514,45.393286416958404],[2.7635223964556954,45.38562409648569],[2.8012313498513737,45.39285594883326],[2.851739807542808,45.392294826301445],[2.8677277513750035,45.376079673109146],[2.8863031117541533,45.382961505858326],[2.9207131825210073,45.36542334907543],[2.931754110661835,45.33059235323827],[2.9495692996597285,45.30885613298761],[2.967346132390612,45.307097870959936],[3.0183045953290004,45.2870664026082],[3.021790178296388,45.29536780296733],[3.058569686824016,45.30656505249262],[3.060267266954517,45.33058792846881],[3.081709261400673,45.33620210714899],[3.1034981328800555,45.35437310008832],[3.1134170784877164,45.32717903792977],[3.0999431470714955,45.316251503364],[3.1179979977042014,45.284187297622225],[3.1595874385219407,45.29128516779879],[3.167616208952322,45.280135013197906],[3.2125769046776993,45.28063487720399],[3.228040568209475,45.26635049790692],[3.220952339250761,45.244178044330745],[3.239572097735146,45.21694671205992],[3.27247945333649,45.20918164911843],[3.2606073460103326,45.17094202255946],[3.2880332175079103,45.12042440957931],[3.3013685993945794,45.12408985771677],[3.3340673163073404,45.11112985018295],[3.3142746780569206,45.08502161586657],[3.300037167089146,45.05612205325275],[3.3002890808475738,45.03204489436342],[3.3114877307075306,45.02276714381717],[3.337173969362221,45.02533946243554],[3.349918646764341,45.00260138512903],[3.34795071948085,44.97386741391429],[3.3613425807398936,44.97141170967897],[3.337948402304469,44.955908780382266],[3.2989394542854322,44.938607376229236],[3.286022962312807,44.92637841429803],[3.243812024502196,44.933528843936465],[3.2496925236752454,44.916237893044965],[3.2290980359662727,44.90925048112522],[3.2366483203775314,44.88797735233407],[3.215966948855477,44.8750364950506],[3.182311971252496,44.863734531317185],[3.166012315445439,44.874339110434526],[3.1411028663826848,44.903319692595886],[3.1054983095640436,44.886774803102355],[3.0936395044401266,44.853715932362164],[3.0994768968798603,44.833588418089676],[3.071476757431392,44.834123173435586],[3.048093761431216,44.80425398591603],[3.0479974143057897,44.765468479023006],[3.0310795010084504,44.74941305751071],[3.028593384774951,44.73000325460999],[3.0160096767820934,44.713692453685596],[2.981676986530433,44.6446766126243],[2.973000483295105,44.64571914667694],[2.942968011895008,44.676956264041884],[2.9250598501117997,44.72712765384178],[2.9347898343981527,44.744014418025785],[2.920800098992959,44.76572967096113],[2.9345215070232764,44.779198272865976],[2.9201908650803254,44.79430517818069],[2.893463810454271,44.78634192775854],[2.8795722036394493,44.80301061014631],[2.8704061890716517,44.82942482057374],[2.855294234485589,44.85122120013259],[2.8596787274829483,44.87446457937794],[2.813504204128073,44.86939072862634],[2.8019551055054883,44.87362935290199],[2.7727032477846745,44.85554848858922],[2.778335607948137,44.88772015360108],[2.773539092637797,44.915090188600416],[2.756446447848751,44.932385951522065],[2.731011702023176,44.936748096176],[2.716460244119946,44.929058850326676],[2.7064349149756604,44.907226122164595],[2.681297551065327,44.907390957815316],[2.657758465796855,44.886441699351096],[2.6490608273773533,44.86973105802406],[2.6239346066524707,44.86692074581927],[2.6026810523917403,44.84316760837642],[2.611613330896067,44.83068448570257],[2.596849860721244,44.81984577665913],[2.5993575445949,44.79280887269849],[2.565243660905042,44.77818509002242],[2.5544884354514226,44.739644683596104],[2.5581520749956534,44.7235077650761],[2.5008854718716496,44.690412284300194],[2.4831925395759007,44.65033992053267],[2.4521623511235817,44.648218952798366],[2.4350033478315978,44.63887764359622],[2.3819999953795703,44.650883200245765],[2.366001494633773,44.64133953238094],[2.3327774512659527,44.65061525218626],[2.326785795750648,44.66969245597246],[2.2910316971198657,44.666588146931176],[2.2508940048769053,44.651891647919456],[2.228626493841591,44.655105785064215],[2.208413991565611,44.64384410168341],[2.207475285530841,44.61553167652982],[2.1694177928364127,44.63806619142595],[2.164998532757633,44.66315186421785],[2.1791523387104577,44.6744488247748],[2.1526517256816478,44.69982758494574],[2.1473467852230246,44.720872889725285],[2.1534919160094748,44.753107579025226],[2.1669553074507704,44.773143530159075],[2.166838986075325,44.81171436877482],[2.1398005030167444,44.82382515219366],[2.093387343737472,44.872914160665985],[2.0864964046718506,44.90108537322011],[2.1081096992344133,44.91064323067309],[2.0786199838878985,44.93249880393721],[2.080180633811985,44.95404979923148],[2.0629142919730623,44.9765064055156],[2.0938020877139607,44.98529837433936],[2.1329789677394575,44.98552052019744],[2.140647790386873,45.005857628345254],[2.116811790903016,45.02111348728891],[2.09515947189117,45.056029885039536],[2.140183835372406,45.08652439641992],[2.1717556853734434,45.08149587397562],[2.1880924247036915,45.117940072442366],[2.18170890180253,45.13265183027654],[2.207633764509611,45.14349133970101],[2.207977370989871,45.1587474845356],[2.1901243496543654,45.20505624696943],[2.204634111796817,45.22819449662118],[2.2387798021685046,45.260353986844294],[2.2585645529210967,45.270221039449574],[2.268987098125343,45.2893886939803],[2.287418644336649,45.28656307930596],[2.3177410847351756,45.32296013589262],[2.350492100523935,45.32756729305109],[2.3513449070267884,45.348607328275094],[2.3647879506791765,45.35792327432974],[2.3693560338624287,45.38650326050192],[2.354551202894122,45.40140299938709],[2.378246243484016,45.414305790766434],[2.3982932489236073,45.40016956610219],[2.422673701160617,45.397227168836935],[2.4463304633628185,45.38326310881528],[2.485765402150312,45.37894867689509],[2.5233092448704975,45.384373430857245],[2.525650073736618,45.394585673379005],[2.487538059249189,45.41816337489308],[2.5067704454060635,45.46406590539498],[2.508408697113082,45.47849879874483]]]}}