{"type":"Feature","properties":{"code":"73","nom":"Savoie"},"geometry":{"type":"Polygon","coordinates":[[[6.802516663522652,45.77837197402193],[6.808418511070923,45.72515343860933],[6.847748586989986,45.68937749599125],[6.906506784191486,45.67456031820136],[6.902142336705646,45.663739451343055],[6.934608837460737,45.64709230917702],[6.966679928899032,45.65406247996058],[7.000690534148291,45.63990159437462],[6.98785713700158,45.62484030507284],[6.977853982998437,45.58988711838748],[6.995382953276822,45.57564160818661],[6.9915063165642675,45.531275223900984],[7.005311787943923,45.51709673862955],[7.000331708478394,45.504417196582274],[7.04452030151899,45.497242723763186],[7.045847872850837,45.478350392863504],[7.0997891354009095,45.46943936219543],[7.113516455211971,45.43419468733109],[7.152242832761182,45.42319920873864],[7.1842747748936695,45.407480631519924],[7.165149366142358,45.383396585908265],[7.161662218042757,45.36245350123881],[7.137734008933981,45.35080736839848],[7.134719719291083,45.33124412917526],[7.113617028522963,45.32868608867201],[7.121796569398171,45.296222432254126],[7.136428084679232,45.28079531076303],[7.137753498643515,45.25686099638962],[7.106506545205386,45.239259844510855],[7.067342157688226,45.21008321740584],[7.051179482821824,45.225331224056454],[7.019992318063418,45.21587387777123],[6.965752237821794,45.20795099681965],[6.954190330678925,45.17961083467822],[6.930266678221192,45.17096314110703],[6.895349577041668,45.16846478638608],[6.884108906250159,45.15674060434921],[6.89437780212641,45.13736971507668],[6.847887829330167,45.127201835901765],[6.812274904701698,45.14835683817089],[6.767947891773147,45.15974332272096],[6.738956139264719,45.13683144319859],[6.711286195179388,45.14475992733128],[6.680067352474279,45.14012497136189],[6.672462233861758,45.124412299122746],[6.6299873381374725,45.1093269281999],[6.615550094957373,45.12147775227429],[6.57653069592537,45.12309720037721],[6.55601396596344,45.104195104315984],[6.529708447474563,45.09856919735164],[6.510979894458294,45.10875068557236],[6.480384256020366,45.09079271505677],[6.486234598441578,45.05607309559144],[6.451799595532319,45.05172052616644],[6.438596097282185,45.06258355349038],[6.393914586674507,45.06181851097421],[6.364877554955543,45.07017079687575],[6.373529600716985,45.08414824428705],[6.362935515883446,45.10449356656247],[6.3312977067397425,45.11812379084807],[6.299216785815758,45.10855211143577],[6.260566197557925,45.12684791386632],[6.265373167502132,45.139612058658614],[6.248933790379999,45.14966269770901],[6.227710427654607,45.142718202360385],[6.189207693158913,45.163732283277994],[6.16131722681015,45.151009138334466],[6.143789597164076,45.15455037021851],[6.161919245441667,45.188407230805964],[6.159477588169717,45.202453059383735],[6.125696481423486,45.244270268835855],[6.140875621531491,45.261921460435985],[6.131944929909637,45.288287215984546],[6.160203556675586,45.31249020082116],[6.1844503207792245,45.31794850760671],[6.194758976954228,45.35224190534863],[6.177450938299202,45.39316148783122],[6.144660957447894,45.41359714609229],[6.13250773126349,45.43338472055341],[6.097443053810049,45.43210624582376],[6.090976636521003,45.444017712369956],[6.049753851710852,45.43791952965108],[6.008517618674313,45.45384805163827],[6.010911085643492,45.4732028948577],[5.991189721035916,45.47515424577151],[5.966169653050879,45.49230872138139],[5.915370443544101,45.47644734987887],[5.92551858695235,45.46607303539041],[5.9205757281996165,45.446107810736585],[5.901623412018766,45.41803604702067],[5.909619159426924,45.3904002917266],[5.891004502554541,45.39221582440636],[5.8797384015593375,45.406796712103805],[5.854272829475331,45.41656686156957],[5.820296539907869,45.421184335243574],[5.782081150720109,45.44065533936711],[5.740104011811925,45.43734623286918],[5.731970000928497,45.45281667211181],[5.73637233564262,45.47254042424704],[5.719054346580329,45.48422397831694],[5.71223316468065,45.505057950484435],[5.690155380407807,45.52805094541753],[5.671709636036369,45.53657315102359],[5.675167496407929,45.552447358553074],[5.623027366443004,45.60428439343032],[5.623748035268078,45.61326832676418],[5.659528303353562,45.638682809874865],[5.689187102194641,45.64850161239945],[5.687058475150925,45.66816731077608],[5.708336503736496,45.683064766572876],[5.704119379498135,45.710926329459184],[5.756676853365063,45.70873356110276],[5.783495254205752,45.74431423922736],[5.77937453777779,45.76217553185385],[5.786777683247082,45.80940611504179],[5.80366973107069,45.85558153164841],[5.8285402770414905,45.909296035615355],[5.831226413621035,45.93845957829322],[5.862101395990038,45.932402294861824],[5.869091534260767,45.886864468450106],[5.878940328529421,45.8597615070083],[5.873592999113487,45.842776979480114],[5.913222470309635,45.80414050655359],[5.962785346309549,45.81273546653543],[5.980956213671225,45.795577042949866],[5.973931864683397,45.77494633416943],[6.010784848574594,45.75008827465721],[6.042951856542115,45.73909560438109],[6.0527168183887685,45.748591125666145],[6.082884373383685,45.73997499672517],[6.127911958348486,45.75170259298121],[6.142900945398585,45.76151435802781],[6.178383991605425,45.74715464474954],[6.19554810502904,45.73233087617837],[6.189464060829947,45.70250157434257],[6.231653819459301,45.7027499445204],[6.239679907775353,45.685404763162595],[6.279888236747214,45.68431276833579],[6.3048306731057115,45.69329913872337],[6.328722589989684,45.693028041590736],[6.383851558657904,45.77805529558221],[6.424911859192457,45.80352244063008],[6.444801213660523,45.84550566374783],[6.470572561574056,45.8846919017355],[6.493715031750103,45.88999988497013],[6.514771172368506,45.90441808486001],[6.558675044419775,45.8930927712201],[6.572913173369461,45.87755381109516],[6.56843309482083,45.86317365422438],[6.539525002903797,45.86285738025596],[6.552237633503553,45.82687986970037],[6.577214777368843,45.81657207430024],[6.601732972495579,45.795419923318136],[6.661011726554582,45.799100632035966],[6.688825113135432,45.77134869370408],[6.686145373112389,45.755327050482464],[6.6987046073815275,45.743259542342656],[6.691927026555463,45.72680454299077],[6.711951361097394,45.72291924893507],[6.74001337439419,45.74561033697647],[6.755509936266976,45.76635254534395],[6.802516663522652,45.77837197402193]]]}}