{"type":"Feature","properties":{"code":"80","nom":"Somme"},"geometry":{"type":"Polygon","coordinates":[[[1.3815511365583815,50.065766690242754],[1.4538812244610173,50.11032909893485],[1.4827841768786612,50.17236969475436],[1.5124381763701704,50.2017063700377],[1.5484320471199113,50.215221918674395],[1.5961991412319396,50.185500707511935],[1.6274102918028155,50.19000238393702],[1.6733457406347452,50.17468159487083],[1.6837994282613178,50.18302974967859],[1.6626698233214425,50.21359776854474],[1.6225022082629057,50.21514839669941],[1.5936030011622346,50.24428749653274],[1.592228280418861,50.25645840166426],[1.5493076277829827,50.260405655281644],[1.537947734772934,50.282668474589045],[1.5509358115042569,50.350323301735024],[1.5713354866487355,50.35845399700039],[1.612971621673763,50.36029378076435],[1.6415439209955993,50.35215320244089],[1.6707155098465678,50.33101039989745],[1.739453874214164,50.35457494026503],[1.7787842601942672,50.361866180722075],[1.8051005697505793,50.35956479028979],[1.8313070764668689,50.345521376961486],[1.8725624158329885,50.332203345380606],[1.8759231954314028,50.32174642503478],[1.9180007470953697,50.31177877534881],[1.9381301712408916,50.33010048991117],[1.9587947410604334,50.31226469090631],[1.9364041762807813,50.30146908295568],[2.0032288628275974,50.27038408348767],[2.026446120500165,50.269546075893764],[2.0561495866960637,50.25515840313268],[2.0857138282832497,50.20100753303517],[2.122580060921799,50.21070523924823],[2.1602439796705144,50.195073090929476],[2.17414784189994,50.20889796150714],[2.2173374639794026,50.21748679591506],[2.2458060345105704,50.211701863441725],[2.269796498169412,50.22880955959933],[2.3012047633367585,50.212864087760096],[2.3404952021137726,50.2293253960828],[2.370204907638782,50.20977035832257],[2.3814020747034625,50.22558671136131],[2.4054762905102116,50.234029470791484],[2.4524037722545233,50.22617450808976],[2.4852044166964613,50.20779089755312],[2.4956903275727766,50.19456202411803],[2.4511824235732345,50.17870118824561],[2.4148458534849215,50.17310955154985],[2.3897770566865675,50.155484821444404],[2.3923866280005646,50.14534070022987],[2.375459692531332,50.109251478562726],[2.4145079258525888,50.10064240686793],[2.4296578345647766,50.0881849283962],[2.4501350913608073,50.12440021874914],[2.481495194281265,50.13816938510139],[2.514949343300702,50.140811614698116],[2.53247243497901,50.11502396682772],[2.557055359846941,50.14204829791205],[2.579246199237998,50.128556557952706],[2.5760198137336725,50.11341281005766],[2.620114035740686,50.1111233231505],[2.633413606035314,50.100835661500284],[2.6918325946042887,50.09172778717194],[2.729579928321446,50.125953038257606],[2.7633488151068777,50.10996516360832],[2.781835790362261,50.09110348945762],[2.742546612593098,50.04823137136034],[2.763122932751498,50.03863557102141],[2.7889640682343506,50.045311213953525],[2.807546851114983,50.062415585560984],[2.857843650412817,50.07739311900277],[2.87653264314694,50.04217932424792],[2.917155076234358,50.035710799347],[2.9444810700691098,50.05347379150127],[2.9787858100327975,50.04636219278302],[3.014439323479967,50.059152788811005],[3.074492199997738,50.04529954091121],[3.090253620620082,50.05374055513492],[3.117562382696325,50.027670727516394],[3.1729557922769542,50.011311964972776],[3.1613946355055402,49.996049271243585],[3.1768373814163575,49.98520439643777],[3.1515239055114135,49.94267027284344],[3.117968662907868,49.91427637798353],[3.1200543249509205,49.88428837261846],[3.0835290437648006,49.86638777885566],[3.085506495983628,49.84381936000555],[3.0558889248241528,49.83168131148238],[3.078694114076548,49.82241521578422],[3.0859749674446215,49.792016685972655],[3.0627453563551175,49.78264211542407],[3.0937519856623417,49.75705197896964],[3.1184031553047866,49.705968560150744],[3.0629504716788527,49.71256910166192],[3.026158602863713,49.680298029261905],[2.989594629116647,49.70802042057901],[2.9495143470656977,49.69065965176808],[2.915712813038834,49.70267238896688],[2.857260670232296,49.68366758301244],[2.843350258918428,49.65852651008911],[2.8007055089354633,49.661447402253124],[2.7897685778094523,49.638092566661996],[2.7980938007575653,49.61811251953584],[2.7709877504026585,49.61435313605804],[2.7395572131560577,49.626924487224116],[2.687556334287926,49.62475309433038],[2.671248956542555,49.59858674592385],[2.670723151725744,49.58141197178741],[2.649628562594336,49.5717641083625],[2.6299442784590084,49.58032399470266],[2.62379591221486,49.61023030743844],[2.5970251802580453,49.61168115170793],[2.571493337841171,49.59708062701416],[2.526732085722268,49.62940041323432],[2.506120221148308,49.63500671034503],[2.4781226406322063,49.620790233933015],[2.4456566302700073,49.65297898416902],[2.409702695719323,49.66099609376744],[2.3708606973518425,49.65635328949203],[2.337642942746636,49.66900004753446],[2.3157256235726433,49.689753026308125],[2.2850923978754705,49.689388245191964],[2.21756318128915,49.70246959323254],[2.156484137758264,49.70211563032466],[2.1214097069260887,49.68807409174484],[2.103494780498011,49.694736883916796],[2.05989780108139,49.6948752492932],[2.0267681801791118,49.711310876188165],[1.988919892649775,49.709402970462676],[1.9332098221662726,49.719629963489474],[1.8938643249004963,49.69898823076106],[1.838108169073818,49.708425628485685],[1.836736935686628,49.74011542093402],[1.8089798932395025,49.754332476868704],[1.7838370588623413,49.75830750106765],[1.7579353611352482,49.78079816556512],[1.7373868163547241,49.808208553760934],[1.7102228122571477,49.889310195824926],[1.6932905136148655,49.895599170378354],[1.6784506742272387,49.91813416149145],[1.5940134659800094,49.94905060798451],[1.5738945679765357,49.973919004055446],[1.5269495769722599,49.99657729204429],[1.5165885660526253,50.011616580757526],[1.4933078848725079,50.01773775805818],[1.4521908437935025,50.04023194047863],[1.459145908803628,50.062499063196654],[1.4235954957723689,50.070850716019166],[1.4092601958562414,50.057074130391825],[1.3815511365583815,50.065766690242754]]]}}