{"type":"Feature","properties":{"code":"57","nom":"Moselle"},"geometry":{"type":"Polygon","coordinates":[[[5.893401083719673,49.496909750110916],[5.939944946897957,49.50096978911359],[5.971783320923806,49.4913163055914],[5.982536594108972,49.45105527746582],[6.02765177650771,49.455538917030424],[6.055623323914133,49.46535978168454],[6.076705098128764,49.463656672860225],[6.123474712997803,49.473441852078615],[6.155249287805073,49.50381182382041],[6.256413026994873,49.5100225584692],[6.279098229910086,49.50335719786734],[6.296571041016304,49.480106944913075],[6.312489363480976,49.48032031550801],[6.364391072331403,49.459485597794696],[6.407623710243866,49.4675154675881],[6.419090928661235,49.474937866427084],[6.470082245543733,49.462763723134074],[6.554360572853942,49.41838313208105],[6.5405283477242735,49.401145041619664],[6.563269082557648,49.38828526012536],[6.587074296882195,49.3849358288203],[6.568452040389599,49.3449154814342],[6.5955807025304996,49.33027144782366],[6.588884741951244,49.32209317831749],[6.6175524843963345,49.302169283821854],[6.638579265784432,49.29553478914614],[6.660330281989145,49.26096781243674],[6.684616608971706,49.24231882936001],[6.694810016062328,49.21590718897018],[6.71965859480421,49.22137943216265],[6.731498100833765,49.2060909576377],[6.711364818806887,49.188541683234874],[6.738512367681464,49.16366113912631],[6.7845550558709675,49.168090266711616],[6.834537718950126,49.151466712468384],[6.8609420718719845,49.17871523308854],[6.851537824818373,49.200484084387014],[6.835378369933188,49.21132385245782],[6.857449193294861,49.222275027981475],[6.885215505575565,49.21104948546778],[6.9354255357579655,49.22215593921376],[6.959285196153518,49.20300203966244],[6.974631643711455,49.20981472133559],[6.998806412798309,49.19427844167972],[7.034324960729169,49.189681536322034],[7.0276480006522135,49.17008240822472],[7.046147533263103,49.13856517309118],[7.054297461807657,49.1126326923314],[7.102777636286391,49.140499445767595],[7.156729211133253,49.121305964534294],[7.183938532639857,49.130733985517935],[7.206632231887248,49.123477362718766],[7.245302859127929,49.129807084465035],[7.282600803455493,49.11693169088899],[7.298652796709717,49.117457118012105],[7.329841252153916,49.144944493025186],[7.36284676727469,49.14521917131234],[7.366092677702596,49.172465701358625],[7.4450608117676325,49.18430555508701],[7.4552291504089965,49.16632509495078],[7.493995166397878,49.16963770649743],[7.492159555313797,49.14186210733454],[7.515445437889962,49.12116845523475],[7.528977470244165,49.097207912439856],[7.569010373147195,49.07978656309812],[7.599982064041664,49.08333244993025],[7.631070828249015,49.07018534790654],[7.635285449703197,49.0541613551771],[7.6400276339065405,49.049114242922506],[7.609553546221074,49.02123201245433],[7.591218725544888,48.993724868247604],[7.57839213753989,48.95740241810784],[7.533247825039657,48.93350273583194],[7.50187360937539,48.94425222519554],[7.479572330825655,48.96139105276517],[7.451630239981024,48.967962755037526],[7.392311568753424,48.952706941018526],[7.358876660684313,48.95760287154302],[7.326851980608823,48.943372742020955],[7.293949845247019,48.97157404948427],[7.236031367305892,48.987818615118876],[7.209311457091751,48.9800881370531],[7.174240270723143,49.006365681338195],[7.130505931552783,49.00459350678602],[7.119477346819226,49.03721652969957],[7.108081132396537,49.04341471828652],[7.103885148469087,49.074161754697926],[7.068107134587352,49.066879969038716],[7.078659891943001,49.05036062768427],[7.054911912536333,49.03061918771655],[7.05300726402484,49.00729189414574],[7.038359726746952,48.99687346466287],[7.032219488521415,48.95604910228417],[6.98921640979739,48.95992878867804],[6.978894125394516,48.93334137925148],[6.955547179403453,48.922319717315936],[6.964601688658047,48.90452526765522],[6.988916052470446,48.8911922591983],[7.044405156028646,48.87353491651631],[7.050249140492324,48.85934342449812],[7.081165552464466,48.864100481733125],[7.086623738193806,48.847740597072104],[7.051334597348638,48.84628529036997],[7.054514540544794,48.813704386223854],[7.079303305840072,48.81404016744667],[7.088166864000689,48.79249269644048],[7.1231658021967155,48.80450097964112],[7.146671555297553,48.82130284961471],[7.149408408912651,48.84470403837187],[7.195876686739622,48.840397988184655],[7.196675525429877,48.828301758643974],[7.228655644882326,48.828038818777635],[7.262026914660001,48.797761488092036],[7.291233271693293,48.79399531609868],[7.3064497001602975,48.7691099850618],[7.286884538061931,48.73134414106466],[7.266625221422177,48.714209030699415],[7.260168326105747,48.69429915361379],[7.242261522633183,48.69210964676438],[7.2645955424124935,48.662703775725404],[7.30435493964854,48.6602012988693],[7.270398382732597,48.63054438708614],[7.278427796440234,48.625202388791344],[7.256388448234081,48.60150853250187],[7.256281654444217,48.588675507652],[7.2183172603088295,48.55264406598888],[7.1924855682726525,48.54879290260453],[7.167909935894842,48.527596443549314],[7.147094880277466,48.52694681230707],[7.114376678081027,48.537389878992194],[7.079359770973246,48.53641761270014],[7.05703294231895,48.55111677598128],[7.034244738955548,48.58041837913675],[6.994503728351811,48.59596380824709],[6.982896473118807,48.61187146059442],[6.960798228747959,48.60828605857016],[6.930006989091913,48.6355511656451],[6.905122950842201,48.61984409056823],[6.86360548586589,48.62031667084879],[6.8440535368717015,48.62597500455583],[6.836628311600907,48.643091017748844],[6.810500233885349,48.64743317270349],[6.782490229155465,48.642725006759726],[6.757341859177665,48.66339528935242],[6.733850339573668,48.663755791166636],[6.68791954042715,48.683627810294645],[6.658407329856351,48.70804728628271],[6.638020827883166,48.70287255743568],[6.6236441629626235,48.713682866112556],[6.598965570952483,48.71569079778236],[6.594835612692378,48.72922173177475],[6.564255135947671,48.74995572268137],[6.5401903328498525,48.75385918265721],[6.511039646542062,48.74880543901709],[6.489616200477496,48.765575862224765],[6.453603381539952,48.765894004837314],[6.433515038771951,48.78904238593331],[6.394874246018456,48.77476240981232],[6.370600538901966,48.78462319426055],[6.330651430081595,48.82330786866148],[6.338947107825573,48.834058199828384],[6.2888587554276025,48.84323273382886],[6.311714980584929,48.863826545661276],[6.298269555306107,48.88072376373154],[6.327264769799276,48.90519552048261],[6.288337094198781,48.9164057732219],[6.271977767337417,48.9331355970772],[6.245534632278756,48.92378375934002],[6.222641164054098,48.93850513094841],[6.177120700704927,48.934924104920626],[6.16233199123861,48.94287521453305],[6.132207146051102,48.93472094774055],[6.116912179457586,48.967832850981594],[6.081322571612109,48.96304750061741],[6.043435324319259,48.977477915970994],[6.045110478908419,49.013520358557074],[5.9532001062961815,49.05400525300155],[5.924683336615274,49.09212399499875],[5.931603285178869,49.10910433832356],[5.997395942366339,49.10784182738146],[6.00491999554859,49.113988280244584],[5.981384937221558,49.14445423565313],[6.0261499402444025,49.16511893599002],[6.002250831363206,49.185007006720355],[5.982834325573433,49.18651522282689],[5.987627297222747,49.20961691713355],[6.029385386695151,49.23047199221416],[6.0286095479587445,49.24841255130629],[6.006667263528377,49.26028809283966],[6.000492336268631,49.27537547287367],[6.006390696711231,49.3079648171488],[5.985220799804532,49.30517081937582],[5.94400804744167,49.334644506896005],[5.962613221125637,49.344866959890794],[5.956123967212049,49.36159497798842],[5.9327717047585935,49.37015147282544],[5.929562016978401,49.40189069409503],[5.91204332139632,49.40747659912329],[5.942282468750819,49.43034622332949],[5.938573949545653,49.47481323186841],[5.9028920872339725,49.48379495708393],[5.893401083719673,49.496909750110916]]]}}