{"type":"Feature","properties":{"code":"32","nom":"Gers"},"geometry":{"type":"Polygon","coordinates":[[[0.07604560969926086,43.98314313658291],[0.14096031674824933,43.99467654310261],[0.1379369703469956,43.976883130578564],[0.1634750890689333,43.975927867916795],[0.1667631974496389,43.99683417955631],[0.18957513112649763,44.014641710019696],[0.22470724318893848,44.019168066012675],[0.23519766394983782,44.00847404202415],[0.299563922705621,43.99275637569358],[0.3575675314065643,44.01637987419657],[0.3815242105137543,44.00637522428769],[0.39446331623218994,44.01998446971625],[0.44244991475496404,44.0287619833259],[0.4595156323439905,44.05523744897399],[0.4858132156850541,44.058600121652084],[0.5384274746319986,44.05295246662407],[0.5650779969821476,44.059221404780686],[0.5765096062579593,44.075205934881076],[0.6022274135910171,44.07371011611412],[0.6278895165319084,44.06062754308569],[0.6316490534555541,44.04949866816937],[0.6770868392750434,44.02697200478653],[0.6876624158684242,44.045888241623125],[0.707796417778404,44.05801693922403],[0.7418847912050018,44.06519923501575],[0.759648653180342,44.049474350183324],[0.7640478940656028,44.0296390768852],[0.8273513279716257,44.05525093595275],[0.8578678740058554,44.03490133585646],[0.835544710660537,44.024621299340474],[0.8136473846848539,44.024906180353696],[0.8277030720805598,43.99957154660625],[0.796774360578817,43.97561613750477],[0.7845407712528714,43.9558047755343],[0.7601497122296061,43.945349940213774],[0.7706960292642194,43.92228348891115],[0.8092979458979879,43.9323016655978],[0.840062943234885,43.9163310081733],[0.8635672395335378,43.923563445790464],[0.8898495576086674,43.90333223113469],[0.8834946132400759,43.87525629317644],[0.8994393128667493,43.86469845813272],[0.895421911527158,43.840341795321024],[0.9258616635111263,43.83162570191422],[0.9016078422827867,43.803642278388125],[0.9225087136116431,43.792160090217415],[0.9539831166064948,43.78737246570886],[0.9688276136449294,43.75915093896533],[1.006928222163991,43.72890805398772],[1.06415307016496,43.70277548531269],[1.0509823342326547,43.677823838616014],[1.0876957388199562,43.64497503168885],[1.1148256080508376,43.636718418209675],[1.130581177959073,43.642651776415875],[1.1581444988078047,43.60561827536576],[1.1809652008406388,43.61400383428095],[1.2013370084855526,43.594812955020146],[1.199342708925358,43.56918429556797],[1.1640382379592968,43.57239102182334],[1.1543767194578116,43.55757543303593],[1.1250779695020832,43.55436438795678],[1.0970817946149973,43.533222452089504],[1.0718141320185244,43.546348314375535],[1.0578193301966023,43.52698286709649],[1.0608961902495995,43.5127821423026],[1.0518532839588568,43.48698884399707],[1.0221951427122764,43.479243133371575],[1.0399574087550072,43.46285347872525],[1.0321604609431316,43.440852444747534],[1.0190323220764022,43.43079483892832],[1.02278785655839,43.41170392033953],[0.9937847184126083,43.40798472527798],[1.0024979781750354,43.377080651683535],[0.9780837577086212,43.36265170654419],[0.9643403785279276,43.386475780857246],[0.9416846595723644,43.38408549124462],[0.9172511345137194,43.40633268927769],[0.8948859188377402,43.4052792090662],[0.8624052826149649,43.41471351563584],[0.8444010068380974,43.40988373774269],[0.8205416805525511,43.41697502257888],[0.8063000758469085,43.39997470202246],[0.7704216393342749,43.4168097427721],[0.7455585564051908,43.39499187362083],[0.733730472605264,43.37096706524623],[0.7175914463388228,43.376630810082574],[0.6693654275735994,43.324708346706295],[0.6456712299650619,43.31206330707761],[0.6068109749570959,43.310885991585494],[0.5474473878405767,43.329319731373445],[0.5043244698794473,43.333508245170144],[0.49803381879209657,43.32618057240136],[0.44498008716314374,43.340735933546554],[0.4430328988271061,43.32792703588786],[0.3957284672697182,43.33360258395701],[0.3883410229269578,43.35621468006998],[0.33909513817586934,43.34345707398941],[0.32831696781083425,43.34849301742664],[0.32769435096802535,43.37095370345262],[0.30085675386203575,43.37175476096837],[0.27840649370482956,43.38622497108639],[0.2317041924912655,43.36771211454836],[0.18203121400006392,43.37118267445077],[0.17380494234693045,43.40277225485803],[0.1538629917033123,43.39932405975342],[0.1374594398551805,43.43399175225508],[0.16599704732355133,43.44273636926645],[0.14930802677520033,43.465363039807976],[0.1350017858108604,43.46572396335525],[0.1304678194460616,43.49489917669358],[0.11212423457670333,43.51736991981858],[0.08975008845749399,43.51017249617227],[0.08058083535969605,43.523863090805406],[0.056081443916198466,43.5188072498529],[0.029579566383845242,43.544897297852316],[0.015782134897742738,43.543393230182545],[-0.0019248187812945813,43.56554046143869],[-0.006638780883364193,43.59430394426513],[-0.015780894995830737,43.60465738319822],[-0.07397188111422878,43.60631260105189],[-0.0772195291003595,43.59016567666762],[-0.09678297320877491,43.582405897631695],[-0.12160423721761877,43.58624235445866],[-0.1604496417177948,43.58057113664128],[-0.17292754407472402,43.59364235835892],[-0.20474047168197715,43.583595044006366],[-0.21060677583663345,43.59323717586582],[-0.24283655874306692,43.58497620901365],[-0.2472036903728421,43.615949823145584],[-0.2777099095136678,43.616204272478164],[-0.28211107433706983,43.64307015979027],[-0.243162288337736,43.6545058231693],[-0.23973019201148485,43.67124152201394],[-0.2558984040423508,43.679791305136796],[-0.23910333247309243,43.69394560059394],[-0.2466545863762805,43.71066950060451],[-0.2286074364319675,43.715376271697906],[-0.19414330237233995,43.737016685694684],[-0.20605373558746434,43.7500763289867],[-0.2271397672790903,43.808272976810954],[-0.19246168396068822,43.81017700393666],[-0.19855660923175042,43.86241563374058],[-0.19456201236331316,43.881572646215844],[-0.2344384631811253,43.899006040339785],[-0.200087659676207,43.914834830061565],[-0.17595413172084393,43.936327270993594],[-0.16632109560044633,43.92805052482344],[-0.12468082668137451,43.94434508821349],[-0.07235713337565827,43.946531834485505],[-0.04653101813218577,43.96104391789014],[-0.0361689246680343,43.98374032755233],[0.001446300333196457,43.959885381064026],[0.00420637351659139,43.94342582438924],[-0.01861461418396192,43.9313867432444],[0.030793555000742517,43.9005633671888],[0.05569199596666372,43.8976445612464],[0.07251111881590214,43.91379372164531],[0.07101167271921884,43.93329587806085],[0.05530723606827761,43.957963973072],[0.07604560969926086,43.98314313658291]]]}}