{"type":"Feature","properties":{"code":"45","nom":"Loiret"},"geometry":{"type":"Polygon","coordinates":[[[2.936314411640624,48.1633917441478],[2.9712637126470374,48.15183377076339],[2.990882804955562,48.15249378691091],[3.0294654865478936,48.13320717199774],[3.0498962046090887,48.088837886069456],[3.0504714242752176,48.072334131124755],[3.0883177986514796,48.05393639481059],[3.1040899600034066,48.01354534990655],[3.1245523178040195,48.006029252910174],[3.1284501214452565,47.97097324034548],[3.0784722436737018,47.93141992007049],[3.0646112850926173,47.93051941081648],[3.00722631015934,47.895294555605346],[3.0053630487182557,47.86404745363208],[3.029058320822418,47.857123076441624],[3.0297012521374107,47.83508204151216],[3.0125379851547156,47.834374131761656],[3.0281191130010834,47.80064806639638],[3.023798094359226,47.78655467899923],[2.988221260489061,47.78603448891204],[2.954736881556772,47.77555900512353],[2.9496989968031038,47.76587258709822],[2.9145173600355263,47.76938033260984],[2.8566660682192713,47.76092647077394],[2.848796639073614,47.72588667336868],[2.858973240721994,47.71131839341009],[2.911669508308486,47.69146053421784],[2.9181549279743337,47.66979136771246],[2.954234275262721,47.64577868896602],[2.936290512560618,47.63665230316903],[2.9403094506517125,47.60348550057479],[2.9622747369522457,47.57678810211018],[2.9765380120036067,47.56942879709582],[2.95865823105343,47.55738006412381],[2.914297452553034,47.56597018271849],[2.890770179974213,47.55309660602271],[2.8574899628231805,47.552844658956644],[2.8489038940037736,47.53754044480101],[2.8746252064056805,47.52042311253978],[2.8346896177800054,47.50891434033172],[2.8253483178196612,47.49720762944185],[2.7968724826242704,47.49670238161028],[2.7848278000315037,47.51590818527616],[2.7671158140580423,47.52510072819235],[2.722269834213415,47.52137488790703],[2.7274074958054517,47.498891999551546],[2.716060360099423,47.48953015835246],[2.684437897133784,47.482967548570784],[2.658459112358834,47.48789924166263],[2.6558708896887775,47.51039583983229],[2.612017744333409,47.52638001278611],[2.616737946714408,47.54089713523513],[2.596866741027346,47.5564207348813],[2.5729159948690103,47.560017104315655],[2.547268117212732,47.57517784121953],[2.4991330263197966,47.56751893993049],[2.475044546159242,47.579880080920134],[2.439400020099367,47.60949994575173],[2.402680868810648,47.599506360587185],[2.3730210260695963,47.585524572377516],[2.3424427416844122,47.60527658931115],[2.3249512144551785,47.60757115362496],[2.289632282146918,47.62905507196624],[2.2392136309887465,47.62097830786331],[2.2409780083952664,47.63734539809969],[2.2199555931269646,47.667865521618396],[2.20255850774907,47.67814460514722],[2.148515572748776,47.67042742106637],[2.1397679887163026,47.67737542400391],[2.0712946786313693,47.681559290786815],[2.066463070283871,47.6743106765294],[2.008045857144552,47.67730418039903],[2.00158311405148,47.66867970749289],[1.943437380081729,47.66008510917376],[1.9341238444974078,47.6794171004311],[1.8995427041357686,47.67321863025759],[1.8701081905766355,47.67418008034603],[1.8436947697611497,47.68635321599452],[1.8451687786713176,47.657075980599814],[1.7819763886541304,47.65230252991529],[1.7399382527750795,47.66153396917555],[1.72806479545811,47.699564603486614],[1.7113085978372213,47.73187770277278],[1.675275323556801,47.73862278622698],[1.6266316344148937,47.760971714419085],[1.608594434126198,47.73393326082299],[1.5478779921036048,47.76976159021967],[1.571250855065289,47.786963386235925],[1.57053819365027,47.79658651597201],[1.5337009096463892,47.82052592915118],[1.5351015717504108,47.839545777266615],[1.5579324839494983,47.84812808991504],[1.588137738369647,47.8764265961909],[1.581422578383437,47.90192694837693],[1.5571710400083827,47.91853552571645],[1.5254235639039053,47.929113580200145],[1.525499326800869,47.94229204754703],[1.5654541645457618,47.97421749655934],[1.5648186289077217,47.989771943729956],[1.5201238283340488,47.982278476987],[1.5266687471482352,48.00726560320355],[1.512975755811939,48.02872178084264],[1.545306911308587,48.0445885217016],[1.5941156652809598,48.03069992074373],[1.6138290938946773,48.04498314926178],[1.6245928719693987,48.067222742913955],[1.6556783876479508,48.076176598146596],[1.6789955266507441,48.065829398062704],[1.7448338583126362,48.0661443495906],[1.797975547328593,48.07686831186792],[1.8656712589157682,48.08385719871519],[1.8843851938361136,48.097661066466635],[1.9010631123528121,48.129720309688054],[1.920402814020387,48.14638533996389],[1.9033398897931277,48.152806309750886],[1.9250485316689847,48.17448662149941],[1.9514550396684471,48.18958117854365],[1.9625953467362638,48.22259665048149],[1.9654790051841269,48.255466245296866],[1.9878756044776544,48.268707563969706],[1.9940847180593788,48.286585877943075],[2.0438104559378143,48.2864493366448],[2.052708364877964,48.29547390947902],[2.081503651069427,48.29360440985604],[2.155707101498331,48.30449560310474],[2.1806941723291215,48.31168043030938],[2.2022493722769347,48.344596745334684],[2.223911064819703,48.3364180215832],[2.238046845675527,48.316373357629175],[2.2954192430595457,48.308226039086286],[2.312590884489921,48.330802741661444],[2.3277014892177683,48.33305786731142],[2.3633118415981462,48.309600437933916],[2.402664267131608,48.320719459421184],[2.4210918870276967,48.298668261849855],[2.4237635277023717,48.260297326582666],[2.452518016092004,48.25003251288878],[2.4690901704508605,48.255272821570486],[2.5068882455094257,48.22598658432872],[2.523126693688509,48.19489310648136],[2.5093663344872534,48.18250926382449],[2.5063270278885916,48.15643757520199],[2.4832376593500602,48.164518230078265],[2.460116447222927,48.13685254342551],[2.4903153051303115,48.12660259180864],[2.521518685158647,48.127300215727736],[2.537506945660482,48.14033979679666],[2.570562642830993,48.14081569138084],[2.602684217604197,48.13148889808521],[2.6397338993017683,48.1388605931352],[2.6634205012712795,48.12220248073456],[2.7065470696044738,48.12481924580505],[2.720460981753342,48.136910896310766],[2.7551983055667155,48.145653478490786],[2.7414685556447598,48.15977844911796],[2.7989445730680167,48.16827665010273],[2.7978126665223124,48.14068615599144],[2.8208799789852854,48.12966447731962],[2.868032820232008,48.156433549044586],[2.936314411640624,48.1633917441478]]]}}