{"type":"Feature","properties":{"code":"43","nom":"Haute-Loire"},"geometry":{"type":"Polygon","coordinates":[[[3.897408424881887,45.3570837817156],[3.9169404058247803,45.33940170910745],[3.937395868986861,45.37201990198935],[3.9859297079746523,45.371846404559236],[4.002609357264608,45.355903224229436],[4.016059141026905,45.328622335814885],[4.043265536912594,45.355946107018674],[4.062397034876466,45.33910649399259],[4.083541528780984,45.358094161343104],[4.121367666873119,45.36908660993613],[4.1540322116079285,45.36460333540307],[4.149768797104822,45.38455824320961],[4.17881972832703,45.39254145153728],[4.193308884127496,45.384562275069875],[4.226432364238226,45.389716036582385],[4.244524979129677,45.384914673287405],[4.271696633410009,45.35982598379431],[4.290739610203065,45.358581485433724],[4.308195090413248,45.370806841748106],[4.346191897357872,45.36229645766761],[4.36629429373957,45.337097928842844],[4.33189877989193,45.31806910411131],[4.365602171309155,45.30106532546477],[4.358165874707906,45.2813072908644],[4.369667772097112,45.26036388974016],[4.418571110077435,45.275424101661066],[4.483134616383878,45.23644648192782],[4.489604429758615,45.224787898710176],[4.477266258728365,45.20978594447126],[4.472540720426905,45.179408906886586],[4.447480119407685,45.16118502386361],[4.446118275212825,45.13169134188572],[4.376558944791765,45.1443595905019],[4.37022058732025,45.13029910308921],[4.400229848141373,45.11600398371944],[4.372571367591827,45.10480297518196],[4.346190894999054,45.06964388927494],[4.359614567276412,45.05568487734863],[4.378014671826731,45.05427007966308],[4.379067913162388,45.03617454254133],[4.338428544649489,45.02671076147119],[4.314677006361451,45.03079389328605],[4.297239439669978,45.01702262504178],[4.289827924670836,44.99730682920296],[4.311668803625915,44.97177463884522],[4.251555903015938,44.958924064540234],[4.221702631142119,44.96133612938675],[4.216572079556928,44.933567915009554],[4.1899324439493,44.91419030432338],[4.179951268724776,44.88730128359599],[4.156154791813548,44.87333360834132],[4.103743185520496,44.87725256159482],[4.068313356371929,44.86746929959503],[4.0338762761727365,44.8710458107922],[4.020171384284056,44.84572694383834],[4.028374858328879,44.834081003006155],[3.988454902516046,44.813419515634884],[3.944536875109786,44.82322023968674],[3.937001123548729,44.7954172172997],[3.919817199492905,44.77460034297932],[3.8895265818183935,44.75196027421232],[3.862527190139651,44.743863434670935],[3.836561503873052,44.74784401669704],[3.8428722355724365,44.767658069140836],[3.8025469466502706,44.78217403491838],[3.752688285784399,44.820978132154096],[3.7444352015394076,44.83779866715789],[3.722885793793205,44.8309902964175],[3.6690230882043697,44.828879139980735],[3.67181554273005,44.843385113427054],[3.6548748534796442,44.87421590375256],[3.6264516856693065,44.88025029795416],[3.5943359966689914,44.87542977006506],[3.5980411899153943,44.85950943658448],[3.588921232126889,44.8263980463694],[3.5397490121099957,44.82817873595921],[3.5056510328808947,44.823846640197424],[3.4782424266646075,44.80967976284068],[3.458847484667369,44.839932137298916],[3.4418003889561284,44.85422679293021],[3.4357113347213044,44.880244038151794],[3.410379964997872,44.91777749816426],[3.4158326368156513,44.92853462204254],[3.40455052934818,44.956397735743366],[3.38636652116385,44.952743854804055],[3.3613425807398936,44.97141170967897],[3.34795071948085,44.97386741391429],[3.349918646764341,45.00260138512903],[3.337173969362221,45.02533946243554],[3.3114877307075306,45.02276714381717],[3.3002890808475738,45.03204489436342],[3.300037167089146,45.05612205325275],[3.3142746780569206,45.08502161586657],[3.3340673163073404,45.11112985018295],[3.3013685993945794,45.12408985771677],[3.2880332175079103,45.12042440957931],[3.2606073460103326,45.17094202255946],[3.27247945333649,45.20918164911843],[3.239572097735146,45.21694671205992],[3.220952339250761,45.244178044330745],[3.228040568209475,45.26635049790692],[3.2125769046776993,45.28063487720399],[3.167616208952322,45.280135013197906],[3.1595874385219407,45.29128516779879],[3.1179979977042014,45.284187297622225],[3.0999431470714955,45.316251503364],[3.1134170784877164,45.32717903792977],[3.1034981328800555,45.35437310008832],[3.1680632240379363,45.352259807508],[3.220912377077928,45.37892046186799],[3.290691872112179,45.401821892426035],[3.30631987673738,45.41954639101777],[3.324323216190769,45.40643003851577],[3.355951003761219,45.42270452498479],[3.37740750048678,45.40195065808154],[3.4636110218729947,45.40187938765357],[3.4797803281462016,45.42109945505887],[3.501320580432494,45.42757868705258],[3.5209066851487667,45.40241117172981],[3.5630771718254137,45.39491340017769],[3.5880474177320365,45.375226810928446],[3.5903478302934047,45.35722324299155],[3.6186259166992305,45.33771043696724],[3.6631634778409548,45.36157929015898],[3.679853380401792,45.38418941501764],[3.705828237197212,45.3607062251683],[3.7722554467335283,45.34919188352554],[3.7899965323666374,45.35387675419062],[3.7856753429070356,45.37076437810785],[3.804943044201567,45.392104461166284],[3.8352859719724157,45.37605158297855],[3.837685746380872,45.365713933149365],[3.869748727932898,45.355825177974914],[3.897408424881887,45.3570837817156]]]}}