{"type":"Feature","properties":{"code":"33","nom":"Gironde"},"geometry":{"type":"Polygon","coordinates":[[[-0.7188015186962935,45.327417794908314],[-0.6443063251392437,45.322045380590644],[-0.5944806728104985,45.32114282458838],[-0.5689666025873613,45.331523297246314],[-0.5706388485277301,45.299823114254885],[-0.5135928628951079,45.286334723467014],[-0.4862106750078733,45.293564321887025],[-0.4405443881756486,45.283811947310674],[-0.41542471256519675,45.269332661912166],[-0.40842823644582854,45.247807627855394],[-0.42076715723359287,45.20853163878696],[-0.4028499593466693,45.19049531934403],[-0.3971235767306027,45.1703375875983],[-0.3797037928837214,45.155347363684704],[-0.36355979846534786,45.17026408300375],[-0.3383605974453927,45.16688438562319],[-0.32063912086288726,45.156166213658715],[-0.2753589385784497,45.14140091335047],[-0.246841022219567,45.108630449000074],[-0.21824686420972253,45.10643197473333],[-0.18919958385014424,45.094461907846785],[-0.15295329411286412,45.08880721589072],[-0.13063644905467223,45.096672426969135],[-0.11493018897120878,45.11390010810251],[-0.0877028308704419,45.121388836286684],[-0.06357364725413155,45.09914913207582],[-0.04020033978963981,45.102384335963414],[-0.003552786965686552,45.11956999344142],[0.04083219110465748,45.115350817593736],[0.06352711067229469,45.09563292386136],[0.07329671773303688,45.07012096510982],[0.035847937705388945,45.01115004721698],[0.04010873279330704,44.99350460562092],[0.019184278571431145,44.98034965777573],[0.0032479456177751075,44.947439781487724],[0.03436214413600705,44.91546925454322],[-0.021935541227067503,44.850692462395095],[0.018664421295006353,44.849628493830664],[0.046921251109006,44.82458068187802],[0.10655870123187683,44.832720431213495],[0.19284351960714802,44.820802554808736],[0.2062908527795184,44.838781587007574],[0.24120144851108916,44.85652879127665],[0.2376501157602628,44.86924207555338],[0.27905937516440416,44.86697670764365],[0.31506665558289004,44.84541323207388],[0.2840562599933618,44.823659365748206],[0.2637263179027021,44.82627665355831],[0.2742254006482923,44.78339312502083],[0.2973255098237856,44.76228467395237],[0.2557380828743981,44.750109827832176],[0.22538308407055824,44.761938628969595],[0.20145524828961092,44.72314903553606],[0.1941659722396007,44.743134942046765],[0.15300384600842007,44.73048103978557],[0.13340494933362354,44.70463342458088],[0.11781564233279757,44.71279600247887],[0.10217651632957546,44.699261620698685],[0.10990756955468833,44.684238793464466],[0.13439127028221218,44.681785671797996],[0.14155522468909407,44.66553015383226],[0.16217020857686018,44.670520278429166],[0.1826776591534784,44.66107212400698],[0.15503121242167628,44.61515967421126],[0.08618477510895356,44.57628609745734],[0.07072066177634428,44.54932864142863],[0.03685067130235277,44.55377569309968],[0.01809835904410432,44.52978491547094],[-0.015453699893016518,44.505062787136026],[-0.00964812423297182,44.458953045356914],[0.007529968364000282,44.44714235059867],[-0.012027062235710009,44.42216048739268],[-0.002882225353325675,44.40546555102971],[0.018233646559888256,44.389878791845064],[0.014724678596450859,44.36661482670666],[-0.012122430998677084,44.371315036223],[-0.02996839148968028,44.36051961592557],[-0.07881922376705748,44.35369515694866],[-0.08575207965012982,44.33761004988665],[-0.059508100967366126,44.32137184585115],[-0.034811250980738076,44.296725798024596],[-0.03298436987139304,44.271725233652084],[-0.05336184991028127,44.265764926478745],[-0.08804999010961528,44.23886102586299],[-0.12013584466981135,44.23674667953463],[-0.14068847985275829,44.226404747689884],[-0.1664311622268672,44.241645770485846],[-0.17860380229840828,44.26119359476371],[-0.2260044378069046,44.26478415652428],[-0.22344709828329407,44.20589826380183],[-0.2721185290366108,44.19380924623558],[-0.31133609242726,44.20327170097005],[-0.38961736206091696,44.20948462715673],[-0.3962403182108504,44.237695224176385],[-0.38338729038705516,44.28631066773658],[-0.404736006733474,44.28738094305708],[-0.43013450581532475,44.304781669300105],[-0.43183954131517804,44.32257705443087],[-0.47887161721109855,44.32489189867455],[-0.5176354697700613,44.33911112646833],[-0.528103107297291,44.364654043262846],[-0.57097020407163,44.38252695965793],[-0.627647611184293,44.39814566253359],[-0.6287774027434528,44.44319224087455],[-0.6760254579024039,44.45733288174258],[-0.6819329255443941,44.444104603018644],[-0.7307029568976173,44.446374662072536],[-0.7724266413748072,44.4400689012159],[-0.7787977956453461,44.429621612205196],[-0.8124255218387905,44.420432411546486],[-0.8433457118512414,44.41817667183869],[-0.9120213474779492,44.43693794653607],[-0.9191704541834174,44.44334436259599],[-0.9695842480121452,44.429379805191715],[-1.0079983966164947,44.43628954261453],[-0.9806969914576482,44.48287893553743],[-0.9911544881491408,44.511849168147315],[-1.0266309572095953,44.5071249515487],[-1.0851664955491247,44.53219457167761],[-1.1064909647292618,44.502772891337074],[-1.2538901028077145,44.4676042123461],[-1.2517315717900113,44.514864026059136],[-1.2586140715490404,44.547134908509065],[-1.227400657614334,44.57575101363341],[-1.2035061581038056,44.62271377486185],[-1.2041641060667378,44.63998931395565],[-1.1915395677551643,44.660726555771724],[-1.1617602687791189,44.66337536905334],[-1.1407652758832603,44.64722441419704],[-1.080794255404563,44.64060270635637],[-1.0660081141503954,44.646890088823476],[-1.0167859243981427,44.64936614924531],[-1.024772192870524,44.67594768817969],[-1.056012096331499,44.707980341287296],[-1.1066690697160937,44.74264984128815],[-1.1172415691037478,44.74399705140438],[-1.165808013375802,44.77527626694913],[-1.1800101830102927,44.758098157761154],[-1.1738129355689804,44.745358451222856],[-1.2205928890641693,44.709423690526556],[-1.2378317329560085,44.680472950808145],[-1.2462033009619466,44.641861781385515],[-1.262052894231634,44.63219970212472],[-1.251726794177239,44.71201817211294],[-1.2245842811118994,44.853825371133354],[-1.2041211009419968,44.989784597043446],[-1.1902342986818488,45.1076052722213],[-1.1623411294779713,45.297866853836986],[-1.1588809392970065,45.35758854145279],[-1.1605511012170588,45.41069085511738],[-1.1510569561631872,45.44160185108563],[-1.157040252187612,45.47037006217617],[-1.13642305844502,45.510996841105246],[-1.100291537957874,45.54164579436281],[-1.0911993078778204,45.56240962499771],[-1.0608731648946181,45.559687159252995],[-1.0399629327796032,45.53624996681034],[-1.0394312457678239,45.51187047075673],[-1.0052560088445266,45.49288102324259],[-0.9741453673216026,45.46337798565173],[-0.9339187159877002,45.44354638799416],[-0.8975412931164795,45.413920961435664],[-0.8380858049594333,45.37799277602822],[-0.803863792011378,45.3483837452359],[-0.7677088201843572,45.289668398897916],[-0.7511045662834447,45.248111104699966],[-0.7415941186185122,45.18951228689129],[-0.6827151048736609,45.07868957712152],[-0.6531808034769909,45.04997165854475],[-0.6085452595854771,45.01540165572232],[-0.5906665446401641,45.041946989301174],[-0.635943850069436,45.074304489771464],[-0.6522025754037655,45.10762754422008],[-0.6677719424227322,45.12666694807424],[-0.6699486553314091,45.16929377695903],[-0.6882053149295403,45.21937742756459],[-0.7037353439558368,45.283639400976455],[-0.7188015186962935,45.327417794908314]]]}}