{"type":"Feature","properties":{"code":"51","nom":"Marne"},"geometry":{"type":"Polygon","coordinates":[[[4.047972977986833,49.40564229475753],[4.0769132710042255,49.401612719003566],[4.188996868487692,49.398693325461345],[4.2013073779715375,49.38378396286446],[4.248321950611529,49.38225603439192],[4.258398145436199,49.36351577479519],[4.290937077765363,49.34699963965571],[4.306756525620349,49.32779732810991],[4.330894078223754,49.32715621477832],[4.3541542998888705,49.31616310169742],[4.376853871003221,49.31699430474222],[4.393424577830647,49.29708771300736],[4.418775444942886,49.2851133003246],[4.459506424178967,49.27757864272764],[4.541215512322572,49.28622829426292],[4.575868215345435,49.296651189312385],[4.594974261377573,49.2707300343065],[4.6058938566008445,49.26970402626851],[4.635511161128344,49.232134393917896],[4.670374586913542,49.24151155534761],[4.686074799511886,49.256759043801544],[4.726823349053574,49.25232502044604],[4.7442321118937505,49.2414729109037],[4.788889603899746,49.24134019593029],[4.815420265730455,49.249854960398],[4.826941205469512,49.23576093816036],[4.86275799597872,49.24154352922503],[4.909606220926124,49.26349853270867],[4.950989232683009,49.23686584630137],[4.970761881963812,49.23605865097721],[4.993377429884994,49.20962536427259],[4.9397619983736725,49.18506820457861],[4.953397966379194,49.17195155260111],[4.974408367068746,49.13340447110328],[4.99213130434257,49.114899861463385],[5.005744190171552,49.05987214490083],[4.96844159954904,49.02290133721377],[5.0076814026818575,49.03495195077163],[5.036321445219877,49.02433254954083],[5.032675426761192,48.99373965141204],[5.004646480636104,48.98364213966209],[5.037904334159841,48.9730160560533],[5.030128675561755,48.95690245547182],[4.986405609443761,48.93190826599592],[4.9362093920054075,48.92214239512387],[4.915798542054488,48.89979310962273],[4.924696402833776,48.89135651199283],[4.924676889741789,48.86463057973145],[4.93570201866688,48.840631475686905],[4.888760929797642,48.81720971453769],[4.889557040484959,48.798206203700566],[4.934571757746961,48.790360787111126],[4.947881817618987,48.771602644481156],[4.990124563499123,48.74183736486811],[5.009219993538869,48.74139150464051],[5.011787133446862,48.70669113644506],[4.988427677798425,48.684418562233176],[4.9502952474979125,48.6879545407904],[4.935102757331475,48.67804414699184],[4.910378975054349,48.68854676058441],[4.867775765589871,48.66719674333675],[4.822713970971492,48.67403036103939],[4.7816659214071615,48.67019744127014],[4.772425267645258,48.656461849317175],[4.807564203534146,48.65430553938369],[4.850578327876817,48.63991537290219],[4.850509978828629,48.614183688167515],[4.829662115751189,48.612481442983466],[4.796778242210989,48.59529317207245],[4.769195892207036,48.58868831063029],[4.776020152963706,48.565957606678474],[4.799180099828292,48.529779876249094],[4.718012145060739,48.54199401283636],[4.670183207291811,48.53188730232318],[4.635013531124556,48.54446897027231],[4.6263828171661405,48.554547535211604],[4.576487514925921,48.549380130056875],[4.527473253110997,48.52851621730074],[4.521965785232567,48.54505196597459],[4.49528083286357,48.53872358042404],[4.403076671568411,48.561260233656824],[4.314917546995119,48.61621957939382],[4.331760406442508,48.63027354824816],[4.317329119564903,48.65166491720243],[4.332773350334676,48.67058273703408],[4.3255940122986445,48.700277029531],[4.302615983872354,48.71237740647513],[4.2523956317261185,48.708651278525025],[4.233040648104506,48.702313167606725],[4.161208977574132,48.70564270827603],[4.131090952946843,48.68615119823393],[4.079787822987737,48.701118254412116],[4.058195208802969,48.66627477909254],[4.030051914462845,48.65914499071498],[4.001695483416846,48.66387541820995],[3.98646950961592,48.65506991614687],[3.977230864165596,48.632216352927855],[3.9585488780832865,48.622904721543364],[3.9492402192699783,48.60343151995247],[3.916112422498775,48.60703746596832],[3.9000544029762967,48.574837870717545],[3.872574553060613,48.58047608998417],[3.8586730804738507,48.56033634110919],[3.8655808154248064,48.537930954397474],[3.851404847916241,48.523378465573664],[3.822742058660399,48.516104417807576],[3.7947250716869743,48.52769326968686],[3.7428823405595684,48.5336960863688],[3.7041935334272225,48.53348173230274],[3.688010554935591,48.53996363936458],[3.643639260745969,48.536262879171076],[3.6340147312950517,48.54129833541425],[3.631866148641539,48.570977927086886],[3.6042445587901217,48.572452767827976],[3.579891832495665,48.60485886515818],[3.5556137492385345,48.62028467657408],[3.5190711976645597,48.633474580141225],[3.5174997752390147,48.64336703334491],[3.460426313142606,48.65300999879329],[3.4406134906014127,48.6636539025972],[3.4693877334848082,48.68643581459289],[3.4643028353269045,48.707377209765006],[3.4697275479340295,48.73786507384338],[3.4443842525897947,48.73668491350176],[3.4302049079731773,48.756874901226034],[3.395834526122342,48.75925128896011],[3.409426927872636,48.78384005486431],[3.442913938608982,48.78618495446326],[3.4321733352035433,48.81226134369876],[3.484964362562067,48.82500976544345],[3.4851874436586847,48.851908494372864],[3.5083215469627684,48.890402602371054],[3.528576443116953,48.91214102895302],[3.5738538398044097,48.92148321270002],[3.5744431375994288,48.93901643224886],[3.601964878227183,48.94505940416911],[3.591558411237313,48.96037176960385],[3.620658549289589,48.9659439788058],[3.6387510313501172,49.002277384044845],[3.665158653762439,49.00563193481009],[3.678113179313511,49.01690766636074],[3.663950657450056,49.03730898527378],[3.647726454659581,49.04140800760242],[3.587608670612347,49.03381324798993],[3.5877067932472952,49.059394631367105],[3.6390535019551273,49.08130605737889],[3.6117958918993924,49.11808793409194],[3.6103983127772716,49.13550196815309],[3.622246623748466,49.151103693376655],[3.6534402301896542,49.14869065051608],[3.6838349064164695,49.15449185807903],[3.701623868432638,49.14308771135046],[3.7487650521863713,49.15708155419203],[3.7511478237665794,49.17770096615194],[3.725444039996693,49.173515945092305],[3.704392046963459,49.181373023469],[3.697104870697589,49.20547444963648],[3.662544752146768,49.20897792079391],[3.670777136423702,49.23959850877529],[3.65525456317135,49.26285133857558],[3.6573162286122742,49.291023347068474],[3.643938967409509,49.31271547683784],[3.6989371212574853,49.33195284253632],[3.7422207217091263,49.33651301919691],[3.777534921928809,49.35581577743615],[3.8224705767098395,49.35696565512036],[3.84805797975596,49.36391735212325],[3.8563548292895904,49.381163036761194],[3.837686516500783,49.39565820991326],[3.864856156264051,49.40533685972032],[3.898159524095673,49.39324676616779],[3.9252301838116423,49.40757795776365],[3.9613090288565647,49.37734494086453],[3.9949400464231957,49.37789993445056],[4.0127284202980995,49.358299141243386],[4.035496373111564,49.359904159430094],[4.039913351175735,49.397396867183815],[4.047972977986833,49.40564229475753]]]}}