{"type":"Feature","properties":{"code":"08","nom":"Ardennes"},"geometry":{"type":"Polygon","coordinates":[[[4.233164134987158,49.95775092391093],[4.308104819422298,49.96952311706087],[4.3497091536314265,49.95218185745914],[4.378945338182918,49.95306872889387],[4.446940783287939,49.93750459397252],[4.481610454645573,49.94785279402108],[4.510410432978069,49.94668308724302],[4.540542634439033,49.96796846829222],[4.573698227853897,49.98030418970413],[4.674659776287784,49.99662785172198],[4.699272082803148,50.0537945750903],[4.682746158906797,50.068791197105114],[4.702078764143763,50.095528001382924],[4.751345563705796,50.11174102047036],[4.762161208292365,50.13639695682964],[4.824292330401957,50.160731428897094],[4.8319896237206255,50.153951790022184],[4.879565525415205,50.15202955288437],[4.894894253598731,50.13460065104415],[4.87076833368792,50.124262635964875],[4.8685301585153855,50.09762527596348],[4.8512375276421595,50.1013639038007],[4.829260707691278,50.04803422242763],[4.840392803845824,50.037589901362395],[4.816997367063873,50.01564028095157],[4.818941576641115,49.99514497954768],[4.790113818832296,49.97001760397983],[4.7909170614563354,49.95839750551827],[4.8501895621955295,49.94647303906409],[4.85813253464247,49.93290175060757],[4.889248547086521,49.90972760726109],[4.851762233586226,49.861022896690535],[4.8675793624704715,49.84007770188321],[4.867091434851301,49.81419502771181],[4.855382632112906,49.79236512744182],[4.930929513878152,49.78685155554447],[4.9561320976529775,49.801224669739426],[4.9988368069437765,49.799310046914584],[5.008928105209694,49.7819335599042],[5.063182643598133,49.76192871159604],[5.090172312313782,49.76506393233352],[5.115073254538092,49.741436250370164],[5.125659977368626,49.714502727337425],[5.165853990849716,49.70714272719065],[5.166208402693295,49.69291623120586],[5.208819376633823,49.694568280877455],[5.24360037396294,49.68569800167118],[5.267272773424226,49.696522600045526],[5.332001785017169,49.65478357737764],[5.308525437369952,49.63590355578242],[5.31173915183996,49.61354728351897],[5.342988167557187,49.62673952946669],[5.393536658328508,49.61708773850276],[5.379377254594306,49.59433240963621],[5.339875065404366,49.59248374512851],[5.311770447172107,49.55928969326421],[5.262709976999561,49.54181962580043],[5.232756898423872,49.56948078917659],[5.2130512805303555,49.573482704275165],[5.162975033383016,49.56353425622026],[5.144850262012005,49.589890809096836],[5.118278729173794,49.59307211738766],[5.0894348019213345,49.54153840662955],[5.100584675318172,49.53581688248469],[5.079628538782785,49.50986338174908],[5.062396105126222,49.49915347170529],[5.083514142411665,49.48411961123408],[5.105323165099615,49.42524686929281],[5.088196804414101,49.40639195324937],[5.10414955392406,49.38977780781045],[5.089930289451002,49.370323496215384],[5.060208646165214,49.3715170366231],[5.053405249590282,49.35696721044802],[5.026436999727152,49.33591387470532],[5.029829036850663,49.31126357145343],[5.0490438324721545,49.285310734141504],[4.964355608998914,49.24744898908259],[4.950989232683009,49.23686584630137],[4.909606220926124,49.26349853270867],[4.86275799597872,49.24154352922503],[4.826941205469512,49.23576093816036],[4.815420265730455,49.249854960398],[4.788889603899746,49.24134019593029],[4.7442321118937505,49.2414729109037],[4.726823349053574,49.25232502044604],[4.686074799511886,49.256759043801544],[4.670374586913542,49.24151155534761],[4.635511161128344,49.232134393917896],[4.6058938566008445,49.26970402626851],[4.594974261377573,49.2707300343065],[4.575868215345435,49.296651189312385],[4.541215512322572,49.28622829426292],[4.459506424178967,49.27757864272764],[4.418775444942886,49.2851133003246],[4.393424577830647,49.29708771300736],[4.376853871003221,49.31699430474222],[4.3541542998888705,49.31616310169742],[4.330894078223754,49.32715621477832],[4.306756525620349,49.32779732810991],[4.290937077765363,49.34699963965571],[4.258398145436199,49.36351577479519],[4.248321950611529,49.38225603439192],[4.2013073779715375,49.38378396286446],[4.188996868487692,49.398693325461345],[4.0769132710042255,49.401612719003566],[4.047972977986833,49.40564229475753],[4.037664843009763,49.43826214170175],[4.057558677988911,49.45118663443426],[4.042374740120512,49.4686932052203],[4.040711745102368,49.508534657206816],[4.077307045795324,49.52519351384014],[4.076010833621256,49.53978341932618],[4.05829151546324,49.55254908076985],[4.076570889635557,49.57112749860688],[4.031390794494156,49.614289972299225],[4.041982613790211,49.629809951188015],[4.06432322371496,49.636967655409364],[4.09574589252208,49.62909455245626],[4.124516370102426,49.64959154766928],[4.127021546188527,49.677921251343555],[4.144181836797769,49.68854487089986],[4.1846168956423835,49.698824907960066],[4.19124300715433,49.71625657729972],[4.224711511604635,49.72720226620408],[4.2279892494042794,49.74364073426544],[4.246884569202133,49.75481606841705],[4.23820210581484,49.76742183396235],[4.207560089429096,49.78109084313398],[4.22667738196626,49.79303047019303],[4.214274015003939,49.806111475699495],[4.223593846602414,49.834105951164844],[4.248762948257405,49.85675363902506],[4.255701120243194,49.903213511956004],[4.21718238978302,49.914797372341994],[4.233164134987158,49.95775092391093]]]}}