{"type":"Feature","properties":{"code":"22","nom":"Côtes-d'Armor"},"geometry":{"type":"Polygon","coordinates":[[[-3.6591438196705743,48.659209780669244],[-3.636485708364634,48.67068553367222],[-3.5812485466634136,48.67001788504223],[-3.5848109666117063,48.71714328760577],[-3.5553712374292132,48.727513465979534],[-3.550313063112974,48.748161651547555],[-3.583914958484379,48.770957492800314],[-3.57794290588313,48.788317654113186],[-3.535033949747009,48.80271604156535],[-3.5408959300937988,48.823160071945985],[-3.5231064424378755,48.82984632644791],[-3.467838623077333,48.823298521249114],[-3.4301953417140556,48.79725199605727],[-3.3975446062757473,48.80074944363836],[-3.382428393678025,48.81593302680193],[-3.3570114279950727,48.81969907013649],[-3.323351109794353,48.8372857508137],[-3.2620728843625333,48.83540082059945],[-3.2457616227016315,48.85707703727301],[-3.2197192609615692,48.86646505727847],[-3.2028204869337964,48.83450712281955],[-3.1679438416382495,48.85314717376183],[-3.1247589566102234,48.864723936263395],[-3.094421852953979,48.86764668461141],[-3.0834891305254475,48.827262011215225],[-3.0537161489037152,48.8152457771198],[-3.013633951697306,48.82213396052265],[-3.006141529447617,48.8002958368664],[-3.0454089632329833,48.78782195169868],[-3.0109390309556923,48.76663541659801],[-2.950301280923285,48.76363410458018],[-2.9289747965586783,48.753783159339335],[-2.9451008416298974,48.72080660138098],[-2.925263771726924,48.707706235287056],[-2.8902558845725252,48.69783483539522],[-2.8807700984538154,48.67423957383046],[-2.8565017877713177,48.67400220577111],[-2.82693502135218,48.65056933154873],[-2.815798289739638,48.60972420668523],[-2.819598830141578,48.59352827457419],[-2.7797389357262325,48.5851014526199],[-2.772680617047176,48.57054449754173],[-2.7202164699056217,48.55545942233219],[-2.720977837428319,48.53284752618768],[-2.698438421518125,48.50568354123005],[-2.6756732508454437,48.510662191084755],[-2.681558937117988,48.53113342751236],[-2.6302852526774863,48.52609134516814],[-2.6312676669697814,48.53812967265482],[-2.60556004275335,48.55182776019479],[-2.559733538085472,48.58639210176802],[-2.4952155554349047,48.608924120470554],[-2.4728755698685654,48.62308300588095],[-2.468004297270983,48.64958127336475],[-2.4356309681917874,48.65218264157844],[-2.4121662285976435,48.64149535614902],[-2.3609466388725773,48.65556175834698],[-2.3145391685823196,48.67409586438523],[-2.294173242748991,48.659975373377236],[-2.3134177483953855,48.63324397584119],[-2.3374720527788573,48.61972552862038],[-2.311900696016676,48.61149441654407],[-2.299891144928281,48.624056828499725],[-2.263502079970802,48.64364865321494],[-2.205399315491741,48.57889213970631],[-2.1755905479570017,48.576407987143455],[-2.1572330600099674,48.58835712746883],[-2.165799240930372,48.60423827586908],[-2.1237080247752895,48.6044100285603],[-2.1233140883470694,48.58901274793282],[-2.0924894843076234,48.572462492473],[-2.044804968300762,48.56420276394202],[-2.0462129661682633,48.54401486364402],[-2.006894935706843,48.56611290198358],[-1.972343842323779,48.534637865266006],[-1.9480369010443914,48.53880790488251],[-1.9251126755890333,48.54530394613221],[-1.9110132247187712,48.51741534739239],[-1.9268720731463556,48.47686450947533],[-1.923895933613775,48.460907740617046],[-1.9486347678108729,48.446456041738884],[-1.9519092329646253,48.42918354147581],[-1.9367895889503266,48.420070240063225],[-1.9384653904593245,48.391389339464936],[-1.947720243456438,48.36894464609711],[-1.9290791323813683,48.34704210576775],[-1.9668973217216907,48.3428189820063],[-1.9548327221541828,48.317109845291775],[-1.998266241844134,48.296980554393514],[-2.014100529199395,48.27953190980406],[-2.0532925486538485,48.29832786130155],[-2.0762583662242795,48.28371148397488],[-2.110118931164646,48.2529034820783],[-2.126853803195948,48.25976994927449],[-2.162901712976404,48.25626974900393],[-2.1869612472272957,48.24637857003084],[-2.1843775145100226,48.213137604790425],[-2.219796763889133,48.20213436033515],[-2.2247373292770836,48.17059701877417],[-2.248230377893739,48.15279776234215],[-2.2832479885362944,48.14529870453187],[-2.287278430400511,48.133745563458476],[-2.307724031505891,48.136767145944454],[-2.321067331808052,48.123313308346624],[-2.371983930719517,48.12276022571531],[-2.375704866327887,48.141440597184854],[-2.399892263143436,48.154593831126384],[-2.4070872062503708,48.167846923022466],[-2.4492428069717214,48.17301268121088],[-2.457460857137994,48.163558679343076],[-2.488996903351025,48.15527484508064],[-2.5336627078715,48.156856696914886],[-2.516390296656647,48.12795387925489],[-2.5493015028073205,48.09906568300373],[-2.5484346321898643,48.07671678652329],[-2.5808040837522404,48.06711154950066],[-2.628212989216798,48.03379948794944],[-2.6708865594355458,48.0502796096436],[-2.6733315926174024,48.06327971694363],[-2.6561723624005746,48.08428809143894],[-2.6531526316222527,48.118092931008704],[-2.6683740921478765,48.1327428357553],[-2.702496597157526,48.11801355272737],[-2.7579911570321793,48.11080992160437],[-2.781951132488677,48.12057973083874],[-2.809828548228586,48.146257335704156],[-2.850803362250115,48.14117007726401],[-2.902695082695001,48.162745095709155],[-2.939688841727517,48.17157869268649],[-2.987721150165838,48.15963608311985],[-3.011766723688266,48.172146259772674],[-3.0139527993300925,48.18705096969819],[-3.0406075793447904,48.20331232171781],[-3.1303749671924512,48.19836233856125],[-3.13949669814907,48.16369070727257],[-3.1552540693335707,48.15849094352833],[-3.197060119674698,48.16274313777778],[-3.2153961448986896,48.148219713915],[-3.252339548077637,48.14912522090896],[-3.272244339627829,48.14001476484374],[-3.299596147833247,48.15481185209133],[-3.3161758750965893,48.1545827022414],[-3.344702681056185,48.16988498065198],[-3.375090054291556,48.16304435591315],[-3.412343177084257,48.14703755651635],[-3.4365241396101114,48.15548652160798],[-3.421483221253355,48.171908070532616],[-3.479531508235686,48.18604551951424],[-3.5226593775760193,48.17866367131642],[-3.564838973733329,48.18574694305737],[-3.538217936786089,48.20645883664802],[-3.5577832202588646,48.22853101061742],[-3.553237531594755,48.241947687032244],[-3.5259985674913756,48.26077449475174],[-3.518062717927428,48.281842614354964],[-3.540871846305997,48.29905273798831],[-3.556786825742612,48.335519987867116],[-3.5545842830629764,48.37776678483146],[-3.605518820600736,48.38654294008208],[-3.6005386081976343,48.42162432587916],[-3.563244712868301,48.43986658912548],[-3.5813817787905893,48.46480510230907],[-3.5989459676290556,48.47050839949987],[-3.6045363791794003,48.49579010573053],[-3.5820087289476406,48.50685582272],[-3.55387113158307,48.53037692213068],[-3.5699848146891386,48.55609659253676],[-3.5933075055755452,48.55460449049691],[-3.5900947382947392,48.58273907967781],[-3.6411048139943123,48.596795685658186],[-3.6542763238260356,48.61697438924653],[-3.6591438196705743,48.659209780669244]]]}}