{"type":"Feature","properties":{"code":"21","nom":"Côte-d'Or"},"geometry":{"type":"MultiPolygon","coordinates":[[[[4.1819015999311935,47.15050500507014],[4.187112897689929,47.133641259369064],[4.171903802407782,47.11744504627446],[4.153771215900621,47.11455697541982],[4.1159670699158095,47.12333757652634],[4.115067396116834,47.14616206884513],[4.137377150535575,47.14271256994814],[4.1819015999311935,47.15050500507014]]],[[[4.2934241069450065,47.92567623483797],[4.3090036167800365,47.96117328277752],[4.351286047683726,47.95658154025503],[4.414346270874161,47.968206710901],[4.448998378066956,47.957154747571174],[4.4932784015747025,47.96880579277352],[4.518171359735413,47.96658777645795],[4.5599688756782095,47.97142319625819],[4.535820168596839,48.001210026464854],[4.582678644289108,48.02946360186476],[4.6168068514656495,48.031366971594],[4.67322963618766,48.015051709502096],[4.704238250439468,48.0202323762063],[4.719943437560306,48.00889645519276],[4.749300809603172,48.00425102648959],[4.789083695644797,48.00782938255744],[4.794634345104126,47.983197869158744],[4.785061370779013,47.968869095555945],[4.811007449975246,47.95932655708529],[4.845182055142008,47.96125251907535],[4.866096820746109,47.94050603305215],[4.828942462053263,47.915128709594974],[4.857004574909452,47.895855881593434],[4.87629817749016,47.92022401352716],[4.901848449197037,47.921289405231384],[4.928173323343671,47.886876403893034],[4.9282302679425625,47.871121167237085],[4.9540942495981195,47.8667681480835],[4.9683502146365655,47.83194135820226],[4.993918239441858,47.81957144123197],[4.987227991995704,47.8032996343454],[4.918299821120011,47.7773135776728],[4.930742567556667,47.76133580408352],[4.949610301299183,47.765002530384045],[4.971770458339338,47.73022100712152],[4.953807643894032,47.70691553121908],[4.959844644041361,47.69697375959394],[4.992275225837213,47.688313503769756],[5.030001604156784,47.70940841478221],[5.0435872776506425,47.676515292793226],[5.084909015051583,47.65725535909673],[5.1282137463189255,47.64769555171287],[5.178340930532218,47.680951862214265],[5.173597037303847,47.65256871236608],[5.211414189836741,47.64189107719557],[5.239232274239111,47.61613009897604],[5.238668295142944,47.597284983235],[5.252920215668424,47.57694786282474],[5.299837418963084,47.60492946802028],[5.340003771124325,47.609065915523516],[5.354893869684326,47.59131447740441],[5.374078595885573,47.60454165278582],[5.39980448309253,47.597153502136244],[5.425594945399527,47.63207432012174],[5.477547427463133,47.60872207289565],[5.497062180458679,47.55418172115122],[5.486403857432212,47.526968551040035],[5.471680911081918,47.527461847421854],[5.447063511552309,47.496253655345264],[5.399215772340755,47.49901418953457],[5.376587470082713,47.46467984209965],[5.406499562267299,47.4618228232386],[5.432338107070534,47.438347264883],[5.451397515008267,47.38406251344994],[5.477377417366495,47.39529212690571],[5.496952532848246,47.390117858136],[5.487995511763959,47.36201125941915],[5.4927946655161906,47.33207816699496],[5.4722397259852755,47.31697205065742],[5.518538729512594,47.30418661945213],[5.504737607495882,47.28566080102212],[5.488282961724511,47.28934747031664],[5.485950818628809,47.25097372798523],[5.474016456865987,47.23108930134431],[5.48000850446928,47.21736948822585],[5.447990684518002,47.19618128392872],[5.459209017913762,47.18344166980506],[5.439973300314684,47.1443971913906],[5.408710637565267,47.12607417258199],[5.410655482578915,47.11409007735421],[5.386025055163915,47.08197683820708],[5.322186205925132,47.07298220144242],[5.2839203158010815,47.04791289990898],[5.275326877554134,47.02693403703708],[5.310049747453535,47.018020896757406],[5.302902725063236,47.002995600434],[5.278877381251384,46.99902304373498],[5.255236339191406,46.97988809464049],[5.222006075229213,46.988855497295],[5.181859259011498,46.97482345386571],[5.166234471151257,46.963868398378764],[5.1243390082418205,46.963720125840524],[5.100252102348397,46.95598327083581],[5.0762583071667144,46.95939003098176],[5.049303736126251,46.98158693341567],[5.0034065361874065,46.972143943970465],[4.994466553308194,46.959149599506034],[4.927494382962588,46.96753853170502],[4.896071329118784,46.96624020620316],[4.893911988532932,46.951172459049864],[4.7884658140953436,46.931872716902944],[4.780547505930617,46.91818028344327],[4.728129651701318,46.91937462593793],[4.715721115401545,46.90691597166802],[4.685479824630714,46.90086027628975],[4.66452477880559,46.914160146408875],[4.6790861065904545,46.93024007090235],[4.650119701990474,46.94126696425738],[4.623230215613321,46.94082023678555],[4.589560484494725,46.9557070191566],[4.573661325177989,46.97338633863404],[4.554809047275526,47.02005452316086],[4.5067016541013825,47.01322725598124],[4.488156368101142,47.032053991768684],[4.453754603542757,47.04180317977088],[4.42831764695131,47.03978832160757],[4.406283415170733,47.049999892555],[4.401611638839053,47.08266237195949],[4.344250468382807,47.07243028540817],[4.349384584855175,47.09695260404792],[4.2732057577392935,47.10846860042988],[4.254511023751104,47.117244891665926],[4.235126114423698,47.14567232864916],[4.209834279044644,47.15541168354448],[4.21254075976185,47.18181888845327],[4.230668433773607,47.19895113888856],[4.218051703421399,47.22051351486304],[4.178052482394732,47.25029686466267],[4.135479914723283,47.23739632412277],[4.115801786333514,47.27973253282323],[4.114111422721765,47.30795616873572],[4.130399481098536,47.32021421171321],[4.1249016818373665,47.33586115686488],[4.106085850126875,47.339255985490894],[4.076218510845687,47.383480194423754],[4.088307134357006,47.39652090232598],[4.066060118363545,47.407251287195685],[4.119426533664949,47.443553393311014],[4.129760578477719,47.47483692093974],[4.112403898450227,47.5034970330936],[4.138136112599596,47.52153256449299],[4.156528733449272,47.55161760512027],[4.17512808182493,47.553259163212694],[4.197168115097694,47.59802850906373],[4.214168417613283,47.602912165808426],[4.212381292101606,47.62796570432303],[4.249113979601859,47.65949100902422],[4.225637843042874,47.67116302241697],[4.258324006422516,47.68389555308575],[4.267304312456938,47.70164928916197],[4.2526277781965405,47.716066198902226],[4.260502367415732,47.74220354600016],[4.289656740825392,47.73317231931354],[4.332471702607339,47.756511310391986],[4.327231405103721,47.78566401630385],[4.340296871154208,47.79956664297927],[4.320330919498607,47.81169317443553],[4.319285858378513,47.83743970579336],[4.300805981058354,47.84877161085865],[4.2610008241447535,47.84385063866699],[4.262193864556681,47.88395527973197],[4.277339137948259,47.89945297805272],[4.311152699462278,47.903922726683135],[4.2934241069450065,47.92567623483797]]]]}}