{"type":"Feature","properties":{"code":"25","nom":"Doubs"},"geometry":{"type":"Polygon","coordinates":[[[6.80700533167707,47.562801384972],[6.816660001724921,47.54792247821983],[6.860809068981891,47.54751358468233],[6.883473648745609,47.55533115808764],[6.905669627634239,47.547361521011815],[6.909674152385642,47.525507149094636],[6.946162450184676,47.51131633258056],[6.930856287246399,47.49817970710937],[6.907596719688256,47.49436626816266],[6.917231799861733,47.46886980086098],[6.932315529660057,47.45581501043693],[6.940536510867674,47.43337372140521],[6.9383780521299885,47.40601986473863],[6.917565696040302,47.40554258429283],[6.911280984371045,47.3856550932385],[6.8853970779398175,47.37459946804773],[6.87936818281023,47.35839729641757],[6.919496443267278,47.35536414476774],[6.994215518452339,47.363057159308],[7.012120561775966,47.37292288887178],[7.049718402997699,47.360719992295074],[7.062207100094967,47.34415745980239],[7.046203037401215,47.326976713950984],[7.016140643996923,47.31359873592356],[6.993126569921015,47.29554511879603],[6.942895673773597,47.287754384904254],[6.955208843014741,47.244149772352195],[6.940725555973242,47.231843645454894],[6.882433031143578,47.201615584703326],[6.858349567867174,47.164383477038406],[6.800236684357302,47.128793351463806],[6.763777402656871,47.11979205072034],[6.739920812240863,47.1080561130741],[6.74109066784422,47.091064413033465],[6.717835845806807,47.08893991246636],[6.691621066187363,47.06668923642061],[6.7140493259380465,47.04912442357012],[6.699656601550015,47.039041188281],[6.661624427517901,47.02822165295931],[6.633742279087916,46.99841408318843],[6.59318642597294,46.991771506770114],[6.566568468914689,46.98063803499442],[6.5188133537312165,46.970857851315834],[6.49668554758685,46.97418077120232],[6.446572766755816,46.9341439731704],[6.432669440426171,46.92860208537252],[6.4645840104267736,46.89020943846434],[6.460055924791717,46.85168246859297],[6.44262902075631,46.83235109259498],[6.434826378361494,46.801464616461466],[6.458567776224122,46.788495437539005],[6.425917841439646,46.75480272370325],[6.39507223431701,46.74824769305675],[6.391779221321134,46.73835933517175],[6.344803166577885,46.711872179216],[6.285329368806656,46.691241021954745],[6.227994158729884,46.64830608201645],[6.175538722376977,46.61413990223054],[6.127338291895881,46.59030639234697],[6.110748015678899,46.576313203446446],[6.1381085470292716,46.55766039903405],[6.131429786217584,46.55374316497247],[6.048566902902156,46.60772285612786],[6.059172114439157,46.62611096798534],[6.105519201667375,46.65048282928723],[6.069828479910839,46.689524885344895],[6.11296041814117,46.707745262586364],[6.139950483346064,46.7252665040831],[6.180271003478625,46.741575238392656],[6.185275300570877,46.75514278256941],[6.206667229738774,46.766127080274636],[6.175722465411307,46.80024737987558],[6.134201093056517,46.82606829489227],[6.091004700025405,46.84186203649593],[6.065722840490433,46.85966779654168],[6.034013122897841,46.84959669047568],[6.026247153653252,46.86409173600443],[6.005778412779799,46.8730528372109],[6.011720201418477,46.88892677308902],[5.9826340237056,46.90845204586353],[5.996550634911118,46.93349025460158],[5.9640723607092,46.94807945340021],[5.979788604869103,46.963477609202336],[5.968560305501438,46.98044449059873],[5.945444530036826,46.98892069091779],[5.928902914958152,46.981557598992175],[5.9110704645310355,46.99949662045942],[5.838703245735162,47.00893073323631],[5.818320069354114,47.01634936206399],[5.810142553295952,47.04676497151418],[5.787650426326096,47.02060775116385],[5.749513452394782,47.01724338346852],[5.740853599399733,47.031142664947374],[5.784717290338706,47.054912309682756],[5.768548742190094,47.08943503996254],[5.8045619988542985,47.1133407822186],[5.820691451026131,47.144415939401],[5.811467446057154,47.16905381606456],[5.785253964111757,47.1730387486781],[5.786363077074669,47.1880831609518],[5.7615922644946265,47.193351935732494],[5.754029730428721,47.20619762753816],[5.720409103677726,47.2199367429909],[5.719658737830903,47.24039349857038],[5.698725742766405,47.264996774959506],[5.732304584331136,47.2635708244963],[5.772794289154126,47.27839174115347],[5.783911882300601,47.29062859459643],[5.84401524176912,47.30002560772319],[5.860063369485741,47.31441371512956],[5.908850384555448,47.33130809335063],[5.926973317778065,47.344842696907314],[5.965726777821383,47.33714799401978],[5.979565477765114,47.32599225383308],[6.031152213443059,47.337818639776025],[6.038905360008941,47.345543807863976],[6.080045800270596,47.35403647497674],[6.118643218077476,47.39516918586829],[6.159315835079816,47.38763809750605],[6.20045182507361,47.4291448308537],[6.227146778558152,47.421361759224745],[6.256322884311814,47.42460267369418],[6.2635413933118995,47.446113357872484],[6.280184223466656,47.44396949481327],[6.3343537374171,47.50596607053227],[6.4176533951113335,47.52107576002842],[6.463493609157821,47.51211727914121],[6.475912751751343,47.49653791477729],[6.495895471628419,47.50568894568784],[6.5183760537344355,47.49650598459375],[6.534536369742796,47.50605436714645],[6.55356252302069,47.49279726215029],[6.573512260277363,47.495493621813196],[6.583644236898135,47.50998705821796],[6.568287888950471,47.53296730090853],[6.581373134078281,47.5439823802077],[6.6108754443878,47.530375696762064],[6.646719240296149,47.53526063805599],[6.670176179849052,47.55789898345777],[6.715410264318535,47.55291548061491],[6.738845896180387,47.55702322452207],[6.767404952407747,47.538017268556935],[6.797499350037713,47.5495126825397],[6.80700533167707,47.562801384972]]]}}