{"type":"Feature","properties":{"code":"77","nom":"Seine-et-Marne"},"geometry":{"type":"Polygon","coordinates":[[[2.571660318442073,48.69201409164602],[2.5688040564289847,48.707222628077005],[2.585211502726328,48.727239448802735],[2.5854093346308815,48.74171196622536],[2.607003437584154,48.77439762384403],[2.5922804883088015,48.8074366758147],[2.592517689219438,48.82587446702569],[2.568103791053846,48.86594445401019],[2.5870340052947016,48.893952959629644],[2.592341722831452,48.925023616614034],[2.58930360616549,48.953762745338985],[2.5717986314833206,48.96867398285449],[2.580314053373102,48.99158952144207],[2.55306064485419,49.0098171174389],[2.547651942231624,49.02344674891678],[2.587858904546535,49.04990157898905],[2.572031573014404,49.06149045194861],[2.5905242793946224,49.079654846732424],[2.633272965218076,49.10837621896302],[2.673154178752123,49.090859401094306],[2.7067286108537023,49.06571610231719],[2.753551034147009,49.06074104171223],[2.7870683167938073,49.075272380356054],[2.7918669791571764,49.090224385649144],[2.845152480122472,49.0846582975852],[2.8560893422319023,49.07003394285967],[2.8949540105299616,49.077060509386286],[2.9015078805206906,49.08537404257291],[2.974612129302612,49.07483790651457],[3.0085155429257675,49.09151015780461],[3.0483639955943445,49.086321770811566],[3.071884293834167,49.117554218816146],[3.1039032023368676,49.10783847337312],[3.1361260876735515,49.10736575572267],[3.16523032905892,49.09965085798759],[3.1535840813505853,49.08328424779814],[3.1818268776645002,49.060865198640144],[3.1682883590774806,49.01667270236993],[3.229176905886298,48.98841784600257],[3.2518351589230496,48.97236625695047],[3.2678460373508416,48.938331129104206],[3.3047494707754015,48.94876427894454],[3.3130758740800688,48.9212163651494],[3.3302994547269797,48.908706088642376],[3.3663472431751384,48.922836905893014],[3.3828132392962247,48.88874725594759],[3.380474508825688,48.874761432854626],[3.404630766733507,48.86387236235099],[3.452232416190477,48.856291455303484],[3.4607105852412756,48.83944139457446],[3.4851874436586847,48.851908494372864],[3.484964362562067,48.82500976544345],[3.4321733352035433,48.81226134369876],[3.442913938608982,48.78618495446326],[3.409426927872636,48.78384005486431],[3.395834526122342,48.75925128896011],[3.4302049079731773,48.756874901226034],[3.4443842525897947,48.73668491350176],[3.4697275479340295,48.73786507384338],[3.4643028353269045,48.707377209765006],[3.4693877334848082,48.68643581459289],[3.4406134906014127,48.6636539025972],[3.460426313142606,48.65300999879329],[3.5174997752390147,48.64336703334491],[3.5190711976645597,48.633474580141225],[3.5556137492385345,48.62028467657408],[3.5038535314822115,48.6048091344709],[3.4975003134409723,48.58995747369995],[3.4655161591022283,48.57048567886506],[3.479607557239746,48.54471109171053],[3.4591902801865113,48.53074024476159],[3.4234423807070566,48.533562692399734],[3.4053980660358945,48.528012199625785],[3.4348599344666386,48.49751072268098],[3.388359827890943,48.480408300039215],[3.4064783284931712,48.4524502326185],[3.3919598867876517,48.424322153455364],[3.422082006455869,48.413341906536964],[3.4147915595010967,48.390273038820325],[3.3833187883415756,48.39970860491622],[3.367217075047188,48.39431654152582],[3.3651592673815314,48.37228068710627],[3.305153213312036,48.37287323488759],[3.282397556791885,48.37751802756359],[3.254382220567969,48.36502185965591],[3.232843707551971,48.37032930740775],[3.2018573040530143,48.36401635870226],[3.1398687617633554,48.37259875797597],[3.0988849903520745,48.35782222270563],[3.0495188960927044,48.36012035556557],[3.036760677253472,48.34009779475704],[3.041677936242915,48.329416667963116],[3.015901008416285,48.3079017396547],[3.043627253848888,48.27202235761227],[3.0051556578134635,48.20767000034546],[2.97446503722382,48.20555285255294],[2.970958045601008,48.194187673485665],[2.9347486048838207,48.17882262621194],[2.936314411640624,48.1633917441478],[2.868032820232008,48.156433549044586],[2.8208799789852854,48.12966447731962],[2.7978126665223124,48.14068615599144],[2.7989445730680167,48.16827665010273],[2.7414685556447598,48.15977844911796],[2.7551983055667155,48.145653478490786],[2.720460981753342,48.136910896310766],[2.7065470696044738,48.12481924580505],[2.6634205012712795,48.12220248073456],[2.6397338993017683,48.1388605931352],[2.602684217604197,48.13148889808521],[2.570562642830993,48.14081569138084],[2.537506945660482,48.14033979679666],[2.521518685158647,48.127300215727736],[2.4903153051303115,48.12660259180864],[2.460116447222927,48.13685254342551],[2.4832376593500602,48.164518230078265],[2.5063270278885916,48.15643757520199],[2.5093663344872534,48.18250926382449],[2.523126693688509,48.19489310648136],[2.5068882455094257,48.22598658432872],[2.4690901704508605,48.255272821570486],[2.452518016092004,48.25003251288878],[2.4237635277023717,48.260297326582666],[2.4210918870276967,48.298668261849855],[2.402664267131608,48.320719459421184],[2.4255796854392964,48.33725297618987],[2.4298322285044196,48.362015783117755],[2.46921772462766,48.37645004114287],[2.5216135704659886,48.404932172570405],[2.527461927309532,48.4157156753841],[2.50765489240467,48.429543907057045],[2.501886311020425,48.48476669856557],[2.51535674995086,48.50615222035927],[2.49952467433224,48.52523904800114],[2.5198364478476627,48.5625203315344],[2.5182770284128475,48.5832577878723],[2.543776514406961,48.60384977114558],[2.5258433805130944,48.61310782203827],[2.53361600680745,48.65733138882678],[2.544818846722052,48.671181815072785],[2.585373689362236,48.67939805001862],[2.571660318442073,48.69201409164602]]]}}