{"type":"Feature","properties":{"code":"36","nom":"Indre"},"geometry":{"type":"Polygon","coordinates":[[[1.32666554504539,47.186225424714024],[1.4014266290701616,47.21244937239578],[1.4241047321761513,47.22954437481808],[1.4484622479605171,47.23796792120677],[1.4815998938388473,47.239163055882926],[1.5245337678448851,47.22597700817113],[1.539459756494749,47.25652806281719],[1.566277084478891,47.261616837192406],[1.59104001493485,47.25746333923802],[1.5924281213159723,47.27667661628705],[1.6504371377870972,47.27317015052999],[1.6659002787349648,47.25778142355442],[1.7058305011298698,47.26587806828036],[1.715953376298902,47.276776997807374],[1.7397902842883757,47.2549073525034],[1.77611073651641,47.23138256399343],[1.8088371356765827,47.23387535753442],[1.8390792420529518,47.219308157716554],[1.8422371270362656,47.17758044921177],[1.8234729723307537,47.173942852701636],[1.8100544192382355,47.15615809030652],[1.7776202085696244,47.13240064713366],[1.793670861418607,47.12090886272082],[1.8226530300255424,47.122071863013495],[1.8488587784887625,47.10936986097168],[1.882721849834433,47.1019495456428],[1.9184124209566409,47.10482799182933],[1.9664139793909294,47.12541751372791],[1.9966600854821617,47.12699833408193],[2.024534600265164,47.104448294258844],[2.0483747223375235,47.10602450452247],[2.05567516887427,47.07168995789588],[2.0297138722809316,47.04747052812152],[2.0933838995940373,47.01573583572996],[2.1088559092730397,46.99719111950124],[2.0702028641356307,46.95442291025531],[2.0706986163554206,46.93399643786306],[2.109999619994995,46.91338987501182],[2.1460169903433157,46.91750721360478],[2.154834385411464,46.91162948370054],[2.1390397070573326,46.888569836472456],[2.106948767251103,46.87213575040175],[2.0782472483795438,46.83892644966574],[2.048810332345124,46.82944826814363],[2.072503508712849,46.808814332303335],[2.1032165162358063,46.79543413838327],[2.116649522348319,46.779717208437596],[2.0929846391107216,46.75496838536534],[2.065751312591214,46.742494802064904],[2.111303456191762,46.71160114289773],[2.1554479927780568,46.69216020128774],[2.138670574914567,46.66743461292721],[2.1894467123408132,46.64214127258008],[2.187486147291389,46.61672498199302],[2.1671454437331246,46.588979151612705],[2.1732125948301104,46.56618677203497],[2.158700190947214,46.557346281682186],[2.1810826759773936,46.52903506403956],[2.2043972607989812,46.48439997524806],[2.193160461276067,46.47025540007179],[2.1565419224007676,46.46152623851912],[2.154348029342259,46.43408051549606],[2.1677857181383846,46.42406650081809],[2.129684686571857,46.41986520092511],[2.088941803334241,46.40890318674806],[2.074201476301987,46.41984302086565],[2.044395406151348,46.42134446075375],[1.9930823669027022,46.43091738935582],[1.978108199916569,46.439771706882276],[1.9243082864873586,46.431902226728816],[1.909176472236739,46.44350179050311],[1.883436954441824,46.43255455176469],[1.8195004176655625,46.430038338950894],[1.7983765894227512,46.45481762095847],[1.747590198721343,46.45002145600438],[1.7601258090399783,46.42758992898391],[1.7277004157566196,46.38940888777561],[1.710900805328006,46.39205717074327],[1.6836025202595086,46.41817777856285],[1.6448464161558112,46.38681584908517],[1.6143011395442397,46.405298584782024],[1.5696928311710425,46.4054957864533],[1.5462010463391824,46.39346394164149],[1.543962708576285,46.416887448744504],[1.5223068332769556,46.42652499450049],[1.462936752493747,46.375350693466984],[1.4353808001913293,46.363844088424806],[1.4151905101137505,46.34721849587296],[1.4090311642821585,46.3613359928752],[1.3835265726019255,46.374757364316125],[1.3560228953092233,46.40012317441316],[1.3223399070687456,46.38965357258241],[1.3030567860553472,46.37099465262579],[1.2604032451287535,46.37878248650986],[1.2191909673622259,46.36592410433378],[1.2047624195766258,46.387692968021526],[1.1772799568053671,46.38395162215293],[1.2109861172875847,46.42936675668184],[1.1516045347766355,46.449236175811976],[1.152977857618218,46.47295586110232],[1.1349676142912506,46.495261976149834],[1.1491434460646581,46.50220256803704],[1.1082908975477561,46.53150940181887],[1.08759324171297,46.538172760099805],[1.0206069888359919,46.53709643301311],[1.0147644249831798,46.56776399882199],[0.987237034592862,46.56556286906366],[0.9408377357519268,46.581410311122475],[0.9158653080538118,46.59663148752451],[0.8943018154002151,46.62573665182289],[0.9065157405117292,46.64774942034653],[0.9084421594440936,46.6826701222059],[0.9279553620387494,46.69539122809664],[0.9010383725080395,46.73609229312116],[0.8674688807081561,46.74821910504847],[0.884637875531021,46.75486872319864],[0.9252287975177681,46.757176324942904],[0.9469595959139807,46.73670637149566],[0.9590385851297228,46.73775035471489],[0.9833806433152704,46.76418354026803],[1.011690169362143,46.75780474174544],[0.987243902482599,46.79818923636699],[1.0032488288235037,46.81410411812478],[1.022251434317954,46.86391503191526],[1.0338011309915904,46.90747018486123],[1.0380284215747493,46.9420186917126],[1.0635443101027082,46.95731046262916],[1.0498776400419192,46.98064041873546],[1.0736483557273722,47.00265445404348],[1.0840420847936154,47.021019619722956],[1.1102641592923617,47.02923293261394],[1.1321442636157986,47.02762569675012],[1.1818533493699115,47.04081998846271],[1.1955887210148548,47.02953520853475],[1.253119794649933,47.021765630239194],[1.2776118302465334,47.04039666478023],[1.2937693555688192,47.07225420538248],[1.3121550924937646,47.0718848367818],[1.3188363969257677,47.104914121347655],[1.355725988719157,47.10878543596063],[1.3653609997076237,47.12205127770916],[1.3467111123061792,47.168764854539475],[1.32666554504539,47.186225424714024]]]}}