{"type":"Feature","properties":{"code":"40","nom":"Landes"},"geometry":{"type":"Polygon","coordinates":[[[-0.24283655874306692,43.58497620901365],[-0.2763965148657968,43.584761045574],[-0.30369046804673383,43.560276850255974],[-0.33595845896027376,43.55085163558024],[-0.35359679862890814,43.561780875085],[-0.4060419475368964,43.568225638621044],[-0.45203767058593636,43.550435492790825],[-0.4634382109634287,43.566589232141745],[-0.43347042112212875,43.580338984734894],[-0.44992960469658516,43.595703984518344],[-0.5076560922832347,43.56923087293328],[-0.5105948945954394,43.563209686236384],[-0.5571744316529481,43.542797175106195],[-0.5670718315523744,43.558215555933955],[-0.6008401126869658,43.538204154807815],[-0.670807186170969,43.5667169721834],[-0.7009707203498448,43.56096357592762],[-0.7180970591845858,43.54064303476207],[-0.7682806920100282,43.57948154907272],[-0.7817805196343679,43.564167159066834],[-0.8426740269835161,43.55356012044782],[-0.8556394802658646,43.541912093762534],[-0.8966906468904682,43.55048921576566],[-0.9509135778063627,43.53212326134325],[-0.9758267609662757,43.53928445138307],[-0.98987372975074,43.53346243559243],[-0.9933935609538049,43.505388046842114],[-1.0265078502683154,43.503370175677496],[-1.073598211038545,43.51939437447959],[-1.109247829938908,43.51412989565137],[-1.1195951980376606,43.50151151366748],[-1.1625744604180746,43.49153545937573],[-1.1639945144136432,43.50839178467792],[-1.1315682094233597,43.51069576475205],[-1.1708199655376668,43.5456098839176],[-1.1956162981323255,43.546095049204695],[-1.2173167238027949,43.53073810827331],[-1.2888696900073222,43.49872862084951],[-1.3274966286590806,43.50492395449724],[-1.3679078186199811,43.49490465671754],[-1.4153887215828598,43.49717030109977],[-1.4311182651313608,43.51461371523744],[-1.4641103174097,43.51978418733692],[-1.4765954372767023,43.539347276261424],[-1.5014142682685339,43.526946780448405],[-1.5248665484221002,43.52970134669009],[-1.491923614747195,43.57231885753228],[-1.4600195931351083,43.6202992244984],[-1.4424122520261093,43.664405589349386],[-1.4365038283323686,43.710565130021784],[-1.4102258105768295,43.80324747446864],[-1.375345240406389,43.91228735051265],[-1.3376743348128222,44.05415734628098],[-1.3159842928578236,44.130037493905746],[-1.2775403203119533,44.31923983571922],[-1.2538901028077145,44.4676042123461],[-1.1064909647292618,44.502772891337074],[-1.0851664955491247,44.53219457167761],[-1.0266309572095953,44.5071249515487],[-0.9911544881491408,44.511849168147315],[-0.9806969914576482,44.48287893553743],[-1.0079983966164947,44.43628954261453],[-0.9695842480121452,44.429379805191715],[-0.9191704541834174,44.44334436259599],[-0.9120213474779492,44.43693794653607],[-0.8433457118512414,44.41817667183869],[-0.8124255218387905,44.420432411546486],[-0.7787977956453461,44.429621612205196],[-0.7724266413748072,44.4400689012159],[-0.7307029568976173,44.446374662072536],[-0.6819329255443941,44.444104603018644],[-0.6760254579024039,44.45733288174258],[-0.6287774027434528,44.44319224087455],[-0.627647611184293,44.39814566253359],[-0.57097020407163,44.38252695965793],[-0.528103107297291,44.364654043262846],[-0.5176354697700613,44.33911112646833],[-0.47887161721109855,44.32489189867455],[-0.43183954131517804,44.32257705443087],[-0.43013450581532475,44.304781669300105],[-0.404736006733474,44.28738094305708],[-0.38338729038705516,44.28631066773658],[-0.3962403182108504,44.237695224176385],[-0.38961736206091696,44.20948462715673],[-0.31133609242726,44.20327170097005],[-0.2721185290366108,44.19380924623558],[-0.22344709828329407,44.20589826380183],[-0.2260044378069046,44.26478415652428],[-0.17860380229840828,44.26119359476371],[-0.1664311622268672,44.241645770485846],[-0.14068847985275829,44.226404747689884],[-0.12947353060156191,44.203862714468414],[-0.12915451548994408,44.152409928751574],[-0.10518222695424868,44.1551363597548],[-0.05985846246111547,44.150817206299195],[-0.0035391663583750703,44.149897854637146],[0.03459384382221056,44.13065240342955],[0.13579733087558213,44.12419368483945],[0.13673121582335918,44.10987087477736],[0.10177914904503296,44.08782254660348],[0.09431661158348077,44.065613157677994],[0.0626980132929106,44.00084249917964],[0.07604560969926086,43.98314313658291],[0.05530723606827761,43.957963973072],[0.07101167271921884,43.93329587806085],[0.07251111881590214,43.91379372164531],[0.05569199596666372,43.8976445612464],[0.030793555000742517,43.9005633671888],[-0.01861461418396192,43.9313867432444],[0.00420637351659139,43.94342582438924],[0.001446300333196457,43.959885381064026],[-0.0361689246680343,43.98374032755233],[-0.04653101813218577,43.96104391789014],[-0.07235713337565827,43.946531834485505],[-0.12468082668137451,43.94434508821349],[-0.16632109560044633,43.92805052482344],[-0.17595413172084393,43.936327270993594],[-0.200087659676207,43.914834830061565],[-0.2344384631811253,43.899006040339785],[-0.19456201236331316,43.881572646215844],[-0.19855660923175042,43.86241563374058],[-0.19246168396068822,43.81017700393666],[-0.2271397672790903,43.808272976810954],[-0.20605373558746434,43.7500763289867],[-0.19414330237233995,43.737016685694684],[-0.2286074364319675,43.715376271697906],[-0.2466545863762805,43.71066950060451],[-0.23910333247309243,43.69394560059394],[-0.2558984040423508,43.679791305136796],[-0.23973019201148485,43.67124152201394],[-0.243162288337736,43.6545058231693],[-0.28211107433706983,43.64307015979027],[-0.2777099095136678,43.616204272478164],[-0.2472036903728421,43.615949823145584],[-0.24283655874306692,43.58497620901365]]]}}