{"type":"Feature","properties":{"code":"13","nom":"Bouches-du-Rhône"},"geometry":{"type":"Polygon","coordinates":[[[4.739060856654237,43.92405947349057],[4.82173604983078,43.912827836405015],[4.853093547765335,43.91138205123056],[4.885234592866442,43.90014657326699],[4.902319279838385,43.88793164631778],[4.925857913600155,43.886492676966505],[4.966309299927298,43.87164726913833],[4.996088984833567,43.846062979958205],[5.029533445304739,43.82779291313872],[5.0496564330787725,43.788726353015356],[5.173314396868251,43.7388086180006],[5.187972296540632,43.73510332278256],[5.229990308924739,43.74767288112555],[5.255713544202415,43.74655792640453],[5.31850282672,43.73502143195822],[5.341018959038618,43.719703701701896],[5.439245661034277,43.68110432174805],[5.532691768278144,43.658982498850435],[5.571561902428718,43.66192326389572],[5.6069435191164425,43.65868590516478],[5.647750486437068,43.675796002747234],[5.6740823773888085,43.69354548263312],[5.7173496269448085,43.6935266901868],[5.73694977606664,43.71600369956981],[5.753650891000443,43.72462222505303],[5.782188925366387,43.70688803457204],[5.803458345470844,43.67967259461735],[5.799061112603831,43.66051789095841],[5.744798262971254,43.65677840759107],[5.7002276041895055,43.64171580606343],[5.681084297973491,43.61251583703795],[5.691599302975247,43.58442798717338],[5.655965226280003,43.57740113848914],[5.6692574361600405,43.56473259595678],[5.695815693323289,43.5621406925523],[5.722822019697228,43.54816058741321],[5.716142493328895,43.50429675245373],[5.698802592390258,43.48217012690398],[5.729497620866793,43.4649455181253],[5.750365813842735,43.43483686058608],[5.786515741534922,43.41454030725915],[5.749995488821414,43.40151212758493],[5.724430347442292,43.408873853719896],[5.682787396731936,43.39915686931637],[5.694566647112354,43.364397692972155],[5.705025402908448,43.35591845372619],[5.686454243837883,43.34018809721801],[5.6805714198425825,43.320567749059826],[5.691040375926617,43.31296284082202],[5.726600840963344,43.317355354807546],[5.749842102092498,43.289268158207484],[5.760928945485899,43.26733799967126],[5.738053338597997,43.26234879905431],[5.683909137465821,43.23605829449104],[5.671875005699277,43.179268786904935],[5.6525556384849125,43.187314568389844],[5.624165815055896,43.18698295242608],[5.600902180940571,43.16254533545738],[5.569123854119204,43.17529448351615],[5.531324017717664,43.21204241023737],[5.510066083294413,43.19768970206163],[5.454401745873978,43.21064244401662],[5.391051995321294,43.21212758682465],[5.363644360087066,43.20712491164297],[5.340870058926049,43.21464053757704],[5.348353034439003,43.22982142946681],[5.372523588800765,43.24507767770401],[5.366241273279859,43.269297926805216],[5.345688435376646,43.282363417695436],[5.364413487886784,43.312140196877614],[5.323859848409952,43.356938601132626],[5.296471721324536,43.35955741603999],[5.2562520205440935,43.33727449020553],[5.221336413370384,43.32835884872525],[5.17747685717399,43.333615576923606],[5.168325223906977,43.32794092993499],[5.037907932778403,43.32902848885288],[5.019042287817556,43.34294363712429],[5.0242941885301615,43.355561006629124],[4.975887748495165,43.40225192419132],[4.967705599857734,43.42610491918481],[4.931381887869524,43.43315714427828],[4.906351069342989,43.41974182683961],[4.864258578677964,43.40622019800946],[4.848994405645509,43.374446367565824],[4.874828065516188,43.36049493579003],[4.855048529182453,43.3326166544088],[4.833031594688433,43.32986964122808],[4.783363102701897,43.347193829339595],[4.717738680923241,43.3503073199876],[4.661783095147221,43.34641234548359],[4.585804835779633,43.36006877534866],[4.562800334318894,43.37213670596142],[4.557428450695051,43.38832049746897],[4.587701900856666,43.40071206710059],[4.582043368583085,43.43056112720855],[4.562101794245088,43.4432502407157],[4.51635241260241,43.45471611364518],[4.465265329292432,43.45715551018595],[4.402200576777784,43.4472639920423],[4.382042207083344,43.452273928749435],[4.230283393392478,43.46018543272639],[4.239683975737728,43.499174558069626],[4.295851866824911,43.51453493286982],[4.353650066858599,43.54739365400947],[4.409349673740097,43.5611278006361],[4.425539875574249,43.5852225597615],[4.450257392496214,43.58355447784505],[4.475231595661822,43.60829885495057],[4.439746618135546,43.61067366667502],[4.427040425527008,43.62067740923795],[4.4542439312837825,43.66662787515181],[4.475496620134662,43.67109343801706],[4.487236861293796,43.6992377666192],[4.5369411541005595,43.70751108523803],[4.58188049548336,43.696373117975405],[4.5930322483013235,43.687462402972955],[4.627660521184518,43.69054089775907],[4.613036230103559,43.71429404725378],[4.613635008064088,43.72981961114202],[4.62998556436456,43.76267064663956],[4.6512411791496495,43.782277934314685],[4.654752667357286,43.80231435958277],[4.6424160670333485,43.83143872315902],[4.666304849946619,43.84477593971714],[4.641909591242105,43.86747754714164],[4.693327338994554,43.88497348729056],[4.723369654284791,43.90595389117946],[4.739060856654237,43.92405947349057]],[[5.0144531785530875,43.55554571631939],[5.015464900192831,43.52972333434815],[4.998556097992353,43.498104175449996],[5.004639838062898,43.470137499203474],[5.037984666608327,43.47064067048238],[5.051880922172624,43.463556640011085],[5.070394766791551,43.40020699537995],[5.11071277779588,43.40412626112347],[5.137265038622504,43.40018551794629],[5.1602333561876454,43.4110063529329],[5.191264875484891,43.43489873898378],[5.226134113683475,43.45256621293005],[5.222559549448171,43.48346583330456],[5.202793615675099,43.49117758927305],[5.1453160268384055,43.45857039791435],[5.102687329637665,43.526042982433104],[5.064332478397007,43.52783256560428],[5.046441178306793,43.52214136817413],[5.0330412390865265,43.5450648209435],[5.0144531785530875,43.55554571631939]]]}}