{"type":"Feature","properties":{"code":"05","nom":"Hautes-Alpes"},"geometry":{"type":"Polygon","coordinates":[[[6.260566197557925,45.12684791386632],[6.299216785815758,45.10855211143577],[6.3312977067397425,45.11812379084807],[6.362935515883446,45.10449356656247],[6.373529600716985,45.08414824428705],[6.364877554955543,45.07017079687575],[6.393914586674507,45.06181851097421],[6.438596097282185,45.06258355349038],[6.451799595532319,45.05172052616644],[6.486234598441578,45.05607309559144],[6.480384256020366,45.09079271505677],[6.510979894458294,45.10875068557236],[6.529708447474563,45.09856919735164],[6.55601396596344,45.104195104315984],[6.57653069592537,45.12309720037721],[6.615550094957373,45.12147775227429],[6.6299873381374725,45.1093269281999],[6.627487761756953,45.10121505030452],[6.662113977091666,45.07163521564911],[6.658833037991113,45.0522106577603],[6.672439472064712,45.02142288028361],[6.7256836969428715,45.02150040053337],[6.743421512935462,45.015920279449546],[6.751188313816809,44.99755867124376],[6.7376342538806036,44.99148903315492],[6.763468605707418,44.971219657081626],[6.753079854453953,44.94296106206407],[6.750709573838057,44.90565221939063],[6.771184461028274,44.90344432994035],[6.805918328309796,44.87664147794964],[6.863241048677118,44.850610814016996],[6.913770297405167,44.84542283675211],[6.933687243037528,44.862026072008646],[6.972609983994274,44.84623344849374],[7.0067737788907705,44.839315967633134],[7.018283625506064,44.81230540654565],[6.9995712397492555,44.78944471324736],[7.024748601836657,44.76238093071902],[7.024189433792721,44.74131576508321],[7.043683920015221,44.71814050323442],[7.06578600052752,44.71360743394211],[7.077108800206922,44.68091750917342],[7.059729404484276,44.67996132818681],[7.023734517020338,44.6913011223226],[6.98622673933706,44.68808002657876],[6.957471911814601,44.66982246847716],[6.948335091404861,44.65481629914676],[6.914488202179287,44.65949945810214],[6.880124364018876,44.62999271969987],[6.85814264425923,44.62805845533632],[6.853900769395612,44.61475859917988],[6.799941325461042,44.604244109554145],[6.766943196052187,44.586952404898014],[6.737180942222513,44.55253559808428],[6.701153206618136,44.538996840218914],[6.680922896471837,44.54102548605375],[6.6684970592870565,44.500299753706706],[6.643650285023153,44.487759305292435],[6.63229969332171,44.44691502790709],[6.547366766497952,44.44676331416215],[6.533276938209056,44.45197395122282],[6.4693180033119155,44.45131246990398],[6.462013547991893,44.46247217356771],[6.433358303001146,44.472514470120075],[6.411180249066938,44.47096856265119],[6.39880869108101,44.4941562144314],[6.3573108201414845,44.52263889176314],[6.332395681132657,44.50999616152816],[6.348272978050237,44.49809023202587],[6.33862266220802,44.47283907420384],[6.323106052174982,44.46382948496176],[6.293492428153158,44.48092732291776],[6.262825636989673,44.46549564526641],[6.236135472030146,44.46144449835514],[6.262494510552066,44.41224966674437],[6.241680881439521,44.38485438747808],[6.228221718294849,44.381700391997015],[6.173565741653668,44.43954286595121],[6.156254785052348,44.44210331855112],[6.155615049010709,44.46195982298558],[6.1160166804432015,44.47546505487432],[6.079694848017664,44.475530907704965],[6.072442979890107,44.45207608038503],[6.026308275440297,44.434642097388625],[6.020374443332653,44.42005811336259],[5.977799438785809,44.40736292380458],[5.9536703829504924,44.395059266699214],[5.937356413024749,44.35935610859397],[5.896099604509158,44.31861879667804],[5.9255909605950015,44.30855111867347],[5.912998227051449,44.26831617376552],[5.913194557888511,44.248711120610594],[5.880129754573656,44.271011382120214],[5.877120986906842,44.28879843672459],[5.848477759938248,44.30072259452234],[5.823911889045941,44.27890195531252],[5.826655362130932,44.26251076006967],[5.860019043661206,44.245092101540315],[5.881793583616446,44.210998662542806],[5.9147400564445745,44.203427232845094],[5.909305399486612,44.19046630820442],[5.8285720679377535,44.20066569733914],[5.795385785142977,44.21345893688929],[5.776514541341646,44.2055259364244],[5.755494196596879,44.210207765237854],[5.713913055297651,44.19926568716529],[5.692087450380134,44.186483371831564],[5.676037325543462,44.19143313185896],[5.681311859737585,44.23289466958045],[5.672996044869041,44.23984311301397],[5.676206589256276,44.27551099308782],[5.647509019416229,44.27247769824454],[5.631970064900461,44.284721309902835],[5.637756422122977,44.29968616697366],[5.608077262744189,44.30850908328983],[5.617135908418277,44.332475894185805],[5.5373670436986435,44.333525718131106],[5.521782790630088,44.34931163553876],[5.4930715607447445,44.33717752081172],[5.46941457400079,44.35149029453098],[5.46065693964672,44.36832054562284],[5.434953500862137,44.36911743294876],[5.443026623183156,44.391237330733084],[5.418530667075709,44.424947370319],[5.447194165800079,44.431852481873705],[5.4764897049095795,44.41972379409436],[5.498303440849121,44.43732497621575],[5.464433745418449,44.44788666870274],[5.458727518186473,44.46614393059478],[5.4798758917737445,44.49123966897652],[5.516510011697751,44.49138247772147],[5.562404689872195,44.47485185176209],[5.603651238319425,44.465544996850255],[5.6163088106464185,44.47271206540212],[5.629785093116038,44.5011871029685],[5.664504139914002,44.501894032401594],[5.627373773874302,44.53458025973445],[5.5972487980667855,44.543273727979226],[5.617737322579476,44.583133580603594],[5.643926214041127,44.60972161106435],[5.641715054881292,44.65107468886509],[5.726039426074854,44.63939834273572],[5.753939211901072,44.662713661324155],[5.790619766631355,44.65329030204328],[5.799407769469486,44.67394966436931],[5.825802514085463,44.68569233800322],[5.82711625324567,44.70028877822114],[5.801469996094522,44.706778512869995],[5.82777670542201,44.7400904212036],[5.846789359515513,44.75162114202083],[5.888833543818295,44.74880281266777],[5.900145988864039,44.75831810886521],[5.92220546362268,44.75408063667132],[5.9801466158902254,44.78117807160656],[5.977781702799108,44.79098097178422],[5.94951924784745,44.80453012289717],[5.979181680039922,44.81858485233257],[6.004863991929379,44.82044164675532],[6.030210546238997,44.838096097754196],[6.056880845755912,44.81648809334095],[6.111944264637026,44.844104598030206],[6.128361780211359,44.86189793671716],[6.1707886083957675,44.85422409321522],[6.196382213093447,44.85897725265292],[6.25054409332542,44.85265497741959],[6.269405725021001,44.87047437006196],[6.300679811301804,44.87347754001874],[6.336319027358193,44.84836943493937],[6.354685212537601,44.85597093285778],[6.350781709377172,44.88120395797154],[6.358440638759468,44.89205674340702],[6.354621853701313,44.92359576979837],[6.3588400606704845,44.941284471463],[6.3289997583261135,44.94731911410858],[6.3285028218875325,44.969718924476524],[6.3148150406516885,44.98018487183722],[6.321848392012048,45.000080059582814],[6.300180534522452,45.00397824625707],[6.251755823777455,44.99669933009644],[6.203927022398643,45.012469165084845],[6.2200801563699395,45.06536793621533],[6.243017832342709,45.06906387836911],[6.229388123209472,45.108750055807405],[6.260566197557925,45.12684791386632]]]}}