{"type":"Feature","properties":{"code":"63","nom":"Puy-de-Dôme"},"geometry":{"type":"Polygon","coordinates":[[[2.5653790586982073,46.143032182829025],[2.6406912317167386,46.118477661719005],[2.6552891559950393,46.12604206490928],[2.675536737103756,46.155809042125064],[2.6774585186785225,46.1727617979065],[2.715881178634498,46.17955498592873],[2.7305652928970168,46.19609671226358],[2.720917952533929,46.21130971383818],[2.732404782173034,46.22305265922885],[2.786781773175518,46.19864733659311],[2.810275114252155,46.196212623621854],[2.8229846867516923,46.21982582951188],[2.8186225286604203,46.23256980947683],[2.838238654032007,46.25133842004792],[2.89131100728084,46.253562623561876],[2.9371457775851466,46.24291746827498],[2.936482510275278,46.221710765741776],[2.9133683342305123,46.21076365100903],[2.920103043246808,46.19098495139527],[2.911139505619457,46.17743500340432],[2.942765231308341,46.168549525458715],[2.971756635840471,46.1217801298987],[2.9937709582935033,46.123728525772805],[3.0164792061121424,46.102448954980474],[3.0480765097735856,46.10031481550088],[3.0906232146771364,46.11452555946364],[3.099793609402441,46.09490520389922],[3.1280978125696843,46.07140098569798],[3.166531859715606,46.065677976513406],[3.1831200731258975,46.074513260697124],[3.2145108831873523,46.07494451930903],[3.233650605398404,46.06355148384772],[3.2810346944765536,46.065929354622334],[3.332766798825711,46.05497440619716],[3.36764567175092,46.05430839581729],[3.3829420706213997,46.06480264969235],[3.419029561174583,46.07429245580498],[3.433106873763625,46.06115526638401],[3.4535928570638426,46.063794720194835],[3.4678828897234224,46.02374515995011],[3.4813683084812777,46.01371105761674],[3.5346371071845772,46.02237834647508],[3.5413270581913245,46.01519652019095],[3.601439901652659,46.015082558028055],[3.6413068945873417,45.96461484273165],[3.6767635131618666,45.95805976115134],[3.6940178008729885,45.930732356412385],[3.7234546463589506,45.92186686966796],[3.7543707578917007,45.88603083611283],[3.7315424899852925,45.87016039642116],[3.72534244009261,45.82707398650144],[3.7116170222098575,45.79955113302971],[3.6906934795455935,45.79217071537155],[3.7310653997028584,45.77483343230172],[3.727105164096888,45.75553371264516],[3.7586724976385866,45.74600532878878],[3.7827600945783164,45.706694635321],[3.776946294898936,45.6908405345388],[3.823453198078696,45.63241694241682],[3.86173367803394,45.62272878464922],[3.8846825953282202,45.60275694217335],[3.903596234209209,45.599022466324875],[3.935548097136248,45.57675205994888],[3.954348408158434,45.555962683335494],[3.9459486995868804,45.54447980125801],[3.964839538556207,45.503218682032596],[3.9844000736338567,45.49411557572152],[3.966604497321932,45.472189147410184],[3.972751884382159,45.46143771943691],[3.9601432570462634,45.44344571733884],[3.899187761612733,45.410307649293415],[3.8892315945582094,45.39452005881283],[3.897408424881887,45.3570837817156],[3.869748727932898,45.355825177974914],[3.837685746380872,45.365713933149365],[3.8352859719724157,45.37605158297855],[3.804943044201567,45.392104461166284],[3.7856753429070356,45.37076437810785],[3.7899965323666374,45.35387675419062],[3.7722554467335283,45.34919188352554],[3.705828237197212,45.3607062251683],[3.679853380401792,45.38418941501764],[3.6631634778409548,45.36157929015898],[3.6186259166992305,45.33771043696724],[3.5903478302934047,45.35722324299155],[3.5880474177320365,45.375226810928446],[3.5630771718254137,45.39491340017769],[3.5209066851487667,45.40241117172981],[3.501320580432494,45.42757868705258],[3.4797803281462016,45.42109945505887],[3.4636110218729947,45.40187938765357],[3.37740750048678,45.40195065808154],[3.355951003761219,45.42270452498479],[3.324323216190769,45.40643003851577],[3.30631987673738,45.41954639101777],[3.290691872112179,45.401821892426035],[3.220912377077928,45.37892046186799],[3.1680632240379363,45.352259807508],[3.1034981328800555,45.35437310008832],[3.081709261400673,45.33620210714899],[3.060267266954517,45.33058792846881],[3.058569686824016,45.30656505249262],[3.021790178296388,45.29536780296733],[3.0183045953290004,45.2870664026082],[2.967346132390612,45.307097870959936],[2.9495692996597285,45.30885613298761],[2.931754110661835,45.33059235323827],[2.9207131825210073,45.36542334907543],[2.8863031117541533,45.382961505858326],[2.8677277513750035,45.376079673109146],[2.851739807542808,45.392294826301445],[2.8012313498513737,45.39285594883326],[2.7635223964556954,45.38562409648569],[2.742824191956514,45.393286416958404],[2.714857227145231,45.38155782083131],[2.6871186111491756,45.40629147061533],[2.6764584284787265,45.43907413938682],[2.663390372512316,45.43416415509558],[2.6396930053973264,45.44570657455579],[2.590384711197607,45.45005773186534],[2.5437058143512723,45.47758527668323],[2.508408697113082,45.47849879874483],[2.516808004227086,45.52382961392976],[2.516332317304299,45.55342661392312],[2.490928563504916,45.5603922863538],[2.4639202998517407,45.594746716951256],[2.4784319627002147,45.60790817567205],[2.483386743242332,45.639304413699904],[2.517544011548676,45.639591069896426],[2.5249409687054394,45.65723626708714],[2.5125929116065997,45.6697634761611],[2.526510829142244,45.68539249032416],[2.5210064489111423,45.70681016156742],[2.4921255582417543,45.73767009540705],[2.454731087219177,45.76088170513876],[2.435460687234864,45.76697343160803],[2.427406116463833,45.79428142437904],[2.3880204308712214,45.82737590512424],[2.4013447212803922,45.83757813269279],[2.4265480371985815,45.83477320365116],[2.4706202631864147,45.87233257398153],[2.4922254101808226,45.86402992467918],[2.5279244706403525,45.8992324603817],[2.55163679096888,45.94126557576326],[2.5696347302085196,45.95881426721691],[2.61078659720824,45.971228075938264],[2.5944189201416936,45.98944187163358],[2.6025111446423104,46.033460147639815],[2.57170126140345,46.04837735959016],[2.5521924042632187,46.08251218540567],[2.5505225579409916,46.11895797457819],[2.5653790586982073,46.143032182829025]]]}}