{"type":"Feature","properties":{"code":"62","nom":"Pas-de-Calais"},"geometry":{"type":"Polygon","coordinates":[[[2.067712027611001,51.00650515466528],[2.097600537080802,50.998427200370195],[2.1353365874298347,50.96425774404664],[2.1541252595915212,50.92600143483312],[2.2018976811147395,50.8508405908696],[2.213001675000002,50.81619844972972],[2.252496270869472,50.788115718263434],[2.3428811569437658,50.7810883826341],[2.375989607627449,50.78404912635709],[2.4114775397506802,50.76673424707295],[2.34089102647672,50.74090632543495],[2.3417485781495326,50.72837526546449],[2.3829874868893204,50.69628206936786],[2.363524646595893,50.684643637888016],[2.3831045994174644,50.671828851607664],[2.40779242678447,50.67276560279946],[2.428985110726485,50.65701656077829],[2.4503937034166032,50.65384652293581],[2.495948921017839,50.631244941936494],[2.533625965601234,50.64308581112802],[2.5370449897762186,50.63045370101787],[2.564653031146168,50.624522730303156],[2.5866206729970513,50.63809536205738],[2.630516060197486,50.617951505356416],[2.6844644994994438,50.632719762619324],[2.713850503520111,50.63129225354632],[2.725641525704916,50.61411481623499],[2.757400535457718,50.61823745589094],[2.7690409100193936,50.66367813929786],[2.809187984818708,50.669372896442674],[2.8404494526472543,50.656566351394346],[2.8697378084597434,50.631095996029686],[2.8424416096298035,50.62905410400955],[2.8065346151718447,50.606764517797096],[2.7890757995406865,50.583060514887364],[2.80816309470569,50.57916943876986],[2.8134467388705726,50.54934391547588],[2.801938478218003,50.53483062913716],[2.8259824668620874,50.52538845142136],[2.881364535884128,50.535434775320184],[2.8798761281832572,50.51589325872625],[2.8989518584324676,50.5015578156606],[2.9647097377674005,50.512778020799246],[3.0157717239835207,50.48645538436221],[3.016772027301739,50.44834132930235],[3.037672306035308,50.4416400980408],[3.0543582082042056,50.455089924005314],[3.076383262967528,50.44060786930254],[3.0251728351795903,50.40757565859167],[2.990408003554761,50.39527899657189],[3.004772238368158,50.36678462460666],[3.0843056602069536,50.31119078351624],[3.0152741338861255,50.283780191722634],[3.018560069810309,50.26439442090914],[3.0515044113968517,50.276650211776854],[3.133679451303655,50.26623580402242],[3.1556853741465,50.243187559380864],[3.188353526948621,50.22867621857968],[3.1788851239271336,50.219073327099096],[3.1427922279498945,50.219237231259655],[3.1314047305598587,50.19940491824935],[3.1561320895920617,50.183715151473976],[3.128954376035887,50.16556204959065],[3.0918531294760667,50.12063041191277],[3.1048462443791918,50.115285460750734],[3.1141238720183764,50.092160389605915],[3.094758364918514,50.08315987378872],[3.090253620620082,50.05374055513492],[3.074492199997738,50.04529954091121],[3.014439323479967,50.059152788811005],[2.9787858100327975,50.04636219278302],[2.9444810700691098,50.05347379150127],[2.917155076234358,50.035710799347],[2.87653264314694,50.04217932424792],[2.857843650412817,50.07739311900277],[2.807546851114983,50.062415585560984],[2.7889640682343506,50.045311213953525],[2.763122932751498,50.03863557102141],[2.742546612593098,50.04823137136034],[2.781835790362261,50.09110348945762],[2.7633488151068777,50.10996516360832],[2.729579928321446,50.125953038257606],[2.6918325946042887,50.09172778717194],[2.633413606035314,50.100835661500284],[2.620114035740686,50.1111233231505],[2.5760198137336725,50.11341281005766],[2.579246199237998,50.128556557952706],[2.557055359846941,50.14204829791205],[2.53247243497901,50.11502396682772],[2.514949343300702,50.140811614698116],[2.481495194281265,50.13816938510139],[2.4501350913608073,50.12440021874914],[2.4296578345647766,50.0881849283962],[2.4145079258525888,50.10064240686793],[2.375459692531332,50.109251478562726],[2.3923866280005646,50.14534070022987],[2.3897770566865675,50.155484821444404],[2.4148458534849215,50.17310955154985],[2.4511824235732345,50.17870118824561],[2.4956903275727766,50.19456202411803],[2.4852044166964613,50.20779089755312],[2.4524037722545233,50.22617450808976],[2.4054762905102116,50.234029470791484],[2.3814020747034625,50.22558671136131],[2.370204907638782,50.20977035832257],[2.3404952021137726,50.2293253960828],[2.3012047633367585,50.212864087760096],[2.269796498169412,50.22880955959933],[2.2458060345105704,50.211701863441725],[2.2173374639794026,50.21748679591506],[2.17414784189994,50.20889796150714],[2.1602439796705144,50.195073090929476],[2.122580060921799,50.21070523924823],[2.0857138282832497,50.20100753303517],[2.0561495866960637,50.25515840313268],[2.026446120500165,50.269546075893764],[2.0032288628275974,50.27038408348767],[1.9364041762807813,50.30146908295568],[1.9587947410604334,50.31226469090631],[1.9381301712408916,50.33010048991117],[1.9180007470953697,50.31177877534881],[1.8759231954314028,50.32174642503478],[1.8725624158329885,50.332203345380606],[1.8313070764668689,50.345521376961486],[1.8051005697505793,50.35956479028979],[1.7787842601942672,50.361866180722075],[1.739453874214164,50.35457494026503],[1.6707155098465678,50.33101039989745],[1.6415439209955993,50.35215320244089],[1.6252340548486761,50.37183439351513],[1.5794678479116167,50.37921781617639],[1.555658414115049,50.39768062437081],[1.5699664459670746,50.444481375243384],[1.5774237782704903,50.51653279341479],[1.5854134517805314,50.537352456779296],[1.6192903917994448,50.53527496629917],[1.581273860269884,50.56277234419219],[1.5766093094233622,50.57222508465235],[1.5754702574635382,50.64376921433218],[1.5607115203796038,50.69967640419991],[1.5940631007212405,50.73490631352115],[1.6044002891055364,50.76283351023702],[1.6054977030902289,50.79303342273639],[1.577946150441329,50.85333565117015],[1.5835458071046016,50.87182012003101],[1.6421019989787113,50.87886833813072],[1.6673428270137456,50.89226662456871],[1.692541394498637,50.91537531133391],[1.7288531641107558,50.93789161557745],[1.7807165493326218,50.95487029863247],[1.8323650766395754,50.963096204871015],[1.8711615477136776,50.97493483409628],[1.8896911321764678,50.97231089361649],[1.915776261224723,50.9840846407249],[2.0454058015250167,50.998317962768176],[2.067712027611001,51.00650515466528]],[[3.0403984136982025,50.159705108437066],[3.0038853511528694,50.15024647820991],[2.9993155954143598,50.11885065997644],[3.0272922183841873,50.118551266105456],[3.037036047993321,50.130313345175814],[3.0727880608848768,50.131186438720206],[3.0681434935957395,50.14734495422104],[3.0939135240338187,50.1622262487789],[3.063005335119136,50.17367767246187],[3.0403984136982025,50.159705108437066]]]}}