{"type":"Feature","properties":{"code":"19","nom":"Corrèze"},"geometry":{"type":"Polygon","coordinates":[[[1.898730779182943,45.69827755120411],[1.915517948219608,45.71125548778204],[1.9417142236595262,45.711351415159655],[1.9565786180296985,45.7247553300422],[1.988528308650944,45.72135422054224],[2.0015199455968986,45.7487930104446],[2.0356658672821046,45.75505181598863],[2.0839036779216125,45.7460341651736],[2.1135454727593443,45.72477506502512],[2.1338092129271105,45.735432891151106],[2.1609119774740395,45.73583595403904],[2.182986086625649,45.72061691902859],[2.202325950043259,45.71857614165799],[2.1939584682323856,45.69904710388085],[2.271074402972525,45.69164773075567],[2.2733519532781403,45.664007418292094],[2.3059428488736584,45.674659005456235],[2.3209438982497623,45.668590909995366],[2.3401720745484034,45.682564129551814],[2.351695193492091,45.71006973438515],[2.410248662063398,45.709634900959585],[2.4358558482207813,45.69927506144423],[2.4921255582417543,45.73767009540705],[2.5210064489111423,45.70681016156742],[2.526510829142244,45.68539249032416],[2.5125929116065997,45.6697634761611],[2.5249409687054394,45.65723626708714],[2.517544011548676,45.639591069896426],[2.483386743242332,45.639304413699904],[2.4784319627002147,45.60790817567205],[2.4639202998517407,45.594746716951256],[2.490928563504916,45.5603922863538],[2.516332317304299,45.55342661392312],[2.516808004227086,45.52382961392976],[2.508408697113082,45.47849879874483],[2.5067704454060635,45.46406590539498],[2.487538059249189,45.41816337489308],[2.525650073736618,45.394585673379005],[2.5233092448704975,45.384373430857245],[2.485765402150312,45.37894867689509],[2.4463304633628185,45.38326310881528],[2.422673701160617,45.397227168836935],[2.3982932489236073,45.40016956610219],[2.378246243484016,45.414305790766434],[2.354551202894122,45.40140299938709],[2.3693560338624287,45.38650326050192],[2.3647879506791765,45.35792327432974],[2.3513449070267884,45.348607328275094],[2.350492100523935,45.32756729305109],[2.3177410847351756,45.32296013589262],[2.287418644336649,45.28656307930596],[2.268987098125343,45.2893886939803],[2.2585645529210967,45.270221039449574],[2.2387798021685046,45.260353986844294],[2.204634111796817,45.22819449662118],[2.1901243496543654,45.20505624696943],[2.207977370989871,45.1587474845356],[2.207633764509611,45.14349133970101],[2.18170890180253,45.13265183027654],[2.1880924247036915,45.117940072442366],[2.1717556853734434,45.08149587397562],[2.140183835372406,45.08652439641992],[2.09515947189117,45.056029885039536],[2.116811790903016,45.02111348728891],[2.140647790386873,45.005857628345254],[2.1329789677394575,44.98552052019744],[2.0938020877139607,44.98529837433936],[2.0629142919730623,44.9765064055156],[2.045437777493513,44.98366934976922],[1.9816624813968071,44.97286584256669],[1.9407191588474306,44.95514088145865],[1.9390707704475676,44.9732241453493],[1.9081561620078975,44.97842677184467],[1.8862717368855733,44.95606762209103],[1.8311741137699509,44.945489022453565],[1.8239145263410468,44.92768244845694],[1.787069584525844,44.93223900793819],[1.7746083879446204,44.92353891590074],[1.753916747572787,44.94094903140229],[1.7506251087427585,44.95495947953577],[1.711027619735059,44.967294403504056],[1.7026624491356241,44.98782737758246],[1.671411146688222,45.00429795565169],[1.6509837683346409,45.02501608647879],[1.6260183242774706,45.03386004522471],[1.5763138744588663,45.04070102069764],[1.5520395032539256,45.028473972211486],[1.540647783113957,45.04603881243799],[1.4837421057409195,45.03086980932878],[1.4763205638048942,45.01844899314434],[1.4482615439322117,45.01931315867405],[1.3998064471929033,45.06159332248495],[1.4063598793620342,45.069297115006954],[1.3864424774272137,45.102881378523996],[1.4094740420968277,45.11264145564816],[1.4128982767653495,45.12508229172991],[1.3852045692932187,45.13561794853778],[1.3521193591746319,45.13399031293482],[1.3173936647057205,45.1421087376802],[1.2899337103990007,45.14204241946589],[1.2547674981005628,45.15931225123928],[1.2853426192045976,45.17595247253618],[1.292124890237363,45.18651272307218],[1.2741303261002948,45.200069727068225],[1.2322937564526977,45.197704072069364],[1.2336078544796087,45.2221954421389],[1.2745146719905638,45.23791148068256],[1.2744827002548649,45.257076684850865],[1.2545821687088141,45.254867349405984],[1.2271194403372112,45.271979970998935],[1.2415605436420754,45.30063281308439],[1.235803372736093,45.3220410364473],[1.2726101443911217,45.32822630817563],[1.2891042257150067,45.35407630580714],[1.3157869427441322,45.360911470391635],[1.32391737940144,45.37898344779817],[1.2959441431554541,45.39478234683706],[1.2797966098842408,45.38451121421732],[1.2596039598397974,45.39834890279047],[1.2886523745642784,45.426113502905665],[1.2531518386328937,45.44421907802482],[1.2645252348468465,45.45409594836666],[1.27034342793137,45.4776755159118],[1.3103931233740413,45.483041180557144],[1.3511118587508797,45.470001773336946],[1.37157178520687,45.49211445485024],[1.3896000810911788,45.4961572819304],[1.4120586564349766,45.52809003445668],[1.450268846192153,45.530397969675526],[1.4551417227717747,45.55328740957993],[1.4806927011525084,45.565857439236126],[1.506276371554196,45.55097960357961],[1.5220914137932038,45.56409475254406],[1.5571958047036878,45.54936632471629],[1.584891438656278,45.556076867663364],[1.5938310699115545,45.5771464332939],[1.624885337381578,45.57793581971724],[1.6581804847733144,45.595323545490324],[1.660196676810575,45.60797409516256],[1.7047914479153132,45.63738765111646],[1.748060654562327,45.64570341986574],[1.7763991218328075,45.65846116946758],[1.7858344815104692,45.68266308806586],[1.8264346802695488,45.66513576315906],[1.8751322671973147,45.664894260838736],[1.8799625935579851,45.678180842698936],[1.904291004939969,45.67774470255675],[1.898730779182943,45.69827755120411]]]}}