{"type":"Feature","properties":{"code":"68","nom":"Haut-Rhin"},"geometry":{"type":"Polygon","coordinates":[[[7.198281537029947,48.31046786102034],[7.241733352395135,48.302429901416254],[7.275183721811301,48.30523478704946],[7.312654881787611,48.26854265756791],[7.324540354627305,48.245301227144324],[7.3502585424914155,48.24763679309355],[7.397985372184995,48.23250486975424],[7.408909688142275,48.224103980885616],[7.44466546317087,48.21741894982423],[7.476943375699939,48.20353668428324],[7.4675859539752825,48.16899525405458],[7.477457496315403,48.15656192531237],[7.5125346837248,48.15232225264574],[7.519368638022094,48.12611186663136],[7.577312855212316,48.12036852180279],[7.579959302676986,48.1060241628568],[7.569229918944941,48.08140103227969],[7.571623278915894,48.03037963253785],[7.605442849614272,48.00375666733687],[7.622090012011825,47.972273158282675],[7.583289971638735,47.93111867339603],[7.583517659704031,47.90164054665845],[7.556704620769357,47.87994110574265],[7.563546061062802,47.85213451656705],[7.531259755609871,47.786758092739966],[7.5322376356790635,47.768103948729824],[7.548078387714247,47.73958664484275],[7.543471717716171,47.7219511962019],[7.513752001020271,47.70281805790175],[7.522345790100707,47.662321489849276],[7.566467478798788,47.63289794133456],[7.592166196122287,47.595364230897054],[7.5847059048213925,47.57726432341283],[7.506109699820528,47.5443371916087],[7.5252484411100795,47.5198644991559],[7.507326934833388,47.5152130072166],[7.506753671499357,47.49563386052678],[7.486855374527259,47.48173332111362],[7.434560148747173,47.497929056791456],[7.422690550181342,47.484388198189606],[7.4501432999503265,47.47529024914208],[7.420293972815237,47.44542252005264],[7.380947797110134,47.431864331193985],[7.337556330611329,47.44091115313276],[7.281541911285926,47.43421552862775],[7.2462970616937685,47.4222020998741],[7.232812984772371,47.43881243982562],[7.206682632158959,47.43482071398383],[7.170823146393291,47.444351795572196],[7.18658232857427,47.491228297146144],[7.158949175727589,47.49075866687029],[7.130345969302944,47.50302658239207],[7.135819374783416,47.53646303183533],[7.106219108143236,47.55138203283421],[7.086270201422721,47.592562199657216],[7.064719544691056,47.60105755104757],[7.025415883306456,47.59267760605909],[7.004983231421509,47.61938273174142],[7.018871382727326,47.65067487496959],[7.046314752908177,47.67150171047833],[7.026487154962489,47.70099973832609],[7.0374240128839105,47.72163936009252],[7.011758808530528,47.741727719619604],[6.971172049261423,47.75268332188395],[6.940432511420332,47.77156566113129],[6.924003092082664,47.77046856849051],[6.862439977221479,47.786366479297826],[6.848453009671943,47.80186631777955],[6.846179818400714,47.822945196999186],[6.897600863366078,47.8375646687869],[6.920047718110646,47.85028746971086],[6.900213335139267,47.891191372710956],[6.927825935367718,47.90821058120768],[6.920755573390488,47.942921686407516],[6.943356419805964,47.99795794686154],[6.961410552710714,48.000261282588426],[7.001883743858899,48.0223990958155],[7.029803015827174,48.07190490436478],[7.047595780380201,48.08006166786818],[7.084162370831343,48.12921286268667],[7.058017510455936,48.13770265802238],[7.085332018879333,48.18087313160711],[7.117505784718491,48.207992451661525],[7.147824517541642,48.263892801246804],[7.159489565642163,48.268753563588],[7.172440378133587,48.29748024360684],[7.198281537029947,48.31046786102034]]]}}