{"type":"Feature","properties":{"code":"60","nom":"Oise"},"geometry":{"type":"Polygon","coordinates":[[[1.7838370588623413,49.75830750106765],[1.8089798932395025,49.754332476868704],[1.836736935686628,49.74011542093402],[1.838108169073818,49.708425628485685],[1.8938643249004963,49.69898823076106],[1.9332098221662726,49.719629963489474],[1.988919892649775,49.709402970462676],[2.0267681801791118,49.711310876188165],[2.05989780108139,49.6948752492932],[2.103494780498011,49.694736883916796],[2.1214097069260887,49.68807409174484],[2.156484137758264,49.70211563032466],[2.21756318128915,49.70246959323254],[2.2850923978754705,49.689388245191964],[2.3157256235726433,49.689753026308125],[2.337642942746636,49.66900004753446],[2.3708606973518425,49.65635328949203],[2.409702695719323,49.66099609376744],[2.4456566302700073,49.65297898416902],[2.4781226406322063,49.620790233933015],[2.506120221148308,49.63500671034503],[2.526732085722268,49.62940041323432],[2.571493337841171,49.59708062701416],[2.5970251802580453,49.61168115170793],[2.62379591221486,49.61023030743844],[2.6299442784590084,49.58032399470266],[2.649628562594336,49.5717641083625],[2.670723151725744,49.58141197178741],[2.671248956542555,49.59858674592385],[2.687556334287926,49.62475309433038],[2.7395572131560577,49.626924487224116],[2.7709877504026585,49.61435313605804],[2.7980938007575653,49.61811251953584],[2.7897685778094523,49.638092566661996],[2.8007055089354633,49.661447402253124],[2.843350258918428,49.65852651008911],[2.857260670232296,49.68366758301244],[2.915712813038834,49.70267238896688],[2.9495143470656977,49.69065965176808],[2.989594629116647,49.70802042057901],[3.026158602863713,49.680298029261905],[3.0629504716788527,49.71256910166192],[3.1184031553047866,49.705968560150744],[3.115636640843051,49.66498825414465],[3.09777622468101,49.65668309123162],[3.1127661529868123,49.63132972837916],[3.093575310755229,49.622548596683885],[3.1220112456372937,49.60374206640511],[3.139814891208892,49.57623313724928],[3.126982208375892,49.573038994477],[3.1314803354793224,49.54337765179183],[3.121165955043159,49.520974573583764],[3.096325086537241,49.51789625444081],[3.1212810029381983,49.493670908120365],[3.1070854783285102,49.46823138703083],[3.1605832452848968,49.451589762665364],[3.1626441754771344,49.440639681268124],[3.131884455784113,49.43177892295364],[3.1005059556280803,49.439314058331185],[3.0925346575940007,49.37534154439133],[3.076780341252717,49.371262738908456],[3.0747246045970944,49.34897187029861],[3.042914962956999,49.333571302660516],[3.001513216421808,49.34001503161223],[2.964603145483289,49.32192389525919],[2.981004000749905,49.29790832703466],[3.0351669019132688,49.2871713469825],[3.025849635470415,49.25992627182155],[3.0397940574425517,49.22840404055804],[3.023604722971875,49.21655041441553],[3.0027869375627287,49.23569244874083],[2.958587991995842,49.226138012652044],[2.970646337718828,49.21429263146397],[2.967751163640478,49.19164549413419],[3.00241402574711,49.187810905489094],[3.0004940244510117,49.21363093492948],[3.0499603800932262,49.20875690532957],[3.057604302772935,49.19731791616205],[3.1027108891029056,49.19726093786907],[3.116850461379955,49.18929161278119],[3.1213530433372445,49.1615694736916],[3.1396578896700365,49.15257695363476],[3.0943242330142073,49.14204789992474],[3.0924779533731277,49.12879682562634],[3.071884293834167,49.117554218816146],[3.0483639955943445,49.086321770811566],[3.0085155429257675,49.09151015780461],[2.974612129302612,49.07483790651457],[2.9015078805206906,49.08537404257291],[2.8949540105299616,49.077060509386286],[2.8560893422319023,49.07003394285967],[2.845152480122472,49.0846582975852],[2.7918669791571764,49.090224385649144],[2.7870683167938073,49.075272380356054],[2.753551034147009,49.06074104171223],[2.7067286108537023,49.06571610231719],[2.673154178752123,49.090859401094306],[2.633272965218076,49.10837621896302],[2.5905242793946224,49.079654846732424],[2.5581713639343153,49.09838623642425],[2.4899309091229616,49.10636117791936],[2.5032579551258722,49.11758406300134],[2.471584849664169,49.13543134509872],[2.4131026213629148,49.152351151856486],[2.3912888696248515,49.14934773205012],[2.3462570508145517,49.161815824563625],[2.3109290446865427,49.18640655833579],[2.2864129770481765,49.15992057659305],[2.252488213818398,49.15288152246086],[2.218650036331584,49.180682600571025],[2.1819500283812623,49.17367773782481],[2.1327389034606554,49.191378260554046],[2.0968812642737786,49.18975715797898],[2.0749104023995684,49.20868708172066],[2.0006083248213287,49.175708039448175],[1.973760882151743,49.18378113635129],[1.9607171449401366,49.173518197205695],[1.9314802344723212,49.17417045483985],[1.8852389528169067,49.16263786454188],[1.877040859056052,49.17144524902654],[1.845548847714221,49.169897638882595],[1.7954686863275515,49.18525912523885],[1.755165127607803,49.17454501384096],[1.7421373979981678,49.18015527802457],[1.7341091564710822,49.221278789282294],[1.7043642065965865,49.232201775163404],[1.7104793339744566,49.26446416218004],[1.7345063044967537,49.26899820204799],[1.7643521273092135,49.2630859414422],[1.7895325987859003,49.247868037421206],[1.8026808722972285,49.271950623613535],[1.7757705439300602,49.29951534986682],[1.7679448109268296,49.31982583692622],[1.7741379719748898,49.33469565160132],[1.759340781875861,49.368238985112555],[1.7203156024953805,49.39482842844473],[1.7139375433100608,49.409224988863485],[1.7229968419974309,49.43391580233039],[1.7474339115753832,49.45944834208184],[1.775862453037976,49.47132557760213],[1.7741127542848931,49.48629204874629],[1.7902240900460897,49.50346919449449],[1.7718644061411502,49.51284827349518],[1.7508109914810421,49.4953034048916],[1.7192326604453187,49.50822302010686],[1.7478873461630975,49.537734307389876],[1.7271846205611596,49.54162647589022],[1.7298338150528105,49.56129313430964],[1.7147813730167585,49.576405140938526],[1.7057508157515966,49.60621127470416],[1.7216075786347382,49.62199032398025],[1.7088335612864556,49.64638148474686],[1.7252046142437358,49.67263435960493],[1.7521846819353237,49.680957188725905],[1.7339504969080488,49.69920938045457],[1.7045143422610263,49.68092631423977],[1.6895758821118119,49.694785646260954],[1.7154681056064667,49.70860435289633],[1.7196883349196141,49.730467625863746],[1.7454557068129848,49.73856265789178],[1.7416263242274626,49.751633772466256],[1.7838370588623413,49.75830750106765]]]}}