{"type":"Feature","properties":{"code":"04","nom":"Alpes-de-Haute-Provence"},"geometry":{"type":"Polygon","coordinates":[[[5.676037325543462,44.19143313185896],[5.692087450380134,44.186483371831564],[5.713913055297651,44.19926568716529],[5.755494196596879,44.210207765237854],[5.776514541341646,44.2055259364244],[5.795385785142977,44.21345893688929],[5.8285720679377535,44.20066569733914],[5.909305399486612,44.19046630820442],[5.9147400564445745,44.203427232845094],[5.881793583616446,44.210998662542806],[5.860019043661206,44.245092101540315],[5.826655362130932,44.26251076006967],[5.823911889045941,44.27890195531252],[5.848477759938248,44.30072259452234],[5.877120986906842,44.28879843672459],[5.880129754573656,44.271011382120214],[5.913194557888511,44.248711120610594],[5.912998227051449,44.26831617376552],[5.9255909605950015,44.30855111867347],[5.896099604509158,44.31861879667804],[5.937356413024749,44.35935610859397],[5.9536703829504924,44.395059266699214],[5.977799438785809,44.40736292380458],[6.020374443332653,44.42005811336259],[6.026308275440297,44.434642097388625],[6.072442979890107,44.45207608038503],[6.079694848017664,44.475530907704965],[6.1160166804432015,44.47546505487432],[6.155615049010709,44.46195982298558],[6.156254785052348,44.44210331855112],[6.173565741653668,44.43954286595121],[6.228221718294849,44.381700391997015],[6.241680881439521,44.38485438747808],[6.262494510552066,44.41224966674437],[6.236135472030146,44.46144449835514],[6.262825636989673,44.46549564526641],[6.293492428153158,44.48092732291776],[6.323106052174982,44.46382948496176],[6.33862266220802,44.47283907420384],[6.348272978050237,44.49809023202587],[6.332395681132657,44.50999616152816],[6.3573108201414845,44.52263889176314],[6.39880869108101,44.4941562144314],[6.411180249066938,44.47096856265119],[6.433358303001146,44.472514470120075],[6.462013547991893,44.46247217356771],[6.4693180033119155,44.45131246990398],[6.533276938209056,44.45197395122282],[6.547366766497952,44.44676331416215],[6.63229969332171,44.44691502790709],[6.643650285023153,44.487759305292435],[6.6684970592870565,44.500299753706706],[6.680922896471837,44.54102548605375],[6.701153206618136,44.538996840218914],[6.737180942222513,44.55253559808428],[6.766943196052187,44.586952404898014],[6.799941325461042,44.604244109554145],[6.853900769395612,44.61475859917988],[6.85814264425923,44.62805845533632],[6.880124364018876,44.62999271969987],[6.914488202179287,44.65949945810214],[6.948335091404861,44.65481629914676],[6.962336081450481,44.62657915489668],[6.948379982167533,44.61745199059853],[6.932733186254122,44.59270863771759],[6.9319953299582595,44.572724638567955],[6.913213082531437,44.558826349687266],[6.8760332305264455,44.550160873365996],[6.854013487274841,44.529129653944196],[6.865674424523799,44.4950039431701],[6.881970580210891,44.477261501575526],[6.906339114831614,44.46684649800382],[6.911101127447187,44.45236482780562],[6.937139400716047,44.43887286300481],[6.937079169120725,44.42969968048132],[6.892869620487909,44.42078067903776],[6.896507825430464,44.374299547914674],[6.88742990090296,44.36104783803612],[6.856147812069906,44.342952907783264],[6.839688603111202,44.34616952567193],[6.811873213958045,44.33221347515919],[6.796090992510113,44.3161057075123],[6.7863504827742736,44.28849643698575],[6.762927060646822,44.279037241415196],[6.759092155836728,44.26206489740905],[6.724182328511966,44.249467455280936],[6.718344217584288,44.21071074917548],[6.686536427072904,44.16925393086098],[6.705499890845224,44.144466155776314],[6.707586373017441,44.124473345545944],[6.736610415319581,44.10225823836325],[6.7552927685949316,44.078606159081765],[6.74580308295055,44.04269169406513],[6.795850869439254,44.00702405029123],[6.838726887709297,43.98970431437945],[6.849124623100394,43.95555833887359],[6.875468351966293,43.95281563358485],[6.884040903481558,43.93530101735706],[6.913088787529998,43.92796536503886],[6.941753698705185,43.89697361215048],[6.884610185550847,43.88912075689405],[6.876620003660876,43.89859537972932],[6.830709312232406,43.91836301148648],[6.804290312432095,43.910790628356104],[6.781621637708193,43.883549262987735],[6.748392415086803,43.87167747871268],[6.697323345466608,43.87365480225297],[6.698718605090542,43.85521098299028],[6.677914955878909,43.850959763474634],[6.667938865272228,43.83092697652154],[6.703701880641647,43.822825820470534],[6.70606421451232,43.80841245654836],[6.641524167665496,43.795472444882115],[6.636395800176684,43.788950567095455],[6.619973007874097,43.80550530861199],[6.585317018818273,43.80050767551297],[6.558904687579015,43.7841955441722],[6.52476198332243,43.80636597788804],[6.482076253327453,43.791074426311035],[6.4388083985564,43.797745193516654],[6.4144280526034985,43.79159445843418],[6.413483066219063,43.760360418472196],[6.3835404106739695,43.73442775895217],[6.356960735074889,43.73636766488724],[6.3267516313932,43.74662594026461],[6.262893011516566,43.781882078680276],[6.254215459954332,43.800433718328094],[6.212407106246491,43.79839605677458],[6.188517764066482,43.776267312514086],[6.182886008281907,43.76217559136371],[6.140796857826169,43.73769553098114],[6.1036091865345306,43.73722227951302],[6.077305911948532,43.70817081210753],[6.036131813943926,43.69416334085516],[6.039033980651841,43.67892716093395],[6.021735021476141,43.66827944245308],[6.005007067617743,43.68778786403108],[5.987939406703312,43.69505659267458],[5.98543773624429,43.71396312876724],[5.9564454360651595,43.719401124766904],[5.937998300025333,43.73057120981495],[5.937716232260396,43.75023611335413],[5.903517180339531,43.751432620885154],[5.901533390582641,43.73289106389851],[5.849146371217722,43.72025525749223],[5.8278752703448715,43.748065843473604],[5.781343238677484,43.75565738832376],[5.757332977582704,43.72940911375532],[5.7491639540055255,43.7405464918297],[5.7184242970991175,43.75512132052309],[5.713394551246806,43.77950341891952],[5.684551176087874,43.78850163078797],[5.674483353980397,43.807360446333846],[5.654445137414141,43.82511098585937],[5.627700103254839,43.830927143331614],[5.574599751241474,43.83029407148107],[5.54452228126406,43.81819693654997],[5.549174903324726,43.8514199844283],[5.573186434978607,43.86492031403171],[5.6064371876892,43.91613043943877],[5.579927197959687,43.925980406162694],[5.558844627129812,43.942576073587574],[5.544991957929805,43.93905484015686],[5.51208954255573,43.94600228564646],[5.508647939314863,43.959839793825395],[5.518062394104204,43.99011201336662],[5.543633878090188,44.02596177811475],[5.544598165016952,44.06989191567907],[5.5026367853279545,44.06343920865494],[5.498787806458752,44.11571934778835],[5.540435810430644,44.13221365213216],[5.551327343869811,44.14979115926589],[5.582976621063447,44.15762325973775],[5.564374392120529,44.17090170649433],[5.576187167563138,44.18804165094906],[5.609572963808623,44.18817112634557],[5.63959354437225,44.16758605191366],[5.6316731817286305,44.15136802990124],[5.67860502821166,44.14608869344783],[5.68271535182101,44.16321640945639],[5.646965152793732,44.166291647187435],[5.651592585237082,44.18957707724826],[5.676037325543462,44.19143313185896]]]}}