{"type":"Feature","properties":{"code":"17","nom":"Charente-Maritime"},"geometry":{"type":"MultiPolygon","coordinates":[[[[-1.480898348211929,46.2100267884653],[-1.452799954013917,46.22858353814146],[-1.4248278365736362,46.230280238461035],[-1.4292326256174668,46.20585656630679],[-1.4042027932626455,46.203131886247114],[-1.3638933239111162,46.207474144095954],[-1.3213499204648875,46.18719464428664],[-1.291072648374255,46.18623232562308],[-1.2742372605064982,46.16016465893632],[-1.2761642167791498,46.147268374273345],[-1.304766457841924,46.142877408591225],[-1.3549590855946718,46.15588808122244],[-1.3915343175644146,46.17716118562189],[-1.4615984066336871,46.20211883930828],[-1.505921143547151,46.19409180605493],[-1.5323803406624759,46.20228421663419],[-1.5614104742796462,46.23718363975149],[-1.512781433271758,46.25812876418649],[-1.4893987036886658,46.25333602134092],[-1.4745470314360585,46.233258264796085],[-1.51271490129458,46.2223238746143],[-1.480898348211929,46.2100267884653]]],[[[-1.129404177492153,46.31027691915601],[-1.0807261526640515,46.32142762319264],[-1.0525280096214227,46.34254164468142],[-1.013807240115001,46.35562475996166],[-0.9774473324091834,46.35111139719007],[-0.9645133582944424,46.3654018117805],[-0.9318397064952478,46.3658034260157],[-0.9441603850496662,46.33604884873509],[-0.9617714534617725,46.323112713720874],[-0.9348886609093259,46.31285600461673],[-0.9047974021645193,46.31381080962026],[-0.8876799965820683,46.32632425572865],[-0.8509360179567931,46.31718679438478],[-0.839878203866059,46.340369117324364],[-0.8090890487729437,46.33843674064563],[-0.8024766924625577,46.325152925140934],[-0.7504755422947275,46.30425879436195],[-0.7498018188117581,46.28684613695955],[-0.7358896726556473,46.26687597846039],[-0.751461997484196,46.24507022173624],[-0.690715475013079,46.2192025056982],[-0.6848825769982527,46.2004519742498],[-0.6553901462423457,46.16995289669758],[-0.6284055467115421,46.16098350805028],[-0.6199574101252711,46.137752754570535],[-0.5469968076890201,46.14422952781575],[-0.5331548006606286,46.139721552287604],[-0.49096917294552705,46.10827096658701],[-0.42250549768348417,46.093907520969715],[-0.4014506800441788,46.08424772978497],[-0.3719662136104232,46.09346535716146],[-0.36273280893098575,46.07554208376435],[-0.331053750782718,46.08255183868407],[-0.28173430941987637,46.07975377766763],[-0.2730277009301873,46.05731156087075],[-0.2129646707291253,46.04409636271024],[-0.19462930058574468,46.044380369324465],[-0.18913173505260444,46.026141171108804],[-0.1614029897771452,46.034632694780214],[-0.16338440604219345,46.010154472823466],[-0.13816141787435107,45.99651797265895],[-0.13686284675087984,45.97896246180592],[-0.10293687953014707,45.969659985237946],[-0.08645413551898633,45.9499872925985],[-0.09830097999956097,45.935064274902494],[-0.1511348530364158,45.92662031190935],[-0.14718187106945502,45.899027240817475],[-0.1309530378458796,45.891006636407646],[-0.12195942560335456,45.84980039051254],[-0.14022309999885124,45.836487921992216],[-0.13587796182859485,45.819927442683884],[-0.15385968642880263,45.798527391499896],[-0.1910086919293196,45.78989453197688],[-0.2217452863431161,45.77574564408542],[-0.23872379555383658,45.803035801655675],[-0.28882255929425316,45.80646253937032],[-0.321290979962916,45.784502531866984],[-0.36589154278993163,45.78031423872061],[-0.40039322122148663,45.78667015344287],[-0.40217992031623706,45.77301526864364],[-0.427307558287169,45.76407021646179],[-0.44933397454634766,45.766003399915384],[-0.4600101800616985,45.73927564322733],[-0.41583863552489936,45.74166865754332],[-0.42212116254330756,45.709462720761486],[-0.41054144795526276,45.683378056997135],[-0.3825326157519499,45.65979752940899],[-0.40948414912562175,45.655586235131814],[-0.4319955290656746,45.62459912844279],[-0.41648688699637426,45.6172478354152],[-0.3888323806150822,45.62624147062642],[-0.3759196531282934,45.60891920266452],[-0.3076248492964586,45.57358242489813],[-0.29701667106996404,45.56395328480815],[-0.31837852151865353,45.53478119461178],[-0.2661516568578383,45.52506493490806],[-0.2581005042557833,45.487311820539006],[-0.274151582312151,45.45858172430254],[-0.24726501108038862,45.43547210812303],[-0.2497593835924429,45.40874172938639],[-0.2781611552168728,45.39872175654272],[-0.3098053879026185,45.37371901040736],[-0.2710919492630416,45.35814803088122],[-0.2482719674169436,45.35898378387085],[-0.2502965305794111,45.34134241625847],[-0.27790666612822756,45.34775584650338],[-0.2887417673079189,45.32910703740514],[-0.27347921783680357,45.30225684007141],[-0.2304752800698138,45.31446591115923],[-0.19638538280111967,45.30512678463863],[-0.16425879921098446,45.30698659601025],[-0.13794822595131936,45.29287694608038],[-0.1087860702850694,45.28895157818026],[-0.10906395793417734,45.247266549806895],[-0.04010907570871097,45.24667707840673],[-0.03627702144250208,45.23721166979442],[0.006062958572826905,45.22015279177819],[0.004330746876933936,45.191632555616],[-0.017366400658601018,45.16986388363175],[0.004720897151709058,45.153735338120526],[-0.03705116480547907,45.139026589692236],[-0.029231978204044492,45.129832110551455],[-0.04020033978963981,45.102384335963414],[-0.06357364725413155,45.09914913207582],[-0.0877028308704419,45.121388836286684],[-0.11493018897120878,45.11390010810251],[-0.13063644905467223,45.096672426969135],[-0.15295329411286412,45.08880721589072],[-0.18919958385014424,45.094461907846785],[-0.21824686420972253,45.10643197473333],[-0.246841022219567,45.108630449000074],[-0.2753589385784497,45.14140091335047],[-0.32063912086288726,45.156166213658715],[-0.3383605974453927,45.16688438562319],[-0.36355979846534786,45.17026408300375],[-0.3797037928837214,45.155347363684704],[-0.3971235767306027,45.1703375875983],[-0.4028499593466693,45.19049531934403],[-0.42076715723359287,45.20853163878696],[-0.40842823644582854,45.247807627855394],[-0.41542471256519675,45.269332661912166],[-0.4405443881756486,45.283811947310674],[-0.4862106750078733,45.293564321887025],[-0.5135928628951079,45.286334723467014],[-0.5706388485277301,45.299823114254885],[-0.5689666025873613,45.331523297246314],[-0.5944806728104985,45.32114282458838],[-0.6443063251392437,45.322045380590644],[-0.7188015186962935,45.327417794908314],[-0.7343347321102192,45.36884494436805],[-0.7562352245467074,45.40604611670738],[-0.80169109465095,45.45953126528613],[-0.8475465516286703,45.498824518200884],[-0.932316123312143,45.54789787336011],[-0.9628798253628926,45.556849245805736],[-0.9930029744215878,45.577177846519746],[-0.9936529509869637,45.59759467612667],[-1.0096306936697144,45.61143397047428],[-1.048858991717686,45.62029782357388],[-1.0793992219196582,45.63891363152395],[-1.115849451052298,45.64698132790749],[-1.1572864520673638,45.67180600119212],[-1.2093191311554552,45.69669910148998],[-1.2372284214926077,45.705896325440406],[-1.242573859956351,45.78157155553533],[-1.2089596448071276,45.79575377598853],[-1.1919992992402317,45.789369778069705],[-1.1320926009958303,45.80492633100206],[-1.1567411951530595,45.843048006693174],[-1.1531897443954855,45.862358720066815],[-1.12508329313857,45.857239254856815],[-1.1008903749589125,45.8722142424053],[-1.073790649268033,45.91423100527249],[-1.076862108697286,45.93669868392043],[-1.0643196475545222,45.94990908084704],[-1.0989490769387045,45.9905075513321],[-1.063082715866709,45.994433695794925],[-1.0526867952056995,46.01118088641005],[-1.0659492083794007,46.04982057557596],[-1.0888412421853944,46.05394710352535],[-1.1007267291374074,46.0937967969596],[-1.115052359847052,46.102322009862235],[-1.1291048559783758,46.12696926808778],[-1.172930125682221,46.139288837035025],[-1.17838828047269,46.15320939498865],[-1.2069336546191891,46.14576152143465],[-1.2238754783330186,46.16594526939377],[-1.1993266738882897,46.19432347775986],[-1.1989980101944606,46.21324548926301],[-1.1713483210745752,46.224056686747986],[-1.142844564296712,46.24398123047849],[-1.1403935362784305,46.25401646783765],[-1.1111638836886615,46.26134367831711],[-1.129404177492153,46.31027691915601]]],[[[-1.2502650081123046,45.84596775720191],[-1.2661507817954059,45.87816722390549],[-1.2933471382934498,45.899934788461366],[-1.3509508565890673,45.925039501714764],[-1.3887645184362025,45.95729909880382],[-1.3957821008857574,45.97683206273166],[-1.3870942851170687,45.99716404793514],[-1.413432285361357,46.046862918263024],[-1.372321963715323,46.03953755029626],[-1.3720837750990353,46.03215138125187],[-1.3066241810278874,45.991100878140536],[-1.2479234576289204,45.99041558337047],[-1.2360342002122477,45.98151867282109],[-1.242081784028376,45.95745770989403],[-1.2297921718619493,45.944255904034705],[-1.2337694138608575,45.92706325654276],[-1.2235753245301957,45.913106247354165],[-1.1884202462514732,45.88674852902471],[-1.2077074089433684,45.850339612800624],[-1.1956193786522455,45.82969725881441],[-1.2318524848434387,45.80176865563872],[-1.245660163728763,45.82135973906916],[-1.2502650081123046,45.84596775720191]]]]}}