{"type":"Feature","properties":{"code":"39","nom":"Jura"},"geometry":{"type":"Polygon","coordinates":[[[5.518538729512594,47.30418661945213],[5.531653812708307,47.28437396080552],[5.572097032797981,47.2684421265039],[5.574464664810694,47.25405893079992],[5.602110210787404,47.26053058449396],[5.641087079328796,47.255902139031384],[5.67598472782394,47.27574753150103],[5.698725742766405,47.264996774959506],[5.719658737830903,47.24039349857038],[5.720409103677726,47.2199367429909],[5.754029730428721,47.20619762753816],[5.7615922644946265,47.193351935732494],[5.786363077074669,47.1880831609518],[5.785253964111757,47.1730387486781],[5.811467446057154,47.16905381606456],[5.820691451026131,47.144415939401],[5.8045619988542985,47.1133407822186],[5.768548742190094,47.08943503996254],[5.784717290338706,47.054912309682756],[5.740853599399733,47.031142664947374],[5.749513452394782,47.01724338346852],[5.787650426326096,47.02060775116385],[5.810142553295952,47.04676497151418],[5.818320069354114,47.01634936206399],[5.838703245735162,47.00893073323631],[5.9110704645310355,46.99949662045942],[5.928902914958152,46.981557598992175],[5.945444530036826,46.98892069091779],[5.968560305501438,46.98044449059873],[5.979788604869103,46.963477609202336],[5.9640723607092,46.94807945340021],[5.996550634911118,46.93349025460158],[5.9826340237056,46.90845204586353],[6.011720201418477,46.88892677308902],[6.005778412779799,46.8730528372109],[6.026247153653252,46.86409173600443],[6.034013122897841,46.84959669047568],[6.065722840490433,46.85966779654168],[6.091004700025405,46.84186203649593],[6.134201093056517,46.82606829489227],[6.175722465411307,46.80024737987558],[6.206667229738774,46.766127080274636],[6.185275300570877,46.75514278256941],[6.180271003478625,46.741575238392656],[6.139950483346064,46.7252665040831],[6.11296041814117,46.707745262586364],[6.069828479910839,46.689524885344895],[6.105519201667375,46.65048282928723],[6.059172114439157,46.62611096798534],[6.048566902902156,46.60772285612786],[6.131429786217584,46.55374316497247],[6.1381085470292716,46.55766039903405],[6.1564485471743415,46.54546781327305],[6.112697563396416,46.50963869187334],[6.096828928594163,46.481206078469945],[6.073927085793577,46.46394600628466],[6.085838952286885,46.440997039522614],[6.06400848181829,46.41622698893153],[6.029516385230691,46.38681597881577],[5.983619269600146,46.36236225578993],[5.94141074779852,46.309447376328514],[5.918004636082658,46.30919342038628],[5.908938421371525,46.283951620059554],[5.894626274200642,46.286605180505944],[5.878362837898188,46.26923930243743],[5.849846074176259,46.26206360332615],[5.76565366968616,46.26829459697285],[5.725183003095842,46.26072920479395],[5.715004075499846,46.281794854191894],[5.714717731644379,46.30876884774591],[5.6845818644582415,46.31092471469043],[5.649352566100887,46.33949973060812],[5.617647005041448,46.32909642404822],[5.597401953530867,46.29717016200506],[5.566359117801653,46.29405393089148],[5.542037828826235,46.27020190870743],[5.5202584619727855,46.264154428816624],[5.4730553115738125,46.26506376332347],[5.4568376845310524,46.27447818647901],[5.475143359983399,46.314983312313444],[5.466922894957274,46.32326983579511],[5.437795113853317,46.31511297122548],[5.425824019124199,46.33893598335614],[5.401973542783007,46.33904473846451],[5.373462288620209,46.35223630468514],[5.375550503997551,46.380228055197534],[5.341420750039618,46.40179770821096],[5.298803013245869,46.41268163222961],[5.319500329420964,46.430811362520714],[5.310560613770375,46.446766420719875],[5.3233509593207256,46.462505958303325],[5.373305922688233,46.460100694018294],[5.415741925117894,46.47313865941284],[5.40775059526701,46.50005419367624],[5.384819294338149,46.51562428945251],[5.359203918767164,46.52256069453744],[5.369638182241569,46.58033249938761],[5.405690744011141,46.58167055755078],[5.417107587832548,46.61545539475532],[5.441107903009741,46.637540014709465],[5.415503039920619,46.654982421219465],[5.422089954439316,46.673031501871684],[5.395359314315539,46.68505154004584],[5.407751223773992,46.69588136597287],[5.393640625030492,46.728633357928615],[5.361096638423232,46.73098281339333],[5.366370235232235,46.75127756992356],[5.390414912053985,46.76783202725685],[5.352854015210384,46.793190147243955],[5.3329251666131325,46.796100557884984],[5.3285860378953895,46.8129521008927],[5.409821779763356,46.83254621337176],[5.4488892034635485,46.82627111311263],[5.462804105486921,46.84077447546622],[5.4592864241149215,46.855244785634916],[5.418370968481785,46.86028266347864],[5.401826175213913,46.868321923377145],[5.403416904275394,46.88995270444294],[5.390761534745653,46.89436876615946],[5.3633777404924405,46.88326000729678],[5.328705057646148,46.8902268196612],[5.306862019346935,46.92461572569682],[5.308497060036723,46.93735552157344],[5.274765609317477,46.93484664855668],[5.260170972283091,46.94558220686418],[5.255236339191406,46.97988809464049],[5.278877381251384,46.99902304373498],[5.302902725063236,47.002995600434],[5.310049747453535,47.018020896757406],[5.275326877554134,47.02693403703708],[5.2839203158010815,47.04791289990898],[5.322186205925132,47.07298220144242],[5.386025055163915,47.08197683820708],[5.410655482578915,47.11409007735421],[5.408710637565267,47.12607417258199],[5.439973300314684,47.1443971913906],[5.459209017913762,47.18344166980506],[5.447990684518002,47.19618128392872],[5.48000850446928,47.21736948822585],[5.474016456865987,47.23108930134431],[5.485950818628809,47.25097372798523],[5.488282961724511,47.28934747031664],[5.504737607495882,47.28566080102212],[5.518538729512594,47.30418661945213]]]}}