{"type":"Feature","properties":{"code":"54","nom":"Meurthe-et-Moselle"},"geometry":{"type":"Polygon","coordinates":[[[5.470910130592771,49.49720502129504],[5.541175427366362,49.51526468551874],[5.556054418170868,49.529249012712015],[5.593452750302351,49.52190879652461],[5.615929213702141,49.52712694494857],[5.636796547934622,49.54504576700591],[5.663216639729165,49.5527322793671],[5.701263034650679,49.53951786025749],[5.7325201904510275,49.544464906619325],[5.774412837219823,49.56298255279729],[5.793930405166045,49.551240203734956],[5.8369571912669995,49.54247191409379],[5.836233336445646,49.51985372493001],[5.869093663016168,49.49878274863684],[5.893401083719673,49.496909750110916],[5.9028920872339725,49.48379495708393],[5.938573949545653,49.47481323186841],[5.942282468750819,49.43034622332949],[5.91204332139632,49.40747659912329],[5.929562016978401,49.40189069409503],[5.9327717047585935,49.37015147282544],[5.956123967212049,49.36159497798842],[5.962613221125637,49.344866959890794],[5.94400804744167,49.334644506896005],[5.985220799804532,49.30517081937582],[6.006390696711231,49.3079648171488],[6.000492336268631,49.27537547287367],[6.006667263528377,49.26028809283966],[6.0286095479587445,49.24841255130629],[6.029385386695151,49.23047199221416],[5.987627297222747,49.20961691713355],[5.982834325573433,49.18651522282689],[6.002250831363206,49.185007006720355],[6.0261499402444025,49.16511893599002],[5.981384937221558,49.14445423565313],[6.00491999554859,49.113988280244584],[5.997395942366339,49.10784182738146],[5.931603285178869,49.10910433832356],[5.924683336615274,49.09212399499875],[5.9532001062961815,49.05400525300155],[6.045110478908419,49.013520358557074],[6.043435324319259,48.977477915970994],[6.081322571612109,48.96304750061741],[6.116912179457586,48.967832850981594],[6.132207146051102,48.93472094774055],[6.16233199123861,48.94287521453305],[6.177120700704927,48.934924104920626],[6.222641164054098,48.93850513094841],[6.245534632278756,48.92378375934002],[6.271977767337417,48.9331355970772],[6.288337094198781,48.9164057732219],[6.327264769799276,48.90519552048261],[6.298269555306107,48.88072376373154],[6.311714980584929,48.863826545661276],[6.2888587554276025,48.84323273382886],[6.338947107825573,48.834058199828384],[6.330651430081595,48.82330786866148],[6.370600538901966,48.78462319426055],[6.394874246018456,48.77476240981232],[6.433515038771951,48.78904238593331],[6.453603381539952,48.765894004837314],[6.489616200477496,48.765575862224765],[6.511039646542062,48.74880543901709],[6.5401903328498525,48.75385918265721],[6.564255135947671,48.74995572268137],[6.594835612692378,48.72922173177475],[6.598965570952483,48.71569079778236],[6.6236441629626235,48.713682866112556],[6.638020827883166,48.70287255743568],[6.658407329856351,48.70804728628271],[6.68791954042715,48.683627810294645],[6.733850339573668,48.663755791166636],[6.757341859177665,48.66339528935242],[6.782490229155465,48.642725006759726],[6.810500233885349,48.64743317270349],[6.836628311600907,48.643091017748844],[6.8440535368717015,48.62597500455583],[6.86360548586589,48.62031667084879],[6.905122950842201,48.61984409056823],[6.930006989091913,48.6355511656451],[6.960798228747959,48.60828605857016],[6.982896473118807,48.61187146059442],[6.994503728351811,48.59596380824709],[7.034244738955548,48.58041837913675],[7.05703294231895,48.55111677598128],[7.079359770973246,48.53641761270014],[7.064487678486664,48.52339791207404],[7.080630193411291,48.51267454477156],[7.123165369028565,48.513592265556596],[7.094019735640854,48.512952288683174],[7.050540315367024,48.49487862493578],[6.9829860045628855,48.47905957978556],[6.894133940205172,48.419480410764045],[6.866316381673087,48.43184823377053],[6.828255495843522,48.41660943907006],[6.815166528707746,48.398846200565345],[6.768836777292687,48.39954530354836],[6.760669183398023,48.411666746640414],[6.6994983396482075,48.41308754075586],[6.648289899981963,48.433884724429255],[6.62369925487009,48.473102199556955],[6.584971476704244,48.46050916362013],[6.568134528831446,48.438701194783874],[6.583870758203037,48.417225395440674],[6.5337102147419674,48.4313569295525],[6.500755073004984,48.41423379500427],[6.450365847505534,48.41505383549833],[6.422399441358526,48.40728279397748],[6.3313164158672315,48.404817172837355],[6.305674808715067,48.41318887901744],[6.3012588451180624,48.43051921403982],[6.270297573655838,48.42610067601965],[6.260443354875095,48.40640078999615],[6.23209682220264,48.400225955022414],[6.178419125638964,48.397598877997915],[6.147083853210351,48.404242546398436],[6.152354370824704,48.38097163461962],[6.116723785728533,48.35403844099854],[6.097642409054446,48.37159231795909],[6.066019115933426,48.359278767448906],[6.053418454701744,48.365636733016395],[6.025234465713196,48.356969332010294],[6.004066285882898,48.36147870334314],[5.960066474604184,48.35072931908477],[5.944654250679005,48.37581815056828],[5.954936403333502,48.387329103706854],[5.935989530326643,48.40287986588223],[5.879136424841787,48.403869307586056],[5.859177083813666,48.41623563816792],[5.8989549292934935,48.44671533650002],[5.886926216153374,48.45386839126565],[5.903569430927025,48.48024393097157],[5.8881463197842825,48.49400616317709],[5.856069666360071,48.506844385585524],[5.8141526013422045,48.49819514538156],[5.787024028409427,48.48291106954139],[5.765154701602298,48.49649260851312],[5.761049602880216,48.521683894153604],[5.776263522421036,48.54107814064725],[5.71608982178375,48.561424169817386],[5.718661477131132,48.59033867223855],[5.7647290820585555,48.60790861161145],[5.772143533804788,48.6202830387491],[5.7445806082888415,48.653070921811086],[5.744957392577322,48.67137758077308],[5.7646010210683505,48.701073717982744],[5.75271389850188,48.714164509499184],[5.719037232595988,48.73290914785586],[5.714036349479591,48.744533308856504],[5.741889978939901,48.75279715005143],[5.740251235774411,48.77265140486108],[5.767728814139585,48.79014237286009],[5.781194766587596,48.83501432221366],[5.765548217904568,48.87307300517377],[5.7910610910637805,48.88661747785826],[5.765854111109667,48.89809074303494],[5.747161790828688,48.91525787263704],[5.779494546763762,48.925543676493376],[5.800245290300757,48.94674605759089],[5.817089167952623,48.94245503424679],[5.847269852543282,48.95178377098051],[5.847464234333094,48.96231608120681],[5.80326928510364,48.98585252935934],[5.815223115374213,48.99679278215558],[5.821881378508286,49.022693614160396],[5.85417290109245,49.04241757672373],[5.808379157586719,49.075815388035736],[5.821401407633705,49.08761132685174],[5.817853206320084,49.11104150017413],[5.783813515045618,49.11260817951947],[5.771295494951546,49.10609592152142],[5.746940032204187,49.12460282697201],[5.7598104959514655,49.1500556297571],[5.744850073758657,49.156560167159334],[5.765544232834611,49.198088628043735],[5.725126551060128,49.19564550252695],[5.719044394768754,49.215986946421715],[5.7405557083585155,49.23011722139386],[5.720933295684269,49.24770674117828],[5.7307018275006305,49.269793739617505],[5.760519022687266,49.28011599684701],[5.768385347743778,49.30323265211939],[5.731786006583374,49.311343191085655],[5.721511174836554,49.331722881180944],[5.738361460568846,49.35203800497206],[5.703787894109554,49.38822577419103],[5.6873570419508095,49.39388035166439],[5.692251573142445,49.415032283683246],[5.634565984546508,49.43743606551583],[5.605732699304691,49.420038245637656],[5.570360828663015,49.42337579247067],[5.529099312496953,49.40737462726648],[5.501152367426069,49.40854921219478],[5.49401344811939,49.39033314948081],[5.465505385541393,49.39543214203441],[5.473184918539263,49.410751894615125],[5.494194442210637,49.40716409539809],[5.5082075510446815,49.42126281023766],[5.479078499230624,49.42581983768407],[5.484917984168407,49.447407925985885],[5.464077098251315,49.48166228909141],[5.470910130592771,49.49720502129504]]]}}