{"type":"Feature","properties":{"code":"71","nom":"Saône-et-Loire"},"geometry":{"type":"Polygon","coordinates":[[[4.1159670699158095,47.12333757652634],[4.153771215900621,47.11455697541982],[4.171903802407782,47.11744504627446],[4.187112897689929,47.133641259369064],[4.1819015999311935,47.15050500507014],[4.209834279044644,47.15541168354448],[4.235126114423698,47.14567232864916],[4.254511023751104,47.117244891665926],[4.2732057577392935,47.10846860042988],[4.349384584855175,47.09695260404792],[4.344250468382807,47.07243028540817],[4.401611638839053,47.08266237195949],[4.406283415170733,47.049999892555],[4.42831764695131,47.03978832160757],[4.453754603542757,47.04180317977088],[4.488156368101142,47.032053991768684],[4.5067016541013825,47.01322725598124],[4.554809047275526,47.02005452316086],[4.573661325177989,46.97338633863404],[4.589560484494725,46.9557070191566],[4.623230215613321,46.94082023678555],[4.650119701990474,46.94126696425738],[4.6790861065904545,46.93024007090235],[4.66452477880559,46.914160146408875],[4.685479824630714,46.90086027628975],[4.715721115401545,46.90691597166802],[4.728129651701318,46.91937462593793],[4.780547505930617,46.91818028344327],[4.7884658140953436,46.931872716902944],[4.893911988532932,46.951172459049864],[4.896071329118784,46.96624020620316],[4.927494382962588,46.96753853170502],[4.994466553308194,46.959149599506034],[5.0034065361874065,46.972143943970465],[5.049303736126251,46.98158693341567],[5.0762583071667144,46.95939003098176],[5.100252102348397,46.95598327083581],[5.1243390082418205,46.963720125840524],[5.166234471151257,46.963868398378764],[5.181859259011498,46.97482345386571],[5.222006075229213,46.988855497295],[5.255236339191406,46.97988809464049],[5.260170972283091,46.94558220686418],[5.274765609317477,46.93484664855668],[5.308497060036723,46.93735552157344],[5.306862019346935,46.92461572569682],[5.328705057646148,46.8902268196612],[5.3633777404924405,46.88326000729678],[5.390761534745653,46.89436876615946],[5.403416904275394,46.88995270444294],[5.401826175213913,46.868321923377145],[5.418370968481785,46.86028266347864],[5.4592864241149215,46.855244785634916],[5.462804105486921,46.84077447546622],[5.4488892034635485,46.82627111311263],[5.409821779763356,46.83254621337176],[5.3285860378953895,46.8129521008927],[5.3329251666131325,46.796100557884984],[5.352854015210384,46.793190147243955],[5.390414912053985,46.76783202725685],[5.366370235232235,46.75127756992356],[5.361096638423232,46.73098281339333],[5.393640625030492,46.728633357928615],[5.407751223773992,46.69588136597287],[5.395359314315539,46.68505154004584],[5.422089954439316,46.673031501871684],[5.415503039920619,46.654982421219465],[5.441107903009741,46.637540014709465],[5.417107587832548,46.61545539475532],[5.405690744011141,46.58167055755078],[5.369638182241569,46.58033249938761],[5.359203918767164,46.52256069453744],[5.384819294338149,46.51562428945251],[5.40775059526701,46.50005419367624],[5.415741925117894,46.47313865941284],[5.373305922688233,46.460100694018294],[5.3233509593207256,46.462505958303325],[5.310560613770375,46.446766420719875],[5.25581668314639,46.451923595866475],[5.215064143095116,46.46835927312158],[5.201145471995378,46.50821850614692],[5.172664602566099,46.513447365613864],[5.137248163610305,46.509322673438184],[5.107377093416356,46.49191576160186],[5.056433075236103,46.48392614751307],[5.027777929725955,46.49358075779722],[5.004307716480809,46.51041518184386],[4.935598865656449,46.514228992728945],[4.915557341962093,46.48894113481689],[4.915786922554027,46.465410523692164],[4.891817622919295,46.43991436571944],[4.8882077017045455,46.40298160185766],[4.851457022538043,46.35626925172072],[4.852756157390729,46.328199775494426],[4.831827095028622,46.29688694217226],[4.825956808265179,46.27478753204555],[4.810994882268941,46.25992151697563],[4.807756868341096,46.23696871115128],[4.7945808953124605,46.21831635025701],[4.780213475718984,46.176677022719375],[4.757472202390895,46.17225721411849],[4.730529789085251,46.1783721277199],[4.7208781171109155,46.19392061792661],[4.735252824806332,46.210851459521535],[4.720630389105726,46.22239538927804],[4.735773074768783,46.234243689563726],[4.679555470888074,46.25866738898982],[4.707543694868305,46.2846591310526],[4.688792316232356,46.30134017113633],[4.6546541224676705,46.30348939899555],[4.617019082985369,46.28062156129126],[4.618564521857389,46.26479290298609],[4.58651066847238,46.26869366799675],[4.557791734390365,46.294551693366884],[4.537259095086993,46.269909752755986],[4.504000511619177,46.26712967638222],[4.488464517812633,46.28799447923909],[4.458369104418381,46.29697584037131],[4.405813600867752,46.29606050757099],[4.392045244906183,46.26302385998399],[4.388079599211451,46.21978851671503],[4.362151387631787,46.195596184477786],[4.3157404325049695,46.17203342079279],[4.292313251311721,46.17248235017095],[4.2818305705425415,46.156597324529926],[4.257119428326002,46.157287705187656],[4.257372590726873,46.18473517832983],[4.224689888463,46.177995310819746],[4.207908679923857,46.194835796707316],[4.18453492610967,46.188021124528625],[4.188443814996147,46.17512895597164],[4.133393277727922,46.17732129820146],[4.104090700200876,46.19839492284894],[4.051958867651804,46.181688397585496],[4.0304983004444725,46.169772418692666],[3.9817875015959623,46.176336440402444],[3.972545422490283,46.20271202778806],[3.9135641774619283,46.20692040053432],[3.8901323277345172,46.21449064143864],[3.9094002908986636,46.25772625699907],[3.8995333931893303,46.27590543921817],[3.913568325901341,46.29667714620525],[3.947724671420121,46.303449323036666],[3.9501794500141676,46.32060215408413],[3.9866257932147806,46.3191937873956],[3.991608290169238,46.36963488772235],[3.9772154801510964,46.399224593839804],[3.996095243061049,46.42738316091883],[3.988140931065446,46.43545798547263],[3.9980416518372484,46.46546757106011],[3.957937642803863,46.48975562185932],[3.9189689867502246,46.49606391967711],[3.8904705648097098,46.48125092995184],[3.861780077410741,46.492069790934515],[3.864628432284858,46.509716167248044],[3.839759641886244,46.51756472437794],[3.8340059039329697,46.53113227681354],[3.8017563441985818,46.51989955458826],[3.767456276915371,46.53900905290684],[3.741846977514427,46.539511127662195],[3.731542528360726,46.54958181729057],[3.743101843011838,46.56549988100001],[3.732377738592808,46.60491072152218],[3.7138789586356697,46.613996147529015],[3.712149662452129,46.6336280503392],[3.6969523102437005,46.66058216583623],[3.6689793976266167,46.67350816429054],[3.651395777587073,46.70281985671478],[3.6379005417614154,46.707208771712054],[3.629423683496518,46.74945902193754],[3.638852795875816,46.7414291297393],[3.6764513769021243,46.738863704610445],[3.73619002089105,46.75247120098576],[3.783666045566592,46.736048122663426],[3.797329518692337,46.70150263714515],[3.8260957715927075,46.70391953563021],[3.8446585970830824,46.720902226508414],[3.886217784502878,46.72736946397975],[3.9268461357095314,46.73932209846788],[3.9632215617966824,46.76602786916393],[4.033374685377483,46.787597067958394],[4.062709832615211,46.78936469128212],[4.056234450174584,46.843272376735854],[4.10088702370378,46.859107279954316],[4.093851364443379,46.8747343332292],[4.063541781254885,46.898637142134945],[4.047930985015345,46.899770705295666],[4.037221978317054,46.91815560684184],[4.055716129773101,46.956751483000446],[4.039401951235417,46.98511001230653],[4.014415061270238,46.97247440888245],[3.9951563121844047,46.9853110258271],[4.0314701513696285,46.99832730189447],[4.054940156290852,47.0126839142093],[4.0565135025792305,47.03590917660347],[4.068333453149657,47.060849772300685],[4.038726355028209,47.08001003428516],[4.06142733788571,47.121041664100176],[4.093453790716921,47.11837533659616],[4.1159670699158095,47.12333757652634]]]}}