{"type":"Feature","properties":{"code":"10","nom":"Aube"},"geometry":{"type":"Polygon","coordinates":[[[3.4147915595010967,48.390273038820325],[3.422082006455869,48.413341906536964],[3.3919598867876517,48.424322153455364],[3.4064783284931712,48.4524502326185],[3.388359827890943,48.480408300039215],[3.4348599344666386,48.49751072268098],[3.4053980660358945,48.528012199625785],[3.4234423807070566,48.533562692399734],[3.4591902801865113,48.53074024476159],[3.479607557239746,48.54471109171053],[3.4655161591022283,48.57048567886506],[3.4975003134409723,48.58995747369995],[3.5038535314822115,48.6048091344709],[3.5556137492385345,48.62028467657408],[3.579891832495665,48.60485886515818],[3.6042445587901217,48.572452767827976],[3.631866148641539,48.570977927086886],[3.6340147312950517,48.54129833541425],[3.643639260745969,48.536262879171076],[3.688010554935591,48.53996363936458],[3.7041935334272225,48.53348173230274],[3.7428823405595684,48.5336960863688],[3.7947250716869743,48.52769326968686],[3.822742058660399,48.516104417807576],[3.851404847916241,48.523378465573664],[3.8655808154248064,48.537930954397474],[3.8586730804738507,48.56033634110919],[3.872574553060613,48.58047608998417],[3.9000544029762967,48.574837870717545],[3.916112422498775,48.60703746596832],[3.9492402192699783,48.60343151995247],[3.9585488780832865,48.622904721543364],[3.977230864165596,48.632216352927855],[3.98646950961592,48.65506991614687],[4.001695483416846,48.66387541820995],[4.030051914462845,48.65914499071498],[4.058195208802969,48.66627477909254],[4.079787822987737,48.701118254412116],[4.131090952946843,48.68615119823393],[4.161208977574132,48.70564270827603],[4.233040648104506,48.702313167606725],[4.2523956317261185,48.708651278525025],[4.302615983872354,48.71237740647513],[4.3255940122986445,48.700277029531],[4.332773350334676,48.67058273703408],[4.317329119564903,48.65166491720243],[4.331760406442508,48.63027354824816],[4.314917546995119,48.61621957939382],[4.403076671568411,48.561260233656824],[4.49528083286357,48.53872358042404],[4.521965785232567,48.54505196597459],[4.527473253110997,48.52851621730074],[4.576487514925921,48.549380130056875],[4.6263828171661405,48.554547535211604],[4.635013531124556,48.54446897027231],[4.670183207291811,48.53188730232318],[4.6493513522062,48.47085769541501],[4.635723724779378,48.456919205602716],[4.672923053694571,48.44493692940629],[4.700747648353684,48.39575121376588],[4.76018751621395,48.38761245982979],[4.754719796035579,48.36668089354523],[4.8414713515268755,48.339464111308324],[4.814217580453079,48.323010826658724],[4.850845034125924,48.296245729889414],[4.842390138796092,48.28357098511807],[4.857678156974527,48.26856300069992],[4.844090578611303,48.24161361141823],[4.862104268789182,48.19962383107111],[4.837947597948636,48.168959717850704],[4.850099917169891,48.14175885538576],[4.829291938175258,48.129608375504965],[4.835619390228278,48.10855609279288],[4.8193072949588815,48.10319242346332],[4.7632776797863725,48.11550181600475],[4.730610406781701,48.11820899817677],[4.708492447514134,48.10012538889342],[4.688818526238874,48.073127919250304],[4.711006682460102,48.04991853541924],[4.704238250439468,48.0202323762063],[4.67322963618766,48.015051709502096],[4.6168068514656495,48.031366971594],[4.582678644289108,48.02946360186476],[4.535820168596839,48.001210026464854],[4.5599688756782095,47.97142319625819],[4.518171359735413,47.96658777645795],[4.4932784015747025,47.96880579277352],[4.448998378066956,47.957154747571174],[4.414346270874161,47.968206710901],[4.351286047683726,47.95658154025503],[4.3090036167800365,47.96117328277752],[4.2934241069450065,47.92567623483797],[4.265599591370342,47.924116159008285],[4.242723875606858,47.931956917411135],[4.2221457478233475,47.94969678465566],[4.228464403152438,47.96915282956105],[4.206741721722166,47.972203894649205],[4.2078337319682335,47.94659557765659],[4.166327039100888,47.95980433221276],[4.1117857473984065,47.926995657517516],[4.092978649387006,47.94297672164551],[4.061270050327684,47.945562416892294],[4.045237544702236,47.92596854676534],[4.01814220173801,47.928474566092724],[4.003855529645679,47.94203480301055],[3.985962466837663,47.93063908075462],[3.9480945711713997,47.93089676516494],[3.9015952504180182,47.93863384246034],[3.91469046126473,47.97569343810935],[3.900190065880429,47.99790876198765],[3.8783088264909926,47.979417724331554],[3.850029315571996,47.98379240721269],[3.839811254672786,48.00389003724434],[3.8706198703197394,48.01563556441249],[3.8242989358275574,48.04289541931859],[3.824612213123349,48.06128779150571],[3.806792668443169,48.083864090347966],[3.8049683849961107,48.10254956014992],[3.773282122246105,48.12969525627175],[3.739719908908732,48.13275411908254],[3.754823906575138,48.150241865949376],[3.740291245795231,48.16970783293559],[3.7050170955645534,48.14431394210169],[3.667869602845747,48.1392119036121],[3.6414970437080063,48.18393657752057],[3.6195505299659145,48.190784479669105],[3.594183989487009,48.17887516119051],[3.57518637671701,48.18874134782558],[3.6111556712475656,48.21192894753078],[3.6216173506103138,48.22574039972581],[3.600078611097097,48.23703622325982],[3.624328073587777,48.25452852774026],[3.6168043332338455,48.27133989890988],[3.587183966868095,48.280173420842885],[3.5879668741436643,48.30081000040951],[3.566569286931659,48.30742854994862],[3.5634013639699584,48.32144364439587],[3.5325118583181596,48.340525877771384],[3.4986883356303173,48.368618101138466],[3.4525858660423605,48.374390245729586],[3.427513158445058,48.359980231681526],[3.4147915595010967,48.390273038820325]]]}}