{"type":"Feature","properties":{"code":"37","nom":"Indre-et-Loire"},"geometry":{"type":"Polygon","coordinates":[[[0.6144311990931555,47.69421364605317],[0.6313085686496198,47.709099413081624],[0.6747744974506991,47.699004075610326],[0.701006484813832,47.68458422067955],[0.7386942552766614,47.696124610338615],[0.7689302951021508,47.68497280116767],[0.8349728165936311,47.67716533256789],[0.8595037193186879,47.669207269893576],[0.8436538464911009,47.645477850792176],[0.8638905035844368,47.59963034358335],[0.8989296726576519,47.60470549484694],[0.9190111731399363,47.63260906008665],[0.9917892369385366,47.62002605530995],[0.9867433094857044,47.59068498133699],[1.0037237984188345,47.58435868340903],[1.0147853330259788,47.60470741380823],[1.0333525357335172,47.60701157045949],[1.0763363652479012,47.563221554317444],[1.0464291767245975,47.536720528819714],[1.0739220708330763,47.51210138412339],[1.0945042162450278,47.469318385564065],[1.1128833087567993,47.46591695745825],[1.1333660737875422,47.44894991839347],[1.1144031703140151,47.42842030526633],[1.093707046251301,47.42905551300356],[1.1215488811681436,47.382432672337416],[1.1043501548322552,47.370150192490236],[1.1228695110868157,47.35644850071685],[1.106312735447246,47.331083370539545],[1.0948532977686622,47.3285366431566],[1.1079035040639091,47.29948400233637],[1.127510095723219,47.29676734084024],[1.1623243677400883,47.272335282824905],[1.1732084801290505,47.285312153710144],[1.194077711170585,47.282955427790995],[1.2233351560525534,47.29417679425747],[1.2433106673289427,47.2738511703364],[1.2753776194772806,47.25665618088809],[1.2945860121083586,47.23735505703783],[1.32666554504539,47.186225424714024],[1.3467111123061792,47.168764854539475],[1.3653609997076237,47.12205127770916],[1.355725988719157,47.10878543596063],[1.3188363969257677,47.104914121347655],[1.3121550924937646,47.0718848367818],[1.2937693555688192,47.07225420538248],[1.2776118302465334,47.04039666478023],[1.253119794649933,47.021765630239194],[1.1955887210148548,47.02953520853475],[1.1818533493699115,47.04081998846271],[1.1321442636157986,47.02762569675012],[1.1102641592923617,47.02923293261394],[1.0840420847936154,47.021019619722956],[1.0736483557273722,47.00265445404348],[1.0498776400419192,46.98064041873546],[1.0635443101027082,46.95731046262916],[1.0380284215747493,46.9420186917126],[1.0338011309915904,46.90747018486123],[1.022251434317954,46.86391503191526],[1.0032488288235037,46.81410411812478],[0.987243902482599,46.79818923636699],[1.011690169362143,46.75780474174544],[0.9833806433152704,46.76418354026803],[0.9590385851297228,46.73775035471489],[0.9469595959139807,46.73670637149566],[0.9252287975177681,46.757176324942904],[0.884637875531021,46.75486872319864],[0.8674688807081561,46.74821910504847],[0.8279817587178017,46.776816236170745],[0.8119017840639386,46.79450796471714],[0.8093213661875756,46.827858093390724],[0.7521109761823577,46.86086544125436],[0.704324392050786,46.903293353155846],[0.7062532556123257,46.937154623849935],[0.692569282364634,46.97430706301784],[0.6362054885332586,46.985451805972254],[0.6188741963763473,47.00746096968646],[0.5669489614197056,47.00227037444166],[0.5783449036180749,46.97981081817415],[0.6011756847806528,46.97309082433285],[0.6015594112278456,46.95910993478791],[0.5644222278144092,46.95552996701939],[0.5392917082788095,46.960220880583776],[0.5027297280171042,46.9579123909043],[0.44480383249233546,46.94114889283753],[0.4387096602536596,46.929582071059045],[0.3665152631758488,46.94955720761298],[0.3248406111614126,46.93065213256517],[0.31122704760535835,46.93783959199593],[0.30073625724988334,46.97382765864781],[0.3081773026194614,46.99988348323911],[0.2986715021217093,47.01959741824875],[0.3093302509672645,47.04413338267026],[0.29823142261819696,47.05391872520871],[0.2718544387898612,47.04638904119169],[0.2455423301785185,47.07128604001384],[0.20800102904621295,47.05323202361692],[0.1742206159576792,47.07127519606643],[0.20095302486598468,47.09125887635545],[0.18146114771856547,47.11438824881292],[0.15685150997252176,47.103344382080465],[0.1347219236888625,47.1078700305567],[0.13613090268194533,47.121580554147506],[0.07637120084195233,47.12393194888823],[0.05382761471070587,47.16373008265526],[0.06659419807362671,47.18979325990068],[0.0532775371077964,47.19718486964462],[0.07249546123856535,47.22050992119078],[0.06792548837999822,47.2473308040697],[0.0785963884113725,47.28394130124859],[0.11746224213975613,47.33234274537884],[0.14729836062565832,47.34537579230401],[0.14939629089256964,47.36226337889678],[0.18295674766364445,47.38033212018486],[0.16799336737564852,47.3869314962575],[0.1676400513828326,47.405415942568375],[0.18528045906678275,47.42473344937359],[0.1812364735767597,47.4526491231434],[0.20921732522172254,47.49365838444261],[0.22010925240137172,47.50195329711621],[0.22484312443395177,47.52727704290141],[0.20150359657525238,47.544318760659884],[0.2150171714816557,47.57064544903573],[0.23453424561335756,47.577982037960055],[0.2300017263531844,47.60839829191704],[0.2592506238809073,47.61225007215638],[0.27798986367452727,47.59737754800952],[0.32305499229698215,47.59299821090531],[0.3395858922127171,47.579470515833165],[0.37848363992659617,47.568525933307754],[0.4025770030261876,47.57851243241093],[0.39696475621012467,47.59398591871484],[0.36465541592168343,47.62601597769362],[0.396250654091774,47.640846063055804],[0.4239064036884163,47.61782807903746],[0.449927725905683,47.619326961976206],[0.45663070361835445,47.63882641156769],[0.49841790772099426,47.644762985249095],[0.5168171483414108,47.6548633763592],[0.5446201655241357,47.656594675363216],[0.5599236683507411,47.67081925112141],[0.5847693599955615,47.66857981952678],[0.6148109083098767,47.682749216116356],[0.6144311990931555,47.69421364605317]]]}}