{"type":"Feature","properties":{"code":"65","nom":"Hautes-Pyrénées"},"geometry":{"type":"MultiPolygon","coordinates":[[[[-0.10307533206661205,43.2428172034933],[-0.12194467153732959,43.24335344245164],[-0.1406176398389843,43.27194385552744],[-0.1373518115949468,43.28574075772358],[-0.11185509693098625,43.31039821912341],[-0.09202865057224784,43.300470229904995],[-0.09617852463729769,43.28547921988103],[-0.07983617553877999,43.26236925486353],[-0.10307533206661205,43.2428172034933]]],[[[-0.10332953356469002,43.35858355910215],[-0.08317321572204538,43.37135001696728],[-0.06249932084582573,43.346711256254366],[-0.07504166669941048,43.30713969252607],[-0.11030601684007735,43.31299058296239],[-0.11552121102299735,43.33237650784547],[-0.08727094997091522,43.33384409231069],[-0.09014219532070926,43.35886208428034],[-0.10332953356469002,43.35858355910215]]],[[[-0.09678297320877491,43.582405897631695],[-0.0772195291003595,43.59016567666762],[-0.07397188111422878,43.60631260105189],[-0.015780894995830737,43.60465738319822],[-0.006638780883364193,43.59430394426513],[-0.0019248187812945813,43.56554046143869],[0.015782134897742738,43.543393230182545],[0.029579566383845242,43.544897297852316],[0.056081443916198466,43.5188072498529],[0.08058083535969605,43.523863090805406],[0.08975008845749399,43.51017249617227],[0.11212423457670333,43.51736991981858],[0.1304678194460616,43.49489917669358],[0.1350017858108604,43.46572396335525],[0.14930802677520033,43.465363039807976],[0.16599704732355133,43.44273636926645],[0.1374594398551805,43.43399175225508],[0.1538629917033123,43.39932405975342],[0.17380494234693045,43.40277225485803],[0.18203121400006392,43.37118267445077],[0.2317041924912655,43.36771211454836],[0.27840649370482956,43.38622497108639],[0.30085675386203575,43.37175476096837],[0.32769435096802535,43.37095370345262],[0.32831696781083425,43.34849301742664],[0.33909513817586934,43.34345707398941],[0.3883410229269578,43.35621468006998],[0.3957284672697182,43.33360258395701],[0.4430328988271061,43.32792703588786],[0.44498008716314374,43.340735933546554],[0.49803381879209657,43.32618057240136],[0.5043244698794473,43.333508245170144],[0.5474473878405767,43.329319731373445],[0.6068109749570959,43.310885991585494],[0.6357239806030284,43.300074553718005],[0.6183078501522927,43.29035045829162],[0.5511319943370407,43.236236596459726],[0.5738333078065921,43.22033420729316],[0.5518748957180641,43.20914713009289],[0.5173856740584795,43.212372971316064],[0.515732011440808,43.189611401008044],[0.4878146424725309,43.16525164014629],[0.4700411050323527,43.15730371100298],[0.4419985587106282,43.13127313187027],[0.46394373544501977,43.117816246348056],[0.5322696523895433,43.093864488407256],[0.533134473195984,43.08279812294234],[0.5573359728300217,43.066396922958404],[0.5652571210979821,43.04118358284234],[0.5379303286735891,43.041641647509145],[0.5341218546281855,43.01498318247417],[0.5412081928415171,43.001720551955394],[0.5673867928980146,43.02086035561931],[0.5918253760443509,43.022372936614325],[0.6080473328079602,43.034009064146474],[0.6274179241908862,43.00010287323426],[0.6116327283329046,42.98841659996602],[0.6188348311181961,42.972417013199525],[0.645536953415737,42.96206456656776],[0.6419907184981635,42.95287272899541],[0.6060586556910943,42.93436290905924],[0.5865354938150936,42.899764469600925],[0.5759351469518764,42.870825923039746],[0.5598104479575664,42.86131086278569],[0.5324055542379432,42.863293191606644],[0.4773565901163487,42.87824375089618],[0.45645030119577185,42.81819976680441],[0.4631381823278041,42.79013609203236],[0.45587668333542497,42.769893094701686],[0.46339485659012236,42.75961776986063],[0.4550942250736491,42.728060641999555],[0.4845912327562892,42.70987563691782],[0.47774954032737066,42.69999034279792],[0.4356455710506602,42.69037183158463],[0.40211897973801236,42.69648986021392],[0.39263011986752094,42.71311750189731],[0.3596287954835796,42.72339183232152],[0.3262254490865479,42.70523591329384],[0.320802303741389,42.683131711219026],[0.29282224858132516,42.67492458180092],[0.2657494410548165,42.69585404878972],[0.2601414748532607,42.715502851551555],[0.22668497017769476,42.71735823262267],[0.2059924149934227,42.729298724675765],[0.17574306986977128,42.73677329861877],[0.1604176644184873,42.72442882623834],[0.1365670029696411,42.72232698158292],[0.11125032280716181,42.71021137331376],[0.09042040053997723,42.717132811761196],[0.0459533905361909,42.696777408747096],[0.024585610304963493,42.70245653014717],[-0.010637584646291413,42.684385085093155],[-0.05980922099813103,42.69342720546847],[-0.06884483739406957,42.7179035165553],[-0.10244023343942496,42.72158700465701],[-0.15972871920981477,42.79739905213244],[-0.1784879363541327,42.785361494949754],[-0.23844023717848478,42.808170502420666],[-0.27668498267988956,42.835474417476526],[-0.3134428634980887,42.84937505970757],[-0.30706856228167917,42.86996632786312],[-0.32717226195000754,42.91649889360632],[-0.28159092548449843,42.93356279018235],[-0.29228087888317733,42.991102936760555],[-0.2872360879456974,43.00592033944367],[-0.2648355668439734,43.009960256978964],[-0.2599408711456362,43.038273850395626],[-0.22443426834756924,43.033763083786916],[-0.20042576352682828,43.042716040400485],[-0.1991458409823786,43.064411115641306],[-0.18776412338244444,43.08332759879084],[-0.19098404402245078,43.11120001485184],[-0.1708703509900363,43.11342325510858],[-0.14613235140227143,43.128235959977104],[-0.12625382600229515,43.157664646038775],[-0.1177014616836111,43.1803266630819],[-0.06787400013058484,43.17711979316513],[-0.07252865439013752,43.22439059831667],[-0.04586866874069626,43.23214073673146],[-0.017007531250723754,43.270453175934975],[-0.04438748267104296,43.285276684905334],[-0.046122416801734574,43.300855792904],[-0.024871748469064887,43.32949512965254],[0.010318158747631801,43.32531563972634],[0.029503346533208717,43.34615364492955],[-0.005254456755174934,43.37375854928626],[-0.003925534377874021,43.3934664638352],[0.009655310320461439,43.422201547264585],[-0.01653409524496999,43.44394693211105],[-0.03370932429921264,43.43246529630011],[-0.04274822802160633,43.410433038551396],[-0.06960017201868417,43.43296649967561],[-0.06575363832737609,43.46348011949314],[-0.03395773428648386,43.4748821154567],[-0.04931853949113948,43.49246722068145],[-0.040131786150039817,43.512605402100824],[-0.06439614081942817,43.54514708135416],[-0.0889353115702106,43.55720120791489],[-0.09678297320877491,43.582405897631695]]]]}}