{"type":"Feature","properties":{"code":"16","nom":"Charente"},"geometry":{"type":"Polygon","coordinates":[[[-0.10293687953014707,45.969659985237946],[-0.041431040823060886,45.993479981490964],[-0.04551950280367589,46.02062123975871],[-0.02144724431586948,46.02887152321493],[-0.031995293425440136,46.05592180291526],[0.01927278461702518,46.05284782935696],[0.07297225926176307,46.09389590958497],[0.09965289984710943,46.092923144255636],[0.13568666816811367,46.104047924067046],[0.17785565005004553,46.08330780134647],[0.1973535052161626,46.09555004152969],[0.21971869883786393,46.09431625215903],[0.2522183041176724,46.07997966029883],[0.2798061440667491,46.060966262312725],[0.39105268436192897,46.066346526515616],[0.4132869508404128,46.04908867462494],[0.4450902027032336,46.05080094878019],[0.46914195555876237,46.06154823906217],[0.47596150384778746,46.08270140200688],[0.444533894881436,46.09115151319632],[0.44325878141139535,46.10157393893125],[0.49249803098282,46.1359535013665],[0.5381620342712992,46.095338949157004],[0.5646140785657598,46.089594364695195],[0.5749744983104493,46.07899630556071],[0.6060084175300469,46.077142007163026],[0.6086469693380949,46.0896841812107],[0.6874528960648788,46.09725460634645],[0.684060820103776,46.11934698105583],[0.710577167789481,46.13088444115974],[0.7469045366399735,46.13857472178201],[0.7801581669353024,46.13213998977384],[0.8095104050353692,46.13820512038027],[0.8234337839605995,46.128581728488264],[0.8152372244416768,46.11576760044673],[0.833691291703567,46.10635630894394],[0.8188984576633332,46.07740847428548],[0.8269002995768702,46.06393247093984],[0.8179096763959527,46.047878116483695],[0.851093282263786,46.03464824766331],[0.8670363318108323,46.01842834189512],[0.8940345525336028,46.02314912814255],[0.9256254984735036,46.01045396377162],[0.9425919960124763,45.95743607843122],[0.9227140883044904,45.95301038798378],[0.8847207937372841,45.923723788266166],[0.8594760522394275,45.917997097288996],[0.8222125888611419,45.93208646787984],[0.8133141897835577,45.89867390107227],[0.8273731927551746,45.882747942075014],[0.7979907883874932,45.83267807863906],[0.7822321483214059,45.8210820958808],[0.7721413751783613,45.78762409365665],[0.7470964755206753,45.80309000421788],[0.716439805978218,45.80561793866404],[0.7079458275965803,45.79550918085823],[0.714888400126834,45.76311968057406],[0.6884232598945583,45.7604002541581],[0.6525242742739024,45.7404698575335],[0.6454223576561761,45.717511285932694],[0.6297424639524398,45.71456998977268],[0.5988182940413804,45.67062696828461],[0.5678112654431465,45.6510243172179],[0.5612176923905663,45.63273730287464],[0.5355449863742777,45.63336713201865],[0.49986594015823305,45.616678558714106],[0.5155919010618789,45.600377918791985],[0.5007291724346205,45.57307480085136],[0.506492513438957,45.55388701893163],[0.4962604525540854,45.5444880543905],[0.46573672024377105,45.539623254776004],[0.4327895064931416,45.5024678675343],[0.356537146854989,45.465479098992546],[0.3078489404274546,45.46087036559335],[0.2943995470605675,45.434183799907565],[0.2781514641521634,45.427303344509845],[0.25007284811879654,45.371801187374246],[0.26498472290743125,45.334216796479616],[0.26971965078434545,45.30539294080847],[0.24739630895607334,45.289484009049765],[0.22141736394530237,45.290328116659495],[0.20441616387648323,45.26359520741223],[0.17763742117729522,45.253740934302506],[0.17055210372198007,45.23701026486455],[0.13030604926862757,45.20798900287554],[0.09619541225687946,45.2278578556264],[0.07573321487779969,45.2202598278516],[0.05343044144838288,45.226854975561835],[0.034845860697314227,45.20874744152009],[0.007749483713343667,45.20202343974376],[0.004330746876933936,45.191632555616],[0.006062958572826905,45.22015279177819],[-0.03627702144250208,45.23721166979442],[-0.04010907570871097,45.24667707840673],[-0.10906395793417734,45.247266549806895],[-0.1087860702850694,45.28895157818026],[-0.13794822595131936,45.29287694608038],[-0.16425879921098446,45.30698659601025],[-0.19638538280111967,45.30512678463863],[-0.2304752800698138,45.31446591115923],[-0.27347921783680357,45.30225684007141],[-0.2887417673079189,45.32910703740514],[-0.27790666612822756,45.34775584650338],[-0.2502965305794111,45.34134241625847],[-0.2482719674169436,45.35898378387085],[-0.2710919492630416,45.35814803088122],[-0.3098053879026185,45.37371901040736],[-0.2781611552168728,45.39872175654272],[-0.2497593835924429,45.40874172938639],[-0.24726501108038862,45.43547210812303],[-0.274151582312151,45.45858172430254],[-0.2581005042557833,45.487311820539006],[-0.2661516568578383,45.52506493490806],[-0.31837852151865353,45.53478119461178],[-0.29701667106996404,45.56395328480815],[-0.3076248492964586,45.57358242489813],[-0.3759196531282934,45.60891920266452],[-0.3888323806150822,45.62624147062642],[-0.41648688699637426,45.6172478354152],[-0.4319955290656746,45.62459912844279],[-0.40948414912562175,45.655586235131814],[-0.3825326157519499,45.65979752940899],[-0.41054144795526276,45.683378056997135],[-0.42212116254330756,45.709462720761486],[-0.41583863552489936,45.74166865754332],[-0.4600101800616985,45.73927564322733],[-0.44933397454634766,45.766003399915384],[-0.427307558287169,45.76407021646179],[-0.40217992031623706,45.77301526864364],[-0.40039322122148663,45.78667015344287],[-0.36589154278993163,45.78031423872061],[-0.321290979962916,45.784502531866984],[-0.28882255929425316,45.80646253937032],[-0.23872379555383658,45.803035801655675],[-0.2217452863431161,45.77574564408542],[-0.1910086919293196,45.78989453197688],[-0.15385968642880263,45.798527391499896],[-0.13587796182859485,45.819927442683884],[-0.14022309999885124,45.836487921992216],[-0.12195942560335456,45.84980039051254],[-0.1309530378458796,45.891006636407646],[-0.14718187106945502,45.899027240817475],[-0.1511348530364158,45.92662031190935],[-0.09830097999956097,45.935064274902494],[-0.08645413551898633,45.9499872925985],[-0.10293687953014707,45.969659985237946]]]}}