{"type":"Feature","properties":{"code":"03","nom":"Allier"},"geometry":{"type":"Polygon","coordinates":[[[3.0320681893946824,46.794911188525944],[3.049065356287102,46.75807894189366],[3.0839363013486563,46.73762859045693],[3.129775813721409,46.72720423640006],[3.1631563644760856,46.69354021702288],[3.197261486410674,46.679926344970944],[3.2155498733945853,46.68289184476865],[3.2697920192933188,46.71674092868996],[3.3009216002863893,46.7163033886406],[3.3139717258866157,46.688751593416065],[3.3467088070518343,46.68441634541089],[3.366446289777872,46.69126127383442],[3.3877607382601562,46.71481835659156],[3.43414613166678,46.711906018109566],[3.432977086126445,46.69334363262723],[3.453772658174005,46.68414192059341],[3.4473359853067485,46.66355627140273],[3.45529917195652,46.65239553162601],[3.4885699471242644,46.6601824726314],[3.523959952566555,46.685994912475735],[3.546479370174174,46.67829016254972],[3.5601217846433015,46.68944384651715],[3.550392218815862,46.715864672081594],[3.5773110866449174,46.71485003618856],[3.598004570548422,46.72398257750036],[3.575688644059658,46.74951576942387],[3.629423683496518,46.74945902193754],[3.6379005417614154,46.707208771712054],[3.651395777587073,46.70281985671478],[3.6689793976266167,46.67350816429054],[3.6969523102437005,46.66058216583623],[3.712149662452129,46.6336280503392],[3.7138789586356697,46.613996147529015],[3.732377738592808,46.60491072152218],[3.743101843011838,46.56549988100001],[3.731542528360726,46.54958181729057],[3.741846977514427,46.539511127662195],[3.767456276915371,46.53900905290684],[3.8017563441985818,46.51989955458826],[3.8340059039329697,46.53113227681354],[3.839759641886244,46.51756472437794],[3.864628432284858,46.509716167248044],[3.861780077410741,46.492069790934515],[3.8904705648097098,46.48125092995184],[3.9189689867502246,46.49606391967711],[3.957937642803863,46.48975562185932],[3.9980416518372484,46.46546757106011],[3.988140931065446,46.43545798547263],[3.996095243061049,46.42738316091883],[3.9772154801510964,46.399224593839804],[3.991608290169238,46.36963488772235],[3.9866257932147806,46.3191937873956],[3.9501794500141676,46.32060215408413],[3.947724671420121,46.303449323036666],[3.913568325901341,46.29667714620525],[3.8995333931893303,46.27590543921817],[3.8778066858099134,46.275939918983156],[3.8690933059580366,46.263723494024156],[3.8048868330812957,46.25485708711847],[3.802699984915529,46.23850996581434],[3.768246928941596,46.237829248308365],[3.7902842093787883,46.210905673837914],[3.7907469501208273,46.18453497582482],[3.8078602164262896,46.16159515953333],[3.789761994058612,46.15485133205715],[3.8025614332413635,46.11032928945375],[3.8218816515656036,46.08798379604504],[3.806993754653765,46.061272645914705],[3.80676406021388,46.04562293029198],[3.8283904088914604,45.99948536067427],[3.8237895718712145,45.98735259327228],[3.778005233789911,45.97179985823387],[3.741274273248646,45.96600368355748],[3.7088966387640045,45.97378446779926],[3.693841059729285,45.94949142878095],[3.6940178008729885,45.930732356412385],[3.6767635131618666,45.95805976115134],[3.6413068945873417,45.96461484273165],[3.601439901652659,46.015082558028055],[3.5413270581913245,46.01519652019095],[3.5346371071845772,46.02237834647508],[3.4813683084812777,46.01371105761674],[3.4678828897234224,46.02374515995011],[3.4535928570638426,46.063794720194835],[3.433106873763625,46.06115526638401],[3.419029561174583,46.07429245580498],[3.3829420706213997,46.06480264969235],[3.36764567175092,46.05430839581729],[3.332766798825711,46.05497440619716],[3.2810346944765536,46.065929354622334],[3.233650605398404,46.06355148384772],[3.2145108831873523,46.07494451930903],[3.1831200731258975,46.074513260697124],[3.166531859715606,46.065677976513406],[3.1280978125696843,46.07140098569798],[3.099793609402441,46.09490520389922],[3.0906232146771364,46.11452555946364],[3.0480765097735856,46.10031481550088],[3.0164792061121424,46.102448954980474],[2.9937709582935033,46.123728525772805],[2.971756635840471,46.1217801298987],[2.942765231308341,46.168549525458715],[2.911139505619457,46.17743500340432],[2.920103043246808,46.19098495139527],[2.9133683342305123,46.21076365100903],[2.936482510275278,46.221710765741776],[2.9371457775851466,46.24291746827498],[2.89131100728084,46.253562623561876],[2.838238654032007,46.25133842004792],[2.8186225286604203,46.23256980947683],[2.8229846867516923,46.21982582951188],[2.810275114252155,46.196212623621854],[2.786781773175518,46.19864733659311],[2.732404782173034,46.22305265922885],[2.720917952533929,46.21130971383818],[2.7305652928970168,46.19609671226358],[2.715881178634498,46.17955498592873],[2.6774585186785225,46.1727617979065],[2.675536737103756,46.155809042125064],[2.6552891559950393,46.12604206490928],[2.6406912317167386,46.118477661719005],[2.5653790586982073,46.143032182829025],[2.55979833292496,46.1733665543973],[2.5280462333006355,46.186332427553644],[2.5158528050357227,46.23696126598014],[2.4917957849327936,46.24786046438832],[2.47709210519503,46.26936080025225],[2.4807602356876792,46.28101200577568],[2.443031552582666,46.294998578986906],[2.421342247531783,46.28462476459887],[2.4204617595913738,46.310131437621955],[2.3918607677139923,46.329982476677515],[2.3704814292505856,46.312630811170784],[2.3549021067976903,46.32568201768989],[2.3230243720211274,46.32927925675375],[2.302749949603141,46.35441622497473],[2.3233435644763096,46.36652595580878],[2.2847885229424363,46.38630891270082],[2.2810476101300576,46.42040537318101],[2.2857578150118907,46.45351915029325],[2.3054653620681904,46.47543251470377],[2.3520035556502914,46.512211347274814],[2.368300280591156,46.518434763382956],[2.4454932330861086,46.520050656829746],[2.482928804775826,46.532697444644036],[2.4991214173027565,46.52128856511456],[2.5286102816734966,46.52948202499876],[2.536652020779054,46.51969984591659],[2.6098613959683155,46.55013821923558],[2.6011237640888596,46.590178123200815],[2.577951915975513,46.60379087601659],[2.5966478252098466,46.637219569816494],[2.5721840644866165,46.65944372206644],[2.5977652900203827,46.66465075679083],[2.623913816878901,46.656626585968894],[2.647884573027338,46.688911012473135],[2.701686181879871,46.72775447664072],[2.7144961054529793,46.74448968334189],[2.737293702840373,46.74315745422507],[2.758717331696372,46.71770479874165],[2.791229376607484,46.73345369143159],[2.827616388160227,46.73528787880108],[2.9097996708207035,46.77934846021115],[2.9081337416117115,46.78790090388258],[2.9599146908207157,46.8038765767733],[3.0320681893946824,46.794911188525944]]]}}