{"type":"Feature","properties":{"code":"61","nom":"Orne"},"geometry":{"type":"Polygon","coordinates":[[[-0.8409353560137922,48.75222016383323],[-0.8192734301255277,48.7541311066678],[-0.7806266616236817,48.78665142650693],[-0.7125565216024937,48.80069002566648],[-0.6821715230909893,48.821834119269546],[-0.7054998116130325,48.83677879901897],[-0.6935979640277244,48.8472307255334],[-0.6264394642029217,48.8268065097143],[-0.5445223814299559,48.8478900838751],[-0.4940452996821073,48.84857463029627],[-0.46875379913660753,48.86921416486376],[-0.431252227536603,48.87431946705079],[-0.4089756657265101,48.87089665763008],[-0.38621249067401003,48.8452588814631],[-0.3462445710154039,48.821999140746314],[-0.3267045002943942,48.840277412458356],[-0.3285204584539417,48.857599313600346],[-0.29452074618238994,48.85168192113505],[-0.26217897261037365,48.85359465583731],[-0.17671993891467938,48.83423079521249],[-0.1463430882060753,48.83444909949476],[-0.0850638956816069,48.84465033807136],[-0.0590064530019254,48.853491798472966],[-0.030666077085217337,48.8738778222776],[0.008758124525063051,48.8910599383045],[0.05639799250068904,48.902464038657314],[0.07094503667266873,48.932121250285164],[0.09488679748726127,48.93579979818696],[0.12760760912750246,48.95221907078784],[0.1564748700538276,48.924787583562484],[0.18746286897648523,48.940627353263515],[0.24227175031800538,48.94434881189317],[0.24466232022740259,48.95878245595905],[0.27250168047082235,48.964655839870495],[0.28264019709882576,48.94899613116388],[0.3105016483200191,48.9525668734449],[0.3332314772821841,48.942781544583966],[0.3581085399804696,48.95050361041376],[0.37731004626458825,48.972554866896424],[0.40609491524831554,48.96346413266829],[0.412814532889088,48.950626367694355],[0.3907837746929919,48.9271332888758],[0.38618934896504153,48.91041450585282],[0.42156714219561403,48.89864779537123],[0.4200659412941513,48.88818710783798],[0.45358528537402837,48.88019513771439],[0.4761125006440536,48.88686266076319],[0.5021397353658976,48.878150204150515],[0.5525030083730612,48.87553783157171],[0.5780409793892106,48.89364694598877],[0.6109659813863897,48.853218358881485],[0.6078685100835315,48.832489316673694],[0.6687110370739024,48.80802140346215],[0.6889623683560373,48.79460354988005],[0.7319447587721393,48.78545800743581],[0.7584300486684715,48.767971967774606],[0.7508055582409985,48.75949683157833],[0.774959043114129,48.73752726458568],[0.7433928921084365,48.71690523836887],[0.7660502318369231,48.69679825478523],[0.7640759546715993,48.67527365639454],[0.7822053215915061,48.66652415160697],[0.8148191028635925,48.67016796018795],[0.8268154990669214,48.63060614219509],[0.8177592533729132,48.616321964340834],[0.8465847869380818,48.60477987546661],[0.8495690718886973,48.584317085863454],[0.8676826582446395,48.57348477486485],[0.8912620563004201,48.57217735609871],[0.9387576535104647,48.55055845317247],[0.9226089134985012,48.5377152127879],[0.9667159729358187,48.52408891339411],[0.9539997024327551,48.50383926047164],[0.956288496333069,48.48228110680156],[0.9357072927920254,48.475553713886015],[0.9584142860496184,48.442595257597894],[0.9439900556805834,48.41543779690512],[0.9486303005350746,48.40254075139077],[0.9090291135378351,48.37025942165492],[0.8837069426865347,48.35671469741493],[0.8187477629538905,48.3492990187552],[0.7854319060188925,48.34042724028456],[0.7688672771787132,48.32194393371593],[0.7958184564245077,48.28648186022423],[0.7875964742272762,48.26131463776064],[0.8302416950484665,48.21430027818372],[0.797655838494225,48.19445221754921],[0.764084678712686,48.181597068873735],[0.7236370295054257,48.198143278755104],[0.6954713879467597,48.236330986094266],[0.6754723126802372,48.254743451079044],[0.6531564634145168,48.26370008686643],[0.6236114391567086,48.24531365157172],[0.5791940330516644,48.24436715365327],[0.5359730618565085,48.24984731423508],[0.5303066115723511,48.265500468342935],[0.49456203378441577,48.28681219277962],[0.48757228180388706,48.307800269630285],[0.4313327796769827,48.30663773892564],[0.4062188750511576,48.31462381799055],[0.3826045470591668,48.33382739375671],[0.3831416441494548,48.35506581259146],[0.3717304119271855,48.41045271670545],[0.38155707814654405,48.42516246095979],[0.35577910790038714,48.4582196404425],[0.30023976976312095,48.480570774759265],[0.21796784681891437,48.4738014493765],[0.18981014616858835,48.46189487699406],[0.17216701037378906,48.46478849710128],[0.1513148609685129,48.43722944549019],[0.11624508246972709,48.43555379652284],[0.09917026625350714,48.41035346558878],[0.0686800642491165,48.406668571805646],[0.06252414284954447,48.38302768487248],[0.020988775959532427,48.38019902542899],[0.0033707584170527497,48.39598744941706],[-0.04462899093295152,48.379755379925435],[-0.05453120471342586,48.382003457815514],[-0.05735713318959158,48.42850475869075],[-0.051896256193192464,48.4532597698412],[-0.10641204070316028,48.44752336948581],[-0.14362687075469976,48.45472711281225],[-0.1663420949957147,48.51558833305454],[-0.14460396356167668,48.52775250488166],[-0.16938322355767327,48.53697934057344],[-0.20693829348513745,48.562944759163955],[-0.23435383691646136,48.56233718214002],[-0.26180278773892185,48.54789343136948],[-0.24146030977322894,48.53711490462154],[-0.2629746987558156,48.52359724467027],[-0.2715497531161014,48.50745217404008],[-0.3202385045732452,48.522920009526636],[-0.33820693066737895,48.50050101655408],[-0.3676233888648988,48.492944315128234],[-0.44380935670202487,48.51374721178168],[-0.4781981375781819,48.501570405632215],[-0.5050654278707298,48.50579601256293],[-0.5304357344769987,48.495166069981224],[-0.5502899127948604,48.47423143238625],[-0.5986229162657322,48.47101955265918],[-0.6510738694884249,48.44394876336686],[-0.6662397250359153,48.48588955148741],[-0.7020679300858332,48.467206812159105],[-0.730343478460553,48.472706578375146],[-0.7358573623603453,48.46112222178988],[-0.7151034623418729,48.448949122074],[-0.7572811397545338,48.436551469912764],[-0.7796468261489741,48.44602717779943],[-0.7778740724524535,48.46541168200867],[-0.7975558085305263,48.465278693659805],[-0.8603629154348681,48.50145849652254],[-0.847670683669462,48.52112645892402],[-0.8057094829569462,48.54987498304548],[-0.7741715461672727,48.56267832832823],[-0.768359672906354,48.59032984724143],[-0.7517442676401291,48.60131936977811],[-0.7524222705829918,48.62213618876707],[-0.7733632741625079,48.65747680031274],[-0.7354985764702292,48.68396472383358],[-0.7917739207703051,48.70515869262072],[-0.817893287414865,48.73117743116182],[-0.8492246178903684,48.73075569433634],[-0.8409353560137922,48.75222016383323]]]}}