{"type":"Feature","properties":{"code":"79","nom":"Deux-Sèvres"},"geometry":{"type":"Polygon","coordinates":[[[-0.8919599503022404,46.975817849607864],[-0.8559224678754487,46.979084161484536],[-0.7875770887198819,47.00513718237798],[-0.7619520119905745,46.992139886795954],[-0.743365629187983,47.00070367813692],[-0.7156396951065868,46.985502313803366],[-0.6758343487736584,47.00172199082605],[-0.6438716820428597,46.99351589442817],[-0.61568293448452,46.99293402227639],[-0.5654683969778376,47.01942614381194],[-0.5555783931772565,47.04353316953107],[-0.5595318719263807,47.06188673077478],[-0.4953402437613724,47.082385217708435],[-0.46269733093798004,47.08192636562548],[-0.4642554478540593,47.06757786350008],[-0.42854910796633194,47.07271663479802],[-0.4007795061579299,47.07077103460959],[-0.3834553981375389,47.08769862856716],[-0.3579271504355597,47.09365187822681],[-0.3414640153397548,47.08733467869207],[-0.2879290635736671,47.10144071067538],[-0.2415379484520476,47.10572466544675],[-0.20250740252740007,47.09583787535414],[-0.1848398275184138,47.10833699690516],[-0.1521214820209298,47.10085428544302],[-0.178486598699701,47.0697670558895],[-0.1476585466148043,47.069854366674875],[-0.12838002979815127,47.05442990559355],[-0.10212095637964737,47.064797190818005],[-0.08113082448484565,47.01267677238524],[-0.06675773993609899,46.99387700352016],[-0.038153345460296736,46.98939008519809],[-0.044186809693518486,46.95837119466449],[-0.022215929347250134,46.938478291692846],[-0.009032410299882686,46.90747700605923],[-0.027263869318720418,46.87992322868147],[0.02561539858266648,46.85287480114874],[0.01660746491547145,46.83496346394018],[-0.007773096486773423,46.84747452695961],[-0.04568987388716529,46.83210506753766],[-0.020316336069380297,46.812653925006536],[-0.02232550667364259,46.78961529950765],[-0.014979708609133745,46.75637013577674],[0.005731121087621784,46.75454225312974],[0.03826535834799053,46.73158052408886],[0.0007042720140891931,46.71623331657764],[-0.006947998344661607,46.68290982229758],[-0.040426190194721524,46.66371702380725],[-0.03338532562574275,46.65364917507512],[-0.0653244004897615,46.63246151135352],[-0.026547974206768066,46.62886079422371],[0.0031057671136598976,46.61079878720693],[0.022854639746489266,46.614530685176334],[0.020058959008376207,46.58512799711242],[-0.008022109474557896,46.567543137522954],[0.007895566679664658,46.547974321223606],[-0.007157529433821307,46.52327699327565],[-0.03135125528751674,46.52498101941566],[-0.04230359002464692,46.470028260342126],[-0.01707071907246923,46.47527516260208],[-0.010457661947033809,46.44881280383021],[-0.017092824348942416,46.4113223945137],[0.00026572855997630953,46.392018635848565],[0.02069664723879619,46.38800352143432],[0.03421997901294537,46.37349679947992],[0.013846004253531347,46.35706042377505],[0.029657077300027247,46.349192346191],[0.03250915440256327,46.32782028737164],[0.07821800902702593,46.304933538922825],[0.09780469789926086,46.33079981164575],[0.13759784994026253,46.349395182700974],[0.17523938179388834,46.33181773874165],[0.16956912209813432,46.31018694492532],[0.15218685361085643,46.30314888540674],[0.17232027940044886,46.27860128086839],[0.15955968591576844,46.26656979483444],[0.12883677213786587,46.26723154899869],[0.14344160353379778,46.230114587841406],[0.11343152573440447,46.21220922906378],[0.1076952133925229,46.1861301320678],[0.13793977146169878,46.18084966362293],[0.1551113740904502,46.157168244596924],[0.1870636693943682,46.14851197384494],[0.22035458351339557,46.15799975349338],[0.21492180826491483,46.13884556432992],[0.19108384573574536,46.112280833588024],[0.1973535052161626,46.09555004152969],[0.17785565005004553,46.08330780134647],[0.13568666816811367,46.104047924067046],[0.09965289984710943,46.092923144255636],[0.07297225926176307,46.09389590958497],[0.01927278461702518,46.05284782935696],[-0.031995293425440136,46.05592180291526],[-0.02144724431586948,46.02887152321493],[-0.04551950280367589,46.02062123975871],[-0.041431040823060886,45.993479981490964],[-0.10293687953014707,45.969659985237946],[-0.13686284675087984,45.97896246180592],[-0.13816141787435107,45.99651797265895],[-0.16338440604219345,46.010154472823466],[-0.1614029897771452,46.034632694780214],[-0.18913173505260444,46.026141171108804],[-0.19462930058574468,46.044380369324465],[-0.2129646707291253,46.04409636271024],[-0.2730277009301873,46.05731156087075],[-0.28173430941987637,46.07975377766763],[-0.331053750782718,46.08255183868407],[-0.36273280893098575,46.07554208376435],[-0.3719662136104232,46.09346535716146],[-0.4014506800441788,46.08424772978497],[-0.42250549768348417,46.093907520969715],[-0.49096917294552705,46.10827096658701],[-0.5331548006606286,46.139721552287604],[-0.5469968076890201,46.14422952781575],[-0.6199574101252711,46.137752754570535],[-0.6284055467115421,46.16098350805028],[-0.6553901462423457,46.16995289669758],[-0.6848825769982527,46.2004519742498],[-0.690715475013079,46.2192025056982],[-0.751461997484196,46.24507022173624],[-0.7358896726556473,46.26687597846039],[-0.7498018188117581,46.28684613695955],[-0.7504755422947275,46.30425879436195],[-0.7219129656364313,46.30237450310386],[-0.7201500047099074,46.31489050090406],[-0.6973310699310054,46.3250900125706],[-0.6722725322460164,46.3162191658117],[-0.6482532698392601,46.317144430298924],[-0.6366035278644262,46.337591841879316],[-0.604945148704239,46.34715238390407],[-0.6032466407115049,46.36146637541298],[-0.5618089129416993,46.35974018410839],[-0.5378004980121098,46.38646546545568],[-0.5660555377589854,46.39308485800112],[-0.6101772466297536,46.41373600220488],[-0.6208833834377796,46.390455794535654],[-0.6406445679433723,46.41622924515597],[-0.6368414296493504,46.43230561509176],[-0.6187762241263333,46.43885619623182],[-0.6159660718681671,46.46157045085021],[-0.6250321267782425,46.49748332134845],[-0.6451962418895167,46.50856915270028],[-0.6245399718190973,46.529723883887414],[-0.6021285989587045,46.533280547788735],[-0.6067041276726987,46.562332081853285],[-0.6245653646005823,46.57739763355232],[-0.6119040829758216,46.5883080542103],[-0.6270238350693782,46.60565028049541],[-0.6141139330666167,46.62039039102903],[-0.6341929952870002,46.63738600695415],[-0.6375207590786917,46.662275660644845],[-0.6807382103871169,46.686802029507525],[-0.6561893352875896,46.700774642460914],[-0.6688837671234614,46.717234169266845],[-0.7001491562174191,46.735799391945754],[-0.7273121698337293,46.76763245445797],[-0.7088363450612226,46.82106096053443],[-0.7328576209101574,46.8215002648331],[-0.7816473761536221,46.842828501140936],[-0.8152783793677632,46.87936123351067],[-0.8321833934652019,46.88454160082127],[-0.8170418725493785,46.903983682599055],[-0.8291443983745105,46.93336473376701],[-0.8519389677391533,46.94650472324497],[-0.8729898783606566,46.94434766819017],[-0.8919599503022404,46.975817849607864]]]}}