{"type":"Feature","properties":{"code":"70","nom":"Haute-Saône"},"geometry":{"type":"Polygon","coordinates":[[[5.884726375202079,47.926047148569474],[5.900112413513003,47.94475092005572],[5.918042584312377,47.94735978283618],[5.918281347414071,47.9655809864854],[5.9367444429976315,47.978872441043904],[5.95951518224341,47.96583761413322],[5.937717530374109,47.95093996886656],[5.9537128429228625,47.93703033418094],[5.9707779241858585,47.95720515925631],[5.994585023938386,47.957843619961515],[6.023512782425089,47.97819459549159],[6.0411805356860935,48.004423104387435],[6.131397185816461,48.024084417358715],[6.156025724419171,48.00640454629518],[6.1523863211856415,47.99509120117254],[6.167984818891344,47.95235039236555],[6.193308012990422,47.953186926635745],[6.208333130052072,47.93959154159432],[6.237987058178878,47.93284210198345],[6.27733365541217,47.95380917897212],[6.324502244506514,47.94927719089294],[6.366159798724643,47.96194440724777],[6.43172063760481,47.94381556163065],[6.455958900669549,47.90676595953145],[6.476305388045899,47.89135525473161],[6.5421528235861155,47.90261056529581],[6.563418085973325,47.931389307581],[6.6073149335019385,47.943147742357816],[6.641076475620301,47.91580834582307],[6.643740194905068,47.90503177099352],[6.703673452230481,47.88141530820336],[6.737768277119198,47.8615661276394],[6.784821909572192,47.84962275516846],[6.792206691054161,47.830065844691816],[6.823538854548165,47.81305372458858],[6.811469860026116,47.796038470605524],[6.785629179422312,47.78207231453601],[6.757638483670512,47.747877966474704],[6.756625698295901,47.72444662113829],[6.772570902276831,47.71163343375122],[6.781911060840567,47.687677725049234],[6.776099673752326,47.668572918052455],[6.80103447418288,47.636044219886536],[6.780404771904786,47.62526070544475],[6.804959146951254,47.582108256125515],[6.80700533167707,47.562801384972],[6.797499350037713,47.5495126825397],[6.767404952407747,47.538017268556935],[6.738845896180387,47.55702322452207],[6.715410264318535,47.55291548061491],[6.670176179849052,47.55789898345777],[6.646719240296149,47.53526063805599],[6.6108754443878,47.530375696762064],[6.581373134078281,47.5439823802077],[6.568287888950471,47.53296730090853],[6.583644236898135,47.50998705821796],[6.573512260277363,47.495493621813196],[6.55356252302069,47.49279726215029],[6.534536369742796,47.50605436714645],[6.5183760537344355,47.49650598459375],[6.495895471628419,47.50568894568784],[6.475912751751343,47.49653791477729],[6.463493609157821,47.51211727914121],[6.4176533951113335,47.52107576002842],[6.3343537374171,47.50596607053227],[6.280184223466656,47.44396949481327],[6.2635413933118995,47.446113357872484],[6.256322884311814,47.42460267369418],[6.227146778558152,47.421361759224745],[6.20045182507361,47.4291448308537],[6.159315835079816,47.38763809750605],[6.118643218077476,47.39516918586829],[6.080045800270596,47.35403647497674],[6.038905360008941,47.345543807863976],[6.031152213443059,47.337818639776025],[5.979565477765114,47.32599225383308],[5.965726777821383,47.33714799401978],[5.926973317778065,47.344842696907314],[5.908850384555448,47.33130809335063],[5.860063369485741,47.31441371512956],[5.84401524176912,47.30002560772319],[5.783911882300601,47.29062859459643],[5.772794289154126,47.27839174115347],[5.732304584331136,47.2635708244963],[5.698725742766405,47.264996774959506],[5.67598472782394,47.27574753150103],[5.641087079328796,47.255902139031384],[5.602110210787404,47.26053058449396],[5.574464664810694,47.25405893079992],[5.572097032797981,47.2684421265039],[5.531653812708307,47.28437396080552],[5.518538729512594,47.30418661945213],[5.4722397259852755,47.31697205065742],[5.4927946655161906,47.33207816699496],[5.487995511763959,47.36201125941915],[5.496952532848246,47.390117858136],[5.477377417366495,47.39529212690571],[5.451397515008267,47.38406251344994],[5.432338107070534,47.438347264883],[5.406499562267299,47.4618228232386],[5.376587470082713,47.46467984209965],[5.399215772340755,47.49901418953457],[5.447063511552309,47.496253655345264],[5.471680911081918,47.527461847421854],[5.486403857432212,47.526968551040035],[5.497062180458679,47.55418172115122],[5.477547427463133,47.60872207289565],[5.425594945399527,47.63207432012174],[5.39980448309253,47.597153502136244],[5.374078595885573,47.60454165278582],[5.37317594209649,47.61838294374159],[5.405745536478159,47.646866141018315],[5.406342872021028,47.673400744473895],[5.4460337898832885,47.67077575883233],[5.482567919490752,47.684602874896335],[5.529778304397354,47.67282923798152],[5.567204936430051,47.70523436852804],[5.585005103022503,47.69979015765272],[5.596682241448045,47.67168603172257],[5.6534056633858105,47.67738242296545],[5.690079801415203,47.684838574927916],[5.684123936651815,47.711966155758596],[5.693342993991239,47.737537821735295],[5.709442412269412,47.745127245662815],[5.705093217659827,47.76911094285444],[5.679969716046147,47.769967881716525],[5.681940162654595,47.806412809419605],[5.699885101970957,47.82390335263593],[5.732629873750381,47.81759710089163],[5.746056257349712,47.82359612703334],[5.744128331452809,47.84867639845901],[5.76119123886598,47.85933449216956],[5.805624457872526,47.847311152266364],[5.851317308296247,47.905988473584586],[5.869970150074121,47.900706913078324],[5.890864473987194,47.910829841401245],[5.884726375202079,47.926047148569474]]]}}