{"type":"Feature","properties":{"code":"88","nom":"Vosges"},"geometry":{"type":"Polygon","coordinates":[[[5.470061704426128,48.42092884036511],[5.510986594146936,48.41821515231162],[5.520280149216775,48.43239263092878],[5.564650216197492,48.441090759508775],[5.6151325162349,48.44043873717153],[5.67902361096049,48.47139115386205],[5.713228409793979,48.46034355947541],[5.7385787703210624,48.466071385805314],[5.765154701602298,48.49649260851312],[5.787024028409427,48.48291106954139],[5.8141526013422045,48.49819514538156],[5.856069666360071,48.506844385585524],[5.8881463197842825,48.49400616317709],[5.903569430927025,48.48024393097157],[5.886926216153374,48.45386839126565],[5.8989549292934935,48.44671533650002],[5.859177083813666,48.41623563816792],[5.879136424841787,48.403869307586056],[5.935989530326643,48.40287986588223],[5.954936403333502,48.387329103706854],[5.944654250679005,48.37581815056828],[5.960066474604184,48.35072931908477],[6.004066285882898,48.36147870334314],[6.025234465713196,48.356969332010294],[6.053418454701744,48.365636733016395],[6.066019115933426,48.359278767448906],[6.097642409054446,48.37159231795909],[6.116723785728533,48.35403844099854],[6.152354370824704,48.38097163461962],[6.147083853210351,48.404242546398436],[6.178419125638964,48.397598877997915],[6.23209682220264,48.400225955022414],[6.260443354875095,48.40640078999615],[6.270297573655838,48.42610067601965],[6.3012588451180624,48.43051921403982],[6.305674808715067,48.41318887901744],[6.3313164158672315,48.404817172837355],[6.422399441358526,48.40728279397748],[6.450365847505534,48.41505383549833],[6.500755073004984,48.41423379500427],[6.5337102147419674,48.4313569295525],[6.583870758203037,48.417225395440674],[6.568134528831446,48.438701194783874],[6.584971476704244,48.46050916362013],[6.62369925487009,48.473102199556955],[6.648289899981963,48.433884724429255],[6.6994983396482075,48.41308754075586],[6.760669183398023,48.411666746640414],[6.768836777292687,48.39954530354836],[6.815166528707746,48.398846200565345],[6.828255495843522,48.41660943907006],[6.866316381673087,48.43184823377053],[6.894133940205172,48.419480410764045],[6.9829860045628855,48.47905957978556],[7.050540315367024,48.49487862493578],[7.094019735640854,48.512952288683174],[7.123165369028565,48.513592265556596],[7.097693072924202,48.48762107861984],[7.11688383670396,48.484885014570324],[7.095873788299803,48.4270217723305],[7.108026244714085,48.376989845150604],[7.0785233740914295,48.35107311533077],[7.120494270164923,48.33334864685793],[7.184818696745765,48.33615437512855],[7.198281537029947,48.31046786102034],[7.172440378133587,48.29748024360684],[7.159489565642163,48.268753563588],[7.147824517541642,48.263892801246804],[7.117505784718491,48.207992451661525],[7.085332018879333,48.18087313160711],[7.058017510455936,48.13770265802238],[7.084162370831343,48.12921286268667],[7.047595780380201,48.08006166786818],[7.029803015827174,48.07190490436478],[7.001883743858899,48.0223990958155],[6.961410552710714,48.000261282588426],[6.943356419805964,47.99795794686154],[6.920755573390488,47.942921686407516],[6.927825935367718,47.90821058120768],[6.900213335139267,47.891191372710956],[6.920047718110646,47.85028746971086],[6.897600863366078,47.8375646687869],[6.846179818400714,47.822945196999186],[6.823538854548165,47.81305372458858],[6.792206691054161,47.830065844691816],[6.784821909572192,47.84962275516846],[6.737768277119198,47.8615661276394],[6.703673452230481,47.88141530820336],[6.643740194905068,47.90503177099352],[6.641076475620301,47.91580834582307],[6.6073149335019385,47.943147742357816],[6.563418085973325,47.931389307581],[6.5421528235861155,47.90261056529581],[6.476305388045899,47.89135525473161],[6.455958900669549,47.90676595953145],[6.43172063760481,47.94381556163065],[6.366159798724643,47.96194440724777],[6.324502244506514,47.94927719089294],[6.27733365541217,47.95380917897212],[6.237987058178878,47.93284210198345],[6.208333130052072,47.93959154159432],[6.193308012990422,47.953186926635745],[6.167984818891344,47.95235039236555],[6.1523863211856415,47.99509120117254],[6.156025724419171,48.00640454629518],[6.131397185816461,48.024084417358715],[6.0411805356860935,48.004423104387435],[6.023512782425089,47.97819459549159],[5.994585023938386,47.957843619961515],[5.9707779241858585,47.95720515925631],[5.9537128429228625,47.93703033418094],[5.937717530374109,47.95093996886656],[5.95951518224341,47.96583761413322],[5.9367444429976315,47.978872441043904],[5.918281347414071,47.9655809864854],[5.918042584312377,47.94735978283618],[5.900112413513003,47.94475092005572],[5.884726375202079,47.926047148569474],[5.850003923490582,47.96283504722941],[5.787280985479235,47.952596973102644],[5.778492027788896,47.97800978811231],[5.793591975095584,47.99070892021546],[5.77774789858366,48.031361923263205],[5.740575630698962,48.050043986724326],[5.65966986503565,48.08486263156757],[5.629010103166862,48.0844163929701],[5.656886341889701,48.120399648852754],[5.68431870758825,48.14504209497101],[5.6822435704493275,48.17570971343473],[5.696740894208173,48.18888423309182],[5.730982683815125,48.18969958329602],[5.719343419026872,48.21284553404126],[5.6877917029501965,48.23418465758911],[5.677420725123087,48.22898238922798],[5.640901189478503,48.242354204929356],[5.65380919650419,48.26852380977062],[5.611652001252659,48.29181533437579],[5.5879967536815585,48.278489865685614],[5.544667324256171,48.31484393016795],[5.52236342294961,48.34085020470289],[5.482149185087855,48.35620132426793],[5.441808221286742,48.33585087730688],[5.418230200002256,48.339827299478394],[5.419996789966145,48.36209610065057],[5.441572019947177,48.38023164680497],[5.408721169498744,48.38310019043649],[5.443801554148948,48.412796111132934],[5.470061704426128,48.42092884036511]]]}}