{"type":"Feature","properties":{"code":"87","nom":"Haute-Vienne"},"geometry":{"type":"Polygon","coordinates":[[[0.8234337839605995,46.128581728488264],[0.8334530172887465,46.16655399123534],[0.815811931396682,46.19671831003433],[0.7957366162231452,46.211086485296406],[0.8101043739851272,46.22788528658486],[0.8480099863968311,46.228752872389514],[0.8454876223484477,46.24206422629179],[0.8614456196703202,46.26163361249219],[0.8853264387584442,46.266088374204195],[0.9004933562268206,46.28684421517437],[0.9326647831388527,46.2820281162358],[0.968413453240399,46.28602244975969],[0.9884486047314835,46.280360998092185],[1.0217534424141506,46.310696552617046],[1.0269954429337311,46.34303442800396],[1.0501574891827015,46.36278094700801],[1.0969021987058567,46.36211145047139],[1.123709186916179,46.349062839671014],[1.1309116151248964,46.36438532205801],[1.1575433154988817,46.38874160395639],[1.1772799568053671,46.38395162215293],[1.2047624195766258,46.387692968021526],[1.2191909673622259,46.36592410433378],[1.2604032451287535,46.37878248650986],[1.3030567860553472,46.37099465262579],[1.3223399070687456,46.38965357258241],[1.3560228953092233,46.40012317441316],[1.3835265726019255,46.374757364316125],[1.4090311642821585,46.3613359928752],[1.4151905101137505,46.34721849587296],[1.4437697350516507,46.30589420737529],[1.4265688116168553,46.298921049134],[1.4036544413446612,46.25990982797783],[1.4168521672178434,46.24087405708507],[1.394145356288105,46.238349230413554],[1.3749003074212893,46.2154511009523],[1.415268536568449,46.177157045823584],[1.4552353294299893,46.18103071472153],[1.467878491573528,46.151750416293105],[1.5052016882428472,46.127461799559406],[1.4919762107249506,46.11473183426131],[1.5048991958425688,46.08815343941205],[1.5429508225169888,46.0765888129599],[1.5317830893571065,46.05816171452662],[1.5491757848158925,46.03541014153877],[1.5363833974668037,46.02629327721946],[1.5385468041090549,45.99742846047048],[1.5648266887508957,45.99711597960844],[1.5764733332307777,45.98099739362502],[1.5661484901291225,45.96325060326457],[1.5325001755915217,45.95280423814569],[1.5299613213195493,45.93182220228596],[1.5472651107258997,45.91683379316217],[1.5782614117742197,45.91727264832772],[1.5791744495987925,45.93040642363652],[1.6150681481078124,45.93195022666644],[1.6397206723679907,45.89953853071148],[1.635996388309483,45.88844297865446],[1.6023488376186423,45.89096810343807],[1.6023984681707661,45.85746515857901],[1.6766374034760068,45.83511402023573],[1.69036360011077,45.84361369992126],[1.7148786249110421,45.8400586312482],[1.7558371847814345,45.855656306428116],[1.7891620911385413,45.83007210551306],[1.8284337256367398,45.80980874385992],[1.8464472547509174,45.809940191138686],[1.8808988285366512,45.797714818456456],[1.8941319437754782,45.7592554835555],[1.875140102478583,45.7327797889896],[1.880957399347195,45.71285387339609],[1.898730779182943,45.69827755120411],[1.904291004939969,45.67774470255675],[1.8799625935579851,45.678180842698936],[1.8751322671973147,45.664894260838736],[1.8264346802695488,45.66513576315906],[1.7858344815104692,45.68266308806586],[1.7763991218328075,45.65846116946758],[1.748060654562327,45.64570341986574],[1.7047914479153132,45.63738765111646],[1.660196676810575,45.60797409516256],[1.6581804847733144,45.595323545490324],[1.624885337381578,45.57793581971724],[1.5938310699115545,45.5771464332939],[1.584891438656278,45.556076867663364],[1.5571958047036878,45.54936632471629],[1.5220914137932038,45.56409475254406],[1.506276371554196,45.55097960357961],[1.4806927011525084,45.565857439236126],[1.4551417227717747,45.55328740957993],[1.450268846192153,45.530397969675526],[1.4120586564349766,45.52809003445668],[1.3896000810911788,45.4961572819304],[1.37157178520687,45.49211445485024],[1.3511118587508797,45.470001773336946],[1.3103931233740413,45.483041180557144],[1.27034342793137,45.4776755159118],[1.2645252348468465,45.45409594836666],[1.2531518386328937,45.44421907802482],[1.209501347214524,45.463084747625864],[1.1865884187192175,45.45529497029879],[1.1641763230169675,45.47552956976588],[1.1358342826377092,45.47086498923646],[1.1197844789851377,45.48778292627877],[1.1359472599446487,45.50640914164488],[1.1672867970396268,45.52482220464761],[1.137684533027224,45.53977362177215],[1.1103236008119233,45.54491026026193],[1.080359033146871,45.533998770505264],[1.0746444865790412,45.54577271138723],[1.0475013530672403,45.55793278314188],[1.0354291459916498,45.573323428579684],[1.0358490435954522,45.600209290253126],[1.0232467983202298,45.60995990299867],[0.9863932565151387,45.604487080117515],[0.9470174998837003,45.61359375507784],[0.8981892208012014,45.59978358036884],[0.8748028110501537,45.62135072197518],[0.8593270163801664,45.61255366991051],[0.8425878139261963,45.58227280988904],[0.8115003322647284,45.575870643461926],[0.8035615373389846,45.59623658602799],[0.7803710896124326,45.591186976030635],[0.751529712610917,45.618323854020026],[0.7630383629892018,45.62833642730259],[0.7758431349260253,45.6675695723418],[0.7636991223155143,45.66825689490875],[0.742191639150923,45.690583187900515],[0.7164967555921232,45.69492986065276],[0.7021017463764117,45.68712391220238],[0.6542322548355602,45.68870460553755],[0.6297424639524398,45.71456998977268],[0.6454223576561761,45.717511285932694],[0.6525242742739024,45.7404698575335],[0.6884232598945583,45.7604002541581],[0.714888400126834,45.76311968057406],[0.7079458275965803,45.79550918085823],[0.716439805978218,45.80561793866404],[0.7470964755206753,45.80309000421788],[0.7721413751783613,45.78762409365665],[0.7822321483214059,45.8210820958808],[0.7979907883874932,45.83267807863906],[0.8273731927551746,45.882747942075014],[0.8133141897835577,45.89867390107227],[0.8222125888611419,45.93208646787984],[0.8594760522394275,45.917997097288996],[0.8847207937372841,45.923723788266166],[0.9227140883044904,45.95301038798378],[0.9425919960124763,45.95743607843122],[0.9256254984735036,46.01045396377162],[0.8940345525336028,46.02314912814255],[0.8670363318108323,46.01842834189512],[0.851093282263786,46.03464824766331],[0.8179096763959527,46.047878116483695],[0.8269002995768702,46.06393247093984],[0.8188984576633332,46.07740847428548],[0.833691291703567,46.10635630894394],[0.8152372244416768,46.11576760044673],[0.8234337839605995,46.128581728488264]]]}}