{"type":"Feature","properties":{"code":"92","nom":"Hauts-de-Seine"},"geometry":{"type":"Polygon","coordinates":[[[2.2909735732251613,48.950966788077196],[2.3269700232985637,48.94536493100808],[2.3363515897545497,48.93235062393098],[2.3198186459199985,48.91593565477114],[2.319884458526643,48.90045886733916],[2.277487004862913,48.87797011937597],[2.258472586492028,48.88038999464371],[2.2317363464837308,48.869069480870024],[2.2242245702250814,48.85351605360998],[2.2790573794463054,48.83248998498127],[2.3318953139887446,48.81701271305569],[2.318696288355829,48.78799561087479],[2.3258120232145614,48.78191098020334],[2.3087015923862384,48.75541506900493],[2.3207180175230313,48.74875623508064],[2.314443701257945,48.7304256109259],[2.2649238096212745,48.76144968716666],[2.2329784335715455,48.76619570460062],[2.2265593271545225,48.77610203162176],[2.2026350450801604,48.798403323102875],[2.1829398770998654,48.7972269838604],[2.1766744128227886,48.81380509870073],[2.1515778037276103,48.81702039834037],[2.1458733412695294,48.83602003450691],[2.1528691414227357,48.87333985214219],[2.168378401515456,48.8950779335488],[2.200591009269503,48.908679329890454],[2.2687243837962194,48.94657952905197],[2.2909735732251613,48.950966788077196]]]}}