{"type":"Feature","properties":{"code":"50","nom":"Manche"},"geometry":{"type":"Polygon","coordinates":[[[-1.1196225402660513,49.3555679898469],[-1.1134631010458858,49.32794637083092],[-1.1395424010513058,49.30987085975071],[-1.1400966460602808,49.2973935275135],[-1.1215034590044193,49.28156614073767],[-1.124678305514618,49.26791880332945],[-1.0787006256545217,49.23459214406213],[-1.03400192072734,49.218462649963996],[-0.9754585570109295,49.19216218144188],[-0.9205699599745509,49.221065178841805],[-0.895819782126535,49.19807825865292],[-0.9373335821349595,49.16152234602555],[-0.9314412531318438,49.14557476084313],[-0.8865942987279166,49.12943404142505],[-0.8784554052403395,49.117103346563994],[-0.8799553096857228,49.088797685340666],[-0.8703864178242734,49.07831283220894],[-0.8845207940960534,49.03871404252527],[-0.8623508752010071,49.034658294620314],[-0.9061381953887807,49.006106279376766],[-0.9136451137312932,48.99096142683413],[-0.9427299538328557,48.967706984870034],[-0.9557321879384142,48.966234060803075],[-1.0226214673729113,48.927090137671044],[-1.0137402112544927,48.91595272397592],[-1.049194217272288,48.89402994339517],[-1.0711805139009567,48.87028515761762],[-1.099957594999108,48.86805030812276],[-1.1553820376155783,48.83646333089034],[-1.1537697728059082,48.822236045223256],[-1.1038400489666345,48.814802746543315],[-1.0894728333388959,48.781514884249376],[-1.0587344201065705,48.7733510406527],[-1.0374406727580494,48.78252947303227],[-1.0126842102843516,48.77178311290127],[-0.9510500649738302,48.78923788485761],[-0.9194507448733115,48.76990119354358],[-0.870843068323719,48.755747083763815],[-0.8409353560137922,48.75222016383323],[-0.8492246178903684,48.73075569433634],[-0.817893287414865,48.73117743116182],[-0.7917739207703051,48.70515869262072],[-0.7354985764702292,48.68396472383358],[-0.7733632741625079,48.65747680031274],[-0.7524222705829918,48.62213618876707],[-0.7517442676401291,48.60131936977811],[-0.768359672906354,48.59032984724143],[-0.7741715461672727,48.56267832832823],[-0.8057094829569462,48.54987498304548],[-0.847670683669462,48.52112645892402],[-0.8603629154348681,48.50145849652254],[-0.895759002734999,48.49483509679017],[-0.9223589824244613,48.512387467627654],[-0.9563792193607108,48.5166180795957],[-0.9722539090536432,48.49459678797466],[-1.003998750116345,48.489170559999316],[-1.0605549892053183,48.51534444794686],[-1.0701645143702043,48.50849381419032],[-1.1305430914657242,48.52170438546665],[-1.1470794109416749,48.517497772579],[-1.1709940931325373,48.53107346572728],[-1.1883677623098592,48.52868744833374],[-1.206555726308375,48.54220594454138],[-1.2722484935647256,48.533924823055],[-1.2792064911793741,48.50916990134831],[-1.3286586444430455,48.49624141596003],[-1.3446860862323986,48.47306856926301],[-1.3825547062366061,48.4568090552251],[-1.4291375679083818,48.46255700303843],[-1.4492619036481307,48.48610480553381],[-1.4899474351423645,48.4893748476061],[-1.4956341385339116,48.508901592854826],[-1.5195667662578034,48.54001612578908],[-1.5332845735947223,48.548008242217605],[-1.5189153941473403,48.56659421958314],[-1.5429924815935763,48.580444133540496],[-1.5395886706131567,48.59990995187043],[-1.571087121326364,48.62644574305228],[-1.5435435350637288,48.63121279257955],[-1.5156463864153509,48.618246538328954],[-1.4771911456334617,48.618735940477464],[-1.443640368193959,48.62752557033798],[-1.3931950000571642,48.650524383670096],[-1.4858341115383116,48.68638581019091],[-1.5081675203931897,48.69117348999072],[-1.5319288351465319,48.73102057677593],[-1.5601811084952157,48.73546601099355],[-1.5744067767391592,48.75184944838184],[-1.5689116621961623,48.80265414493922],[-1.5744419562050678,48.821684938652076],[-1.60492034674064,48.83789166867906],[-1.5871695543001123,48.84645691414395],[-1.5763778734243568,48.86622956887365],[-1.5696724678452931,48.899023227002154],[-1.5515508912728522,48.90833449236361],[-1.5434217971126396,48.93102731412556],[-1.5621121920567587,48.94101750482779],[-1.5607059456223331,49.00148291031971],[-1.5937932678762967,49.022503267429315],[-1.6094115242692357,49.07927811770436],[-1.606935957044734,49.11003133842661],[-1.5947491074806148,49.131932809532245],[-1.6073172609984514,49.19664548258766],[-1.5892834706047838,49.23342782862976],[-1.61699549946473,49.23161226126529],[-1.6316904105955683,49.21422567935813],[-1.6541578497297265,49.241447844599655],[-1.6650285987196094,49.265558278699984],[-1.711168264458309,49.32509928438261],[-1.7242753116935,49.32710827112396],[-1.7647207703926648,49.36355636410871],[-1.8070415201028562,49.371883988182944],[-1.8236585668079848,49.4014702879999],[-1.8267724913131993,49.452917249373044],[-1.844605855792456,49.47096122199953],[-1.8525981237513987,49.51038685631441],[-1.8819329337834734,49.519310940029676],[-1.8856955118557936,49.54039147246037],[-1.8579284299662393,49.5515291506756],[-1.8410273136069895,49.57173433702396],[-1.8451411614330706,49.61908992529084],[-1.8603000418191267,49.65019279204103],[-1.8956952778084324,49.664931836942685],[-1.9461788272965446,49.67434830154208],[-1.936439146470204,49.69375892397446],[-1.9472764301188112,49.704932281313916],[-1.942245186733018,49.72555529334811],[-1.916516630754937,49.724878374537525],[-1.882912866788183,49.705706386310766],[-1.8587301287976281,49.715623305593],[-1.839532798595857,49.71155454173644],[-1.8228561882429963,49.69031481833081],[-1.7745875090438277,49.68086868404481],[-1.717807811993846,49.67984522346912],[-1.6867515873282075,49.67307140423291],[-1.6724172017020642,49.65765473955586],[-1.63285141798923,49.66064611404181],[-1.6246789365290826,49.6464653967003],[-1.520239237616472,49.65741709322276],[-1.4858029063728724,49.669313639920425],[-1.4710805783093919,49.69667602847381],[-1.4557412827864928,49.691326221246335],[-1.4211576721789985,49.70370298113619],[-1.3685551471066846,49.706629617440186],[-1.2998499192449107,49.6935189965057],[-1.2679290471720517,49.69532738213563],[-1.271008796143279,49.6797055830237],[-1.2391814229357874,49.65240173891874],[-1.2290598170197164,49.60871341882292],[-1.254286601197548,49.61265560522737],[-1.2662663845442874,49.592850277700535],[-1.2962320370638967,49.58317124235064],[-1.3091674328357494,49.552607084023585],[-1.3063594927131816,49.538927340535665],[-1.2527076587085064,49.480600121491854],[-1.1925632637620527,49.432177811410874],[-1.1680020729875382,49.408031628446786],[-1.1617336960367475,49.391748947534765],[-1.1785816005847864,49.37845801413797],[-1.1639520107160866,49.36665848650392],[-1.1196225402660513,49.3555679898469]]]}}