{"type":"Feature","properties":{"code":"46","nom":"Lot"},"geometry":{"type":"Polygon","coordinates":[[[1.4482615439322117,45.01931315867405],[1.4763205638048942,45.01844899314434],[1.4837421057409195,45.03086980932878],[1.540647783113957,45.04603881243799],[1.5520395032539256,45.028473972211486],[1.5763138744588663,45.04070102069764],[1.6260183242774706,45.03386004522471],[1.6509837683346409,45.02501608647879],[1.671411146688222,45.00429795565169],[1.7026624491356241,44.98782737758246],[1.711027619735059,44.967294403504056],[1.7506251087427585,44.95495947953577],[1.753916747572787,44.94094903140229],[1.7746083879446204,44.92353891590074],[1.787069584525844,44.93223900793819],[1.8239145263410468,44.92768244845694],[1.8311741137699509,44.945489022453565],[1.8862717368855733,44.95606762209103],[1.9081561620078975,44.97842677184467],[1.9390707704475676,44.9732241453493],[1.9407191588474306,44.95514088145865],[1.9816624813968071,44.97286584256669],[2.045437777493513,44.98366934976922],[2.0629142919730623,44.9765064055156],[2.080180633811985,44.95404979923148],[2.0786199838878985,44.93249880393721],[2.1081096992344133,44.91064323067309],[2.0864964046718506,44.90108537322011],[2.093387343737472,44.872914160665985],[2.1398005030167444,44.82382515219366],[2.166838986075325,44.81171436877482],[2.1669553074507704,44.773143530159075],[2.1534919160094748,44.753107579025226],[2.1473467852230246,44.720872889725285],[2.1526517256816478,44.69982758494574],[2.1791523387104577,44.6744488247748],[2.164998532757633,44.66315186421785],[2.1694177928364127,44.63806619142595],[2.207475285530841,44.61553167652982],[2.193605072158649,44.585919536206276],[2.169814750379143,44.5914152242936],[2.148458414466492,44.57058186258418],[2.1268932861145236,44.57892133300102],[2.1052735405908587,44.5712308351366],[2.083044956953958,44.58742511394722],[2.057369025284242,44.58290555966192],[2.020316538227445,44.55550186478567],[1.9885498908449635,44.55118208825662],[1.9562304028473732,44.5184522370375],[1.906117994440278,44.499870752169386],[1.8902881654773012,44.50588875517498],[1.8799562054517298,44.48383493649415],[1.8615755393539462,44.48731998198506],[1.83959954163412,44.475900168970036],[1.8526882779181688,44.45921955120797],[1.8505304217987393,44.435510430042704],[1.8731857077141336,44.424139807111516],[1.8675016882668152,44.39806363608371],[1.9068426542084775,44.364872665176094],[1.882082857535903,44.340065248844205],[1.826465277116675,44.32358769097796],[1.7918320747165322,44.33342155767223],[1.7745395287661794,44.31236243680847],[1.755361660673192,44.325821897882314],[1.6995029158165784,44.313814281404504],[1.6516207663148532,44.286805806785146],[1.6422791348823196,44.270774261083055],[1.6156813561412897,44.27840070659787],[1.616906636210223,44.297528790899236],[1.5707268227394882,44.30150251962804],[1.5872537911119244,44.24900550804784],[1.5752251099432597,44.23873127310143],[1.5417577750229903,44.22781299250401],[1.5290793065479253,44.235377109638385],[1.5096978064892344,44.27344945044928],[1.4951499133483663,44.27109950643376],[1.4732207948805132,44.28421134803531],[1.4531769569737827,44.26735663623184],[1.4535628583819051,44.25411881791156],[1.380368119687147,44.22485773308437],[1.3567953753702289,44.204016861252555],[1.3437890556280911,44.22428502732317],[1.3179163572182218,44.23295776845425],[1.2842650178929034,44.23519209123777],[1.284277976591082,44.25174919798396],[1.304059855892509,44.26295931081006],[1.2978031763342432,44.29486040345977],[1.2680258772309094,44.28148431232658],[1.2379955233318247,44.27589295439949],[1.1957883877382156,44.281420540652135],[1.159346881110355,44.3106276809867],[1.1219514922437734,44.31674824624536],[1.1134152586304344,44.33885107169266],[1.081222945573455,44.354384743572695],[1.0935208798901315,44.365961836772776],[1.1274427936033644,44.37298221773624],[1.133750630714704,44.39298864277138],[1.1067222137699213,44.39234711511698],[1.0640838318649115,44.37851326503539],[1.0514255555669048,44.39209372311952],[1.060650411597149,44.40361122945944],[1.0574884025751128,44.427669679196114],[1.0299753681284962,44.43361948161042],[1.0213774342184947,44.44445120337611],[1.0230092810371172,44.47543907306224],[1.0090253989657336,44.48004110906167],[1.0162314531417111,44.50587117332308],[0.9824267786867313,44.54548429761793],[1.029736286682771,44.551976017460866],[1.0716976200447952,44.56784537769172],[1.0751408247250982,44.577324783565565],[1.0957075874791038,44.59024337388754],[1.1537498404734852,44.63882020403],[1.1466718447537778,44.67034606645626],[1.1688078503397572,44.680017048529535],[1.22455005545425,44.6842663489296],[1.248270791913345,44.70770636912258],[1.2794274292251306,44.715831247801496],[1.3160508396721997,44.74037462834149],[1.322817940494351,44.76513318662047],[1.296243021698294,44.7778123630601],[1.2996352435270742,44.79691953728407],[1.3281098679785208,44.80652884504556],[1.3641029713426986,44.81156818641523],[1.3614038259537624,44.84079526684299],[1.4019390596723829,44.849446039670674],[1.4048386704545461,44.86234716877302],[1.4397519128973866,44.87494627874561],[1.4398566373102875,44.8889508179699],[1.4106099419064448,44.90896015297044],[1.4335895146429747,44.93830164881089],[1.40926521871603,45.00600178685703],[1.4482615439322117,45.01931315867405]]]}}