{"type":"Feature","properties":{"code":"91","nom":"Essonne"},"geometry":{"type":"Polygon","coordinates":[[[2.2265593271545225,48.77610203162176],[2.2329784335715455,48.76619570460062],[2.2649238096212745,48.76144968716666],[2.314443701257945,48.7304256109259],[2.3207180175230313,48.74875623508064],[2.3546837090965482,48.73856509020945],[2.3707067322771356,48.720175922532974],[2.4141357629081504,48.71799549181414],[2.454965343815732,48.72228146116879],[2.5035365695581286,48.735211482171685],[2.5157508385679277,48.72893861768784],[2.531076672373326,48.69978570765512],[2.5538667808447078,48.68832401270366],[2.571660318442073,48.69201409164602],[2.585373689362236,48.67939805001862],[2.544818846722052,48.671181815072785],[2.53361600680745,48.65733138882678],[2.5258433805130944,48.61310782203827],[2.543776514406961,48.60384977114558],[2.5182770284128475,48.5832577878723],[2.5198364478476627,48.5625203315344],[2.49952467433224,48.52523904800114],[2.51535674995086,48.50615222035927],[2.501886311020425,48.48476669856557],[2.50765489240467,48.429543907057045],[2.527461927309532,48.4157156753841],[2.5216135704659886,48.404932172570405],[2.46921772462766,48.37645004114287],[2.4298322285044196,48.362015783117755],[2.4255796854392964,48.33725297618987],[2.402664267131608,48.320719459421184],[2.3633118415981462,48.309600437933916],[2.3277014892177683,48.33305786731142],[2.312590884489921,48.330802741661444],[2.2954192430595457,48.308226039086286],[2.238046845675527,48.316373357629175],[2.223911064819703,48.3364180215832],[2.2022493722769347,48.344596745334684],[2.1806941723291215,48.31168043030938],[2.155707101498331,48.30449560310474],[2.081503651069427,48.29360440985604],[2.052708364877964,48.29547390947902],[2.0438104559378143,48.2864493366448],[1.9940847180593788,48.286585877943075],[1.9752916566344318,48.28719843612737],[1.9592272366957604,48.308689574530625],[1.9799848326906437,48.31848007972407],[1.9699915637784469,48.33969146951863],[1.9868210109251592,48.36214189229105],[1.9734600276085819,48.38883055198841],[1.9765777946992387,48.39938447447991],[1.9258935288275238,48.412738189076535],[1.940657409608177,48.42520626181189],[1.9221489648373706,48.457600286064135],[1.9149145708790403,48.473854949789406],[1.933377950693106,48.482146422725215],[1.9460308303104135,48.515862147920664],[1.9674261909808515,48.53307136184394],[1.9340684230182927,48.54810690246857],[1.9378872442847588,48.562931040710545],[1.9787832030076382,48.553654167165384],[2.01757406029729,48.55759738742344],[2.0172296562124665,48.56946047379915],[2.035741451799255,48.58886342431221],[2.034508920154608,48.603498748150024],[2.0602445240702307,48.6175941143781],[2.0178852678544255,48.64224227868909],[2.0456590375105823,48.687570739614664],[2.0820789629661083,48.68544592956703],[2.1103326928214208,48.714381141190366],[2.097999010182745,48.73436502883337],[2.1349798974354277,48.737139276053675],[2.150675004182983,48.753712115449396],[2.1820096609166937,48.757573640869396],[2.2027216574242257,48.771358218371454],[2.2265593271545225,48.77610203162176]]]}}