{"type":"Feature","properties":{"code":"42","nom":"Loire"},"geometry":{"type":"Polygon","coordinates":[[[3.8995333931893303,46.27590543921817],[3.9094002908986636,46.25772625699907],[3.8901323277345172,46.21449064143864],[3.9135641774619283,46.20692040053432],[3.972545422490283,46.20271202778806],[3.9817875015959623,46.176336440402444],[4.0304983004444725,46.169772418692666],[4.051958867651804,46.181688397585496],[4.104090700200876,46.19839492284894],[4.133393277727922,46.17732129820146],[4.188443814996147,46.17512895597164],[4.18453492610967,46.188021124528625],[4.207908679923857,46.194835796707316],[4.224689888463,46.177995310819746],[4.257372590726873,46.18473517832983],[4.257119428326002,46.157287705187656],[4.2818305705425415,46.156597324529926],[4.292313251311721,46.17248235017095],[4.3157404325049695,46.17203342079279],[4.362151387631787,46.195596184477786],[4.388079599211451,46.21978851671503],[4.422612723182659,46.2025561207876],[4.395991931108271,46.18913351748368],[4.438590902796802,46.16787882969539],[4.410785750373344,46.13662430946693],[4.380275754005176,46.150004219111246],[4.361588426954295,46.13845862089166],[4.321566636697419,46.1292227390098],[4.306153355734185,46.10204949110961],[4.309660723089374,46.079736904576485],[4.285739765481103,46.05353257676386],[4.254288650960761,46.05273202617171],[4.262156206087431,46.0353981231568],[4.312509748657016,46.00559232184622],[4.300566276670547,45.99131120846098],[4.249195496150678,45.9953837193519],[4.298100713331312,45.96566297835176],[4.293912264205216,45.95339953385285],[4.34518756578921,45.928106708428984],[4.34541858135298,45.915369145765204],[4.32322164118184,45.90393193479993],[4.342152967764877,45.87717650941675],[4.357305400190197,45.867818212138175],[4.396210392438567,45.860049159409144],[4.376223580241809,45.82463846230085],[4.375871288793124,45.782079121045285],[4.3493620257561165,45.77130357540371],[4.373503657509452,45.74949633164302],[4.397995092909568,45.751428954900874],[4.3738410092708815,45.7118281564325],[4.365920195904948,45.67115339597],[4.391675108287153,45.6629035906777],[4.410284239143385,45.632050806327356],[4.440485898400948,45.62348155684874],[4.44944567617998,45.607317262662356],[4.501195680541532,45.585509531030695],[4.521074741734986,45.57279549516226],[4.568607549526933,45.583472510511605],[4.582929001860563,45.57473357946033],[4.625186588148891,45.5690598812714],[4.636946590180618,45.54563402439237],[4.672311111048541,45.5702781100426],[4.684974417954742,45.55444421417092],[4.6505036163787885,45.52825095564595],[4.661754663860458,45.486753449800155],[4.700228209366997,45.478251319676815],[4.721827573373719,45.49439543048306],[4.739409870606086,45.48659464798714],[4.756935570818616,45.45570734978024],[4.758664794548146,45.43109160083594],[4.744760477737733,45.42132931211987],[4.755804203494391,45.39641527650575],[4.755996992712002,45.36567226076598],[4.725825842131706,45.36180904894751],[4.7004091166444315,45.345742863727835],[4.680129607940992,45.34625617395863],[4.614497435388506,45.30983662841341],[4.621039470679837,45.29121612407326],[4.598597055879653,45.28948570433069],[4.590638055650433,45.27303681774206],[4.602422910281466,45.25170405771358],[4.565520406201406,45.247958129182955],[4.540549370042042,45.23475108941549],[4.483134616383878,45.23644648192782],[4.418571110077435,45.275424101661066],[4.369667772097112,45.26036388974016],[4.358165874707906,45.2813072908644],[4.365602171309155,45.30106532546477],[4.33189877989193,45.31806910411131],[4.36629429373957,45.337097928842844],[4.346191897357872,45.36229645766761],[4.308195090413248,45.370806841748106],[4.290739610203065,45.358581485433724],[4.271696633410009,45.35982598379431],[4.244524979129677,45.384914673287405],[4.226432364238226,45.389716036582385],[4.193308884127496,45.384562275069875],[4.17881972832703,45.39254145153728],[4.149768797104822,45.38455824320961],[4.1540322116079285,45.36460333540307],[4.121367666873119,45.36908660993613],[4.083541528780984,45.358094161343104],[4.062397034876466,45.33910649399259],[4.043265536912594,45.355946107018674],[4.016059141026905,45.328622335814885],[4.002609357264608,45.355903224229436],[3.9859297079746523,45.371846404559236],[3.937395868986861,45.37201990198935],[3.9169404058247803,45.33940170910745],[3.897408424881887,45.3570837817156],[3.8892315945582094,45.39452005881283],[3.899187761612733,45.410307649293415],[3.9601432570462634,45.44344571733884],[3.972751884382159,45.46143771943691],[3.966604497321932,45.472189147410184],[3.9844000736338567,45.49411557572152],[3.964839538556207,45.503218682032596],[3.9459486995868804,45.54447980125801],[3.954348408158434,45.555962683335494],[3.935548097136248,45.57675205994888],[3.903596234209209,45.599022466324875],[3.8846825953282202,45.60275694217335],[3.86173367803394,45.62272878464922],[3.823453198078696,45.63241694241682],[3.776946294898936,45.6908405345388],[3.7827600945783164,45.706694635321],[3.7586724976385866,45.74600532878878],[3.727105164096888,45.75553371264516],[3.7310653997028584,45.77483343230172],[3.6906934795455935,45.79217071537155],[3.7116170222098575,45.79955113302971],[3.72534244009261,45.82707398650144],[3.7315424899852925,45.87016039642116],[3.7543707578917007,45.88603083611283],[3.7234546463589506,45.92186686966796],[3.6940178008729885,45.930732356412385],[3.693841059729285,45.94949142878095],[3.7088966387640045,45.97378446779926],[3.741274273248646,45.96600368355748],[3.778005233789911,45.97179985823387],[3.8237895718712145,45.98735259327228],[3.8283904088914604,45.99948536067427],[3.80676406021388,46.04562293029198],[3.806993754653765,46.061272645914705],[3.8218816515656036,46.08798379604504],[3.8025614332413635,46.11032928945375],[3.789761994058612,46.15485133205715],[3.8078602164262896,46.16159515953333],[3.7907469501208273,46.18453497582482],[3.7902842093787883,46.210905673837914],[3.768246928941596,46.237829248308365],[3.802699984915529,46.23850996581434],[3.8048868330812957,46.25485708711847],[3.8690933059580366,46.263723494024156],[3.8778066858099134,46.275939918983156],[3.8995333931893303,46.27590543921817]]]}}