{"type":"Feature","properties":{"code":"66","nom":"Pyrénées-Orientales"},"geometry":{"type":"Polygon","coordinates":[[[2.166053682054993,42.66391836976526],[2.176204944795001,42.65250633141794],[2.246516821037239,42.681202948030595],[2.255205048620104,42.69745713836985],[2.297058357278089,42.70099502933411],[2.3220061203917695,42.7077915762024],[2.3573542563069108,42.730614151700564],[2.352474899591023,42.76247835717117],[2.3429452475243857,42.77535071033062],[2.343922918928302,42.8012178810544],[2.3335924644994988,42.80438237482061],[2.3271160459779234,42.83744277583184],[2.382167466090285,42.848465968894374],[2.4524747607108766,42.83693276356475],[2.501496510152125,42.85114590958063],[2.5303296696211732,42.84330870449564],[2.551517478135935,42.84669055878725],[2.5979979640054287,42.83710010473599],[2.665129702318414,42.836638227667535],[2.680460074219605,42.83066919623472],[2.7392695852260918,42.83704183830966],[2.754406508896001,42.85193277009744],[2.762151578941423,42.87367587089044],[2.789053819259419,42.895988728811574],[2.8163773260069473,42.899968720008566],[2.834726633088116,42.91226461376727],[2.8652738803519484,42.91834143726101],[2.8804319367618048,42.90142601782671],[2.9068743640845423,42.89581380072565],[2.9176652105086776,42.88490560680479],[2.976233697434438,42.870285782323506],[3.043510805290506,42.8381501142638],[3.039269430432411,42.799791836114],[3.03866210585288,42.73115943015552],[3.0354222951214984,42.678248196502366],[3.037082831998312,42.62608415053007],[3.0451908300933015,42.59457922768011],[3.0496064216977565,42.55014015956973],[3.0571198441096596,42.5372092844744],[3.0868940108835354,42.524055488048134],[3.1056245890262795,42.525593780023925],[3.138121628181151,42.51489518727693],[3.1229727483854868,42.50504339919354],[3.1331116175574936,42.48125477575951],[3.1530067352162088,42.477776284883916],[3.15732898680088,42.459432454750015],[3.1741805499682005,42.435585934319825],[3.120829508201149,42.43800580748714],[3.085437328583658,42.42550988123317],[3.0490406236305536,42.45554617467689],[3.0407621096853417,42.47314100863664],[3.0125781244014846,42.46652317375274],[2.988889553374083,42.4738313841575],[2.9689921541918216,42.46579130273507],[2.9470269070718653,42.481801093577864],[2.924481044394249,42.458389170964374],[2.863516909035993,42.463685965835424],[2.8414109625242325,42.45852270899326],[2.814839563839402,42.43879437507126],[2.799242281304166,42.41856867596309],[2.771995685896969,42.412356726628104],[2.7532002138160787,42.42535725427018],[2.7163026018456495,42.420861005709845],[2.6737509151182475,42.40452391803864],[2.6556410417562404,42.38843162789706],[2.6717654689105332,42.34117820769783],[2.611297522207988,42.346807721180475],[2.5778245531567956,42.357933234601866],[2.5545994607392077,42.353892840228475],[2.540046438348588,42.33376082281662],[2.5003079444422434,42.342911142856316],[2.4829628754848416,42.33964655377135],[2.4675348643249904,42.35892180847505],[2.4334621567522774,42.37709101786132],[2.435482130866189,42.38887656698712],[2.3491816579437708,42.40674798977397],[2.3069539494770965,42.42879201328318],[2.2923910299124817,42.422979357750634],[2.2567190982902723,42.43844036451443],[2.2466766500833426,42.429497661909714],[2.201063478390105,42.41629324758647],[2.1563417567377465,42.42342744508062],[2.128866046268498,42.4124914459525],[2.1151215213189642,42.38204970639233],[2.08954757389964,42.37371732752677],[2.0835981014554434,42.36270013981574],[2.02349649688789,42.35522663210627],[1.9859066164117019,42.36204816679774],[1.9605413830047367,42.39193435465887],[1.9582842085598802,42.42404869009333],[1.9417298315540916,42.42966577271863],[1.9353121382830816,42.45358596021788],[1.9166429808948604,42.44630507104221],[1.8854520225275206,42.44929175065031],[1.8814289746097121,42.459713683305495],[1.8498223891207548,42.46731551034911],[1.8433623972460949,42.477143601221265],[1.8030674804478923,42.48955493039855],[1.7632574952590807,42.48684429750053],[1.7312197831734901,42.49274331055303],[1.7262968840513657,42.51739946334924],[1.735934655538207,42.55051896327486],[1.7548048574820891,42.56487435248866],[1.7861250110638969,42.57362343207788],[1.8010033491172206,42.57239786027001],[1.8347684364358996,42.58353364671248],[1.8744850028357225,42.58140598425563],[1.907286118231748,42.60862947926328],[1.9361188221910517,42.60541384031619],[1.9521234354600119,42.61830326460022],[1.9722426969695992,42.61714092425327],[1.9969224698605978,42.66006561399484],[2.0187920574337195,42.6534170353211],[2.0470193906647904,42.66358965489304],[2.1114664198303457,42.666032470916626],[2.127356949655341,42.672313305937074],[2.166053682054993,42.66391836976526]],[[1.9600558256458676,42.4704521123199],[1.9598031610861055,42.4532613568093],[1.981341106824749,42.44752720529524],[2.0126921284863117,42.44834353508286],[1.9865324547331493,42.475759236261595],[1.9600558256458676,42.4704521123199]]]}}