{"type":"Feature","properties":{"code":"56","nom":"Morbihan"},"geometry":{"type":"MultiPolygon","coordinates":[[[[-3.4217944600697368,47.61999952861919],[-3.4406738530114698,47.62744679435384],[-3.461909001466569,47.62034681911687],[-3.507636790362259,47.64059795161403],[-3.49694135188665,47.65381152152095],[-3.4294813948989478,47.64229749186373],[-3.4217944600697368,47.61999952861919]]],[[[-3.1940520278217033,47.365886589187845],[-3.1558608908337975,47.36108442084754],[-3.1396408742776,47.32984432149179],[-3.093118374110732,47.31513470942471],[-3.0582391297313816,47.31171761648738],[-3.075226717105766,47.28765950170699],[-3.0952043253326664,47.28316064947407],[-3.1601157231427477,47.29225940386197],[-3.1676397818540765,47.30159326598069],[-3.1961744739708213,47.293731303533484],[-3.2210154756876954,47.29481986735795],[-3.249090302439361,47.31611992695789],[-3.23967936511255,47.32311099309081],[-3.260498308082758,47.35272839079793],[-3.260984257345955,47.37200040038536],[-3.2196122622040786,47.37940035282299],[-3.1940520278217033,47.365886589187845]]],[[[-3.523004293499609,47.84914685714251],[-3.5117214211485104,47.83199375246112],[-3.488375735328993,47.82369125414433],[-3.4584776087007003,47.83672369691625],[-3.449172314379866,47.861897916786695],[-3.4040114963344528,47.86615562756545],[-3.406618446285296,47.917155590887866],[-3.3870295747062062,47.925240278144464],[-3.4015047820862296,47.94296944095624],[-3.3922406780637284,47.95650358632056],[-3.4128264844188565,47.9741964735994],[-3.4627039996577236,47.948470485246176],[-3.4813997640454386,47.95187230610157],[-3.497303664400367,47.97663709189755],[-3.5156118733539357,47.97536899639446],[-3.5552758457516087,47.993098470462],[-3.5813379803683882,47.98707045002737],[-3.640231533075075,47.98524271311537],[-3.662606521516704,48.02008121333488],[-3.675286774640338,48.059296687637904],[-3.69816707482359,48.06231160032721],[-3.7032714693453843,48.08734402006448],[-3.725890623875097,48.09496610205945],[-3.73401071349441,48.11285300326305],[-3.717299501973206,48.12152104588753],[-3.7155113160954,48.14222278424499],[-3.69467505545132,48.15091429371495],[-3.6518557265570566,48.156583426737576],[-3.6283881260752544,48.1687248221492],[-3.564838973733329,48.18574694305737],[-3.5226593775760193,48.17866367131642],[-3.479531508235686,48.18604551951424],[-3.421483221253355,48.171908070532616],[-3.4365241396101114,48.15548652160798],[-3.412343177084257,48.14703755651635],[-3.375090054291556,48.16304435591315],[-3.344702681056185,48.16988498065198],[-3.3161758750965893,48.1545827022414],[-3.299596147833247,48.15481185209133],[-3.272244339627829,48.14001476484374],[-3.252339548077637,48.14912522090896],[-3.2153961448986896,48.148219713915],[-3.197060119674698,48.16274313777778],[-3.1552540693335707,48.15849094352833],[-3.13949669814907,48.16369070727257],[-3.1303749671924512,48.19836233856125],[-3.0406075793447904,48.20331232171781],[-3.0139527993300925,48.18705096969819],[-3.011766723688266,48.172146259772674],[-2.987721150165838,48.15963608311985],[-2.939688841727517,48.17157869268649],[-2.902695082695001,48.162745095709155],[-2.850803362250115,48.14117007726401],[-2.809828548228586,48.146257335704156],[-2.781951132488677,48.12057973083874],[-2.7579911570321793,48.11080992160437],[-2.702496597157526,48.11801355272737],[-2.6683740921478765,48.1327428357553],[-2.6531526316222527,48.118092931008704],[-2.6561723624005746,48.08428809143894],[-2.6733315926174024,48.06327971694363],[-2.6708865594355458,48.0502796096436],[-2.628212989216798,48.03379948794944],[-2.5808040837522404,48.06711154950066],[-2.5484346321898643,48.07671678652329],[-2.5493015028073205,48.09906568300373],[-2.516390296656647,48.12795387925489],[-2.5336627078715,48.156856696914886],[-2.488996903351025,48.15527484508064],[-2.457460857137994,48.163558679343076],[-2.4492428069717214,48.17301268121088],[-2.4070872062503708,48.167846923022466],[-2.399892263143436,48.154593831126384],[-2.375704866327887,48.141440597184854],[-2.371983930719517,48.12276022571531],[-2.321067331808052,48.123313308346624],[-2.307724031505891,48.136767145944454],[-2.287278430400511,48.133745563458476],[-2.255541810894401,48.10943651832076],[-2.255362117704863,48.065686457906594],[-2.2332446439270166,48.07562787634504],[-2.1873980178837424,48.08098581530162],[-2.1703797438923407,48.06358155989515],[-2.193720023024239,48.05137966801874],[-2.2418711140864542,48.05284164383506],[-2.2795950136703538,48.02636073132026],[-2.282925404888046,47.99091881499263],[-2.2328964298568574,47.998867256915695],[-2.2048365524509523,47.99406221955531],[-2.174134646718617,47.97976235737829],[-2.143950368919052,47.983469165776214],[-2.1112032705184025,47.959278246467555],[-2.098673563613805,47.93553710123405],[-2.079088544973962,47.91952249839454],[-2.0847410993122524,47.90544356892739],[-2.104913226347623,47.90237571011746],[-2.1162985684590643,47.88095628988424],[-2.0963111903663836,47.862554271425815],[-2.0912481690997526,47.8434473982296],[-2.05159236139944,47.858773023325405],[-2.0516011501156974,47.84056453938214],[-2.035760594626103,47.83230046155979],[-2.0495260703928677,47.816917397929046],[-2.07046358794415,47.81140390317735],[-2.072263910083875,47.79043840708027],[-2.1281864076334727,47.76137577244934],[-2.0847208937394774,47.76271449098266],[-2.05870429699438,47.73825600134232],[-2.108708446187951,47.736577355949336],[-2.131472084919135,47.72224026215694],[-2.1193410051181774,47.71063202277528],[-2.1226631940444274,47.68266972251208],[-2.104362517130758,47.67679662818726],[-2.1143465125517733,47.64948078140733],[-2.097035597340287,47.63135984401428],[-2.084994306680996,47.62123305096733],[-2.0869285812433267,47.60277534815358],[-2.10372254987444,47.58943141752024],[-2.096505468974894,47.57236562280809],[-2.0985539306805943,47.53395835736954],[-2.1560219978896007,47.52202803044017],[-2.1541846873077226,47.496364126798106],[-2.1832952625867295,47.49169698467854],[-2.1908096601747804,47.51205628181908],[-2.244282758246302,47.49360064884759],[-2.2613604986657707,47.51360628741794],[-2.2991284429653516,47.50047998605304],[-2.3131355987939677,47.48590211028132],[-2.31286829291468,47.46446874947645],[-2.354869937092447,47.454890712840786],[-2.370968184053226,47.46338717496278],[-2.3999436811786463,47.45598156061156],[-2.4230264761460525,47.477112579344045],[-2.453433891770773,47.46207445240776],[-2.45848916517333,47.44812172071826],[-2.4794720164550967,47.44310980823914],[-2.498735357450224,47.45724235463569],[-2.489565024970293,47.47431520811904],[-2.5015179310929967,47.489586634131676],[-2.4412239148217303,47.49623958282475],[-2.466145152823908,47.51170094995204],[-2.5177254508541034,47.52638405379225],[-2.543943614544709,47.52304464159969],[-2.5528199043026465,47.51257795028038],[-2.6035175490392004,47.51629291634741],[-2.603686239678167,47.53097620577883],[-2.652315813187561,47.53948128320896],[-2.6518523877085074,47.52918871697427],[-2.681267629896647,47.49582645624765],[-2.7155074792326994,47.50555679146207],[-2.783910628164775,47.49416982507097],[-2.7953631847353706,47.48606302718516],[-2.8494662625405485,47.498716770371836],[-2.8475718355405935,47.512071687742385],[-2.8752313484549616,47.534363529261185],[-2.9132300200024543,47.543009316861514],[-2.9093071370148396,47.55995295111369],[-2.882650360709671,47.56273792316479],[-2.8621207995589244,47.54108127622838],[-2.8188916250932614,47.547311960718446],[-2.8053190952421017,47.55465057729475],[-2.762369364633524,47.53644978740993],[-2.7342064067723255,47.55206430843042],[-2.7154316604959736,47.57654253087959],[-2.714432950008992,47.59298967346035],[-2.757592183654573,47.61287735101191],[-2.7545302536260285,47.635943017790716],[-2.7951916631184384,47.619515983940175],[-2.8312692184373036,47.613980283771895],[-2.851150732135118,47.619022264840936],[-2.8883074806182694,47.60372031432131],[-2.8941178097199294,47.58191685891699],[-2.9370470028114317,47.59651736500671],[-2.950659153900295,47.579303860754656],[-3.0046859134608477,47.56646553748797],[-3.026468461710979,47.58394599905037],[-3.094879923920414,47.564686311749014],[-3.1232589863704034,47.5695081568697],[-3.1332300779049587,47.532435621621886],[-3.1169009752940933,47.4961604922533],[-3.09449650710579,47.482412765246636],[-3.129391708495516,47.4738244656134],[-3.1517748821158404,47.50387332474793],[-3.152063868227419,47.52789301771813],[-3.1345805586210473,47.54882366707632],[-3.139749279889078,47.57960047643262],[-3.1583771335933584,47.6069849085308],[-3.1937321982478797,47.62194072617485],[-3.2097530809913435,47.640690040350975],[-3.2081288735823428,47.66342980157541],[-3.190504238501219,47.68254092926842],[-3.166595512762787,47.6804302446036],[-3.128059188762987,47.70555367694903],[-3.1259616002794033,47.72345749155855],[-3.159418178564092,47.737388379799775],[-3.1763421131463927,47.734689167234386],[-3.1737051439382005,47.701956980943464],[-3.217549801386117,47.66730699988139],[-3.214971438983497,47.64522440607226],[-3.270895013000413,47.6788711919624],[-3.28786392948088,47.700955682089656],[-3.3409140108798394,47.70870473596058],[-3.34887310198566,47.728643297493896],[-3.387107819813834,47.70188799129091],[-3.4304371204407182,47.70321133479036],[-3.452760568692728,47.69534163728435],[-3.4983535994006227,47.72943310383713],[-3.520959375326517,47.75766895361749],[-3.5299269866083183,47.78246448849144],[-3.5173821429083914,47.80503760359084],[-3.5359178691698356,47.81643884429237],[-3.5382904863091595,47.836020899790604],[-3.523004293499609,47.84914685714251]]]]}}