{"type":"Feature","properties":{"code":"31","nom":"Haute-Garonne"},"geometry":{"type":"Polygon","coordinates":[[[0.9539831166064948,43.78737246570886],[0.9777987859720318,43.7864397525409],[0.9910444477374416,43.797045697236534],[1.0361954975370666,43.804232715802144],[1.0591319349426427,43.798594472191574],[1.0808172102613443,43.81306583616325],[1.1124096388582891,43.79707276987681],[1.126079238294049,43.80959552989913],[1.1577904338124643,43.81838124698653],[1.1798084884492999,43.7952937589264],[1.2161233635195094,43.791159600168356],[1.2192055591403763,43.7707867235541],[1.2666508924183946,43.78318101448264],[1.2676345847416235,43.79377274514794],[1.311084838455899,43.800602295519234],[1.3600316395881045,43.81720012311376],[1.3572704568738654,43.83369324204132],[1.328030911759578,43.83816349035954],[1.3137064308190725,43.8322272891667],[1.2965943993985685,43.847335316271405],[1.3626018809802545,43.85723006032639],[1.349235626213503,43.871655526938696],[1.374917030255939,43.8843365489393],[1.4086035229055638,43.88264557304525],[1.418934148647794,43.87135534680213],[1.4529636675835562,43.87502936555188],[1.47466252365823,43.90211274166312],[1.4907818788063523,43.888997239785134],[1.5233234997345355,43.90360072658564],[1.53278908620992,43.92135227933209],[1.5556171726831822,43.91831715512138],[1.5466741254835874,43.90227582964282],[1.5604448006284883,43.88193633936389],[1.5595369144011864,43.86612807085979],[1.5725847390862493,43.84880231415562],[1.593170425533653,43.843138372370525],[1.5902324934871344,43.81453310403227],[1.6264959472746285,43.80130658412972],[1.6447876270393125,43.80025749535743],[1.6424989428665737,43.77836778877496],[1.655698865700349,43.76426648219855],[1.6499189090514812,43.75186514404521],[1.7000226658018673,43.725322579061185],[1.7072267665260739,43.71239499211101],[1.6689046629721764,43.70425646859944],[1.663572654706257,43.694057655631546],[1.71671390955716,43.68932470041024],[1.7308693816067124,43.65775037692843],[1.7056013351461534,43.65256600106776],[1.687771093611741,43.63070037401986],[1.7450478782076964,43.603462190630566],[1.7639547679681267,43.603570939255114],[1.7794523688032238,43.586981588268245],[1.8334565523038187,43.57823452761835],[1.8494522810871268,43.56754406011732],[1.850708886716764,43.54928175630703],[1.8804140168444965,43.540315043888405],[1.893376989480592,43.511429254268904],[1.9169530392384777,43.501607534442506],[1.9560763206968899,43.494064073594906],[1.9899972756684245,43.47746968529684],[2.0102344593980876,43.48184918070482],[2.015050754536418,43.5043691931112],[2.037543768971243,43.50685651452312],[2.0482899751352006,43.48572590288188],[2.0181412825331915,43.47035021960434],[2.0138097404810105,43.44990469289765],[2.0291328387973606,43.43689796484212],[2.013251174841698,43.41479228000688],[1.9882982689321873,43.40760727642704],[1.9563832142288617,43.42542487943702],[1.9321973483656796,43.42425346114769],[1.9030825485451017,43.40648077638579],[1.8961151188637693,43.418448380585566],[1.8587429714302222,43.443820891217364],[1.8275744264204186,43.41839399539007],[1.8040846789340412,43.39168480485615],[1.8042058556067164,43.35792861707674],[1.7722726989104796,43.33697670685812],[1.7560895669919805,43.347786239580316],[1.72381890913847,43.32974907649138],[1.7264566850126617,43.31355860790404],[1.7041401191232926,43.302731061004685],[1.7083882204712093,43.29126593638564],[1.6884197209147511,43.27355372810048],[1.674798339388505,43.28121472293003],[1.637330392962705,43.255476822404304],[1.602045022703857,43.265966045322976],[1.5475200495883703,43.27567426925568],[1.5187255867607068,43.26917438445627],[1.517589782341532,43.28942028243403],[1.4962195339449893,43.29276893893769],[1.489433194310029,43.25842220794179],[1.504462615387652,43.24943643931495],[1.5046005088805332,43.22131429070002],[1.4845439726661527,43.226162777288515],[1.4703750181603599,43.21207194480044],[1.4479297220390106,43.2128941335395],[1.417617895565898,43.227838739549625],[1.4253606535844838,43.256571535866705],[1.4114797701413646,43.270269012569514],[1.3497399802929155,43.31601406526464],[1.3239682844769867,43.30940019027638],[1.3180291746094754,43.29589235276595],[1.2925309175036508,43.28836637975412],[1.3083430062252406,43.26452855969102],[1.3306718864082818,43.26256355573771],[1.332370877192311,43.248931806901766],[1.3667896677356772,43.2418101294384],[1.3827658374979088,43.228123061206055],[1.3743734334754012,43.21374576570538],[1.3441516514601857,43.210695251898116],[1.3200644605867593,43.19008881581775],[1.274066147426889,43.19622758930005],[1.243672974766193,43.18955616855956],[1.2139801500053244,43.16243740075925],[1.2189486150323017,43.15316275519517],[1.2743729840086873,43.144383453050935],[1.2914479372138445,43.12411619713413],[1.2808453772316608,43.11141550841685],[1.2600621395015414,43.10918367913112],[1.2615510081488481,43.09151179346513],[1.2236282372389116,43.086062046332636],[1.2087344680123453,43.11795105080988],[1.1749842663258816,43.14097449686551],[1.1623107695613917,43.13229310791629],[1.1321077536262771,43.15194534202816],[1.0898382360674839,43.141811753194446],[1.0597948169991893,43.1407984031395],[1.0388356827344098,43.100552820032235],[1.0185271263876248,43.107387874976396],[0.9909145410998831,43.09277803898931],[1.0052536354583397,43.08066466566629],[0.9856931292491957,43.06291853162641],[0.9867409563385678,43.02750002800353],[1.0162603018777892,43.01021732861986],[1.0013417692542665,43.002384225909054],[0.9791013887263271,42.97443096191435],[0.9124553143730214,42.95939313750352],[0.8749113719387422,42.957775746315285],[0.8853071428027446,42.93602990091024],[0.8735856733231423,42.92679338211308],[0.8446280617921965,42.9259553847581],[0.8261273850230597,42.91428331470268],[0.8429206845448278,42.88857838383233],[0.8598831874145956,42.83829919038498],[0.8583056667230173,42.82571908908446],[0.8014829737147933,42.840482516254525],[0.786497752721584,42.835955365811344],[0.7377189409040268,42.84872835147501],[0.708377779630982,42.86140184526933],[0.6590147498491514,42.838529465460994],[0.6698627393614355,42.82438101654399],[0.6705882589690579,42.80475875717359],[0.6445405045620645,42.78307646581688],[0.6503239309882353,42.76416869986073],[0.6822635276176596,42.70896825363519],[0.6705736143224804,42.68989711626274],[0.607646803436206,42.69905996655662],[0.5868270391623184,42.69500344995768],[0.5296137950834886,42.702684358976896],[0.5185245887513461,42.691876177213395],[0.47774954032737066,42.69999034279792],[0.4845912327562892,42.70987563691782],[0.4550942250736491,42.728060641999555],[0.46339485659012236,42.75961776986063],[0.45587668333542497,42.769893094701686],[0.4631381823278041,42.79013609203236],[0.45645030119577185,42.81819976680441],[0.4773565901163487,42.87824375089618],[0.5324055542379432,42.863293191606644],[0.5598104479575664,42.86131086278569],[0.5759351469518764,42.870825923039746],[0.5865354938150936,42.899764469600925],[0.6060586556910943,42.93436290905924],[0.6419907184981635,42.95287272899541],[0.645536953415737,42.96206456656776],[0.6188348311181961,42.972417013199525],[0.6116327283329046,42.98841659996602],[0.6274179241908862,43.00010287323426],[0.6080473328079602,43.034009064146474],[0.5918253760443509,43.022372936614325],[0.5673867928980146,43.02086035561931],[0.5412081928415171,43.001720551955394],[0.5341218546281855,43.01498318247417],[0.5379303286735891,43.041641647509145],[0.5652571210979821,43.04118358284234],[0.5573359728300217,43.066396922958404],[0.533134473195984,43.08279812294234],[0.5322696523895433,43.093864488407256],[0.46394373544501977,43.117816246348056],[0.4419985587106282,43.13127313187027],[0.4700411050323527,43.15730371100298],[0.4878146424725309,43.16525164014629],[0.515732011440808,43.189611401008044],[0.5173856740584795,43.212372971316064],[0.5518748957180641,43.20914713009289],[0.5738333078065921,43.22033420729316],[0.5511319943370407,43.236236596459726],[0.6183078501522927,43.29035045829162],[0.6357239806030284,43.300074553718005],[0.6068109749570959,43.310885991585494],[0.6456712299650619,43.31206330707761],[0.6693654275735994,43.324708346706295],[0.7175914463388228,43.376630810082574],[0.733730472605264,43.37096706524623],[0.7455585564051908,43.39499187362083],[0.7704216393342749,43.4168097427721],[0.8063000758469085,43.39997470202246],[0.8205416805525511,43.41697502257888],[0.8444010068380974,43.40988373774269],[0.8624052826149649,43.41471351563584],[0.8948859188377402,43.4052792090662],[0.9172511345137194,43.40633268927769],[0.9416846595723644,43.38408549124462],[0.9643403785279276,43.386475780857246],[0.9780837577086212,43.36265170654419],[1.0024979781750354,43.377080651683535],[0.9937847184126083,43.40798472527798],[1.02278785655839,43.41170392033953],[1.0190323220764022,43.43079483892832],[1.0321604609431316,43.440852444747534],[1.0399574087550072,43.46285347872525],[1.0221951427122764,43.479243133371575],[1.0518532839588568,43.48698884399707],[1.0608961902495995,43.5127821423026],[1.0578193301966023,43.52698286709649],[1.0718141320185244,43.546348314375535],[1.0970817946149973,43.533222452089504],[1.1250779695020832,43.55436438795678],[1.1543767194578116,43.55757543303593],[1.1640382379592968,43.57239102182334],[1.199342708925358,43.56918429556797],[1.2013370084855526,43.594812955020146],[1.1809652008406388,43.61400383428095],[1.1581444988078047,43.60561827536576],[1.130581177959073,43.642651776415875],[1.1148256080508376,43.636718418209675],[1.0876957388199562,43.64497503168885],[1.0509823342326547,43.677823838616014],[1.06415307016496,43.70277548531269],[1.006928222163991,43.72890805398772],[0.9688276136449294,43.75915093896533],[0.9539831166064948,43.78737246570886]]]}}