{"type":"Feature","properties":{"code":"49","nom":"Maine-et-Loire"},"geometry":{"type":"Polygon","coordinates":[[[-1.2458823462890538,47.776717547680406],[-1.2382517343256678,47.80999146297073],[-1.1986209884138974,47.795087631101424],[-1.1931389674383266,47.78697417474339],[-1.152946550291737,47.778006298929476],[-1.1226318940891669,47.78417913959446],[-1.0676842898971974,47.77297059421489],[-1.0204536348384041,47.77298948127482],[-0.9784592276088574,47.76203334334952],[-0.955206706607692,47.76711117947228],[-0.9602944572916631,47.7963079545433],[-0.9251020877476097,47.78771562691841],[-0.8812984869415317,47.763548188692084],[-0.8392941203736607,47.75227330317501],[-0.8399853237495013,47.768146096038514],[-0.816067662956568,47.77122618643005],[-0.7838699174942475,47.75058272701156],[-0.7593093892972002,47.75375329055893],[-0.7417076584328766,47.73810748626689],[-0.7103297199047672,47.74460337209696],[-0.6714156583122058,47.741118751584196],[-0.6537866615388507,47.73338137800601],[-0.6108182423666896,47.73568882741341],[-0.5847783552138252,47.7583563948255],[-0.5328644845775566,47.750826614212684],[-0.5096576702100792,47.786039414506206],[-0.46447480825707566,47.76859230202414],[-0.4545880132966191,47.75647912746232],[-0.42831835229803605,47.76761186364019],[-0.38561432621561664,47.769116081601474],[-0.3817032700427246,47.76056283993387],[-0.3749413527409204,47.739263349746885],[-0.3340636977656885,47.72116613990195],[-0.2867043357584838,47.7193267262097],[-0.23897070389904987,47.704236533845965],[-0.20237319489976208,47.7252424835264],[-0.1823177464697087,47.712899554202],[-0.20031003076883538,47.69468965521296],[-0.2201912638722686,47.68962152946947],[-0.19505682505367974,47.66137704033336],[-0.19315724780649848,47.6479165803738],[-0.15714474625449978,47.64556263174295],[-0.13610057418750457,47.634067825440376],[-0.1075909106103418,47.65528707795732],[-0.07177191841107244,47.658369330035505],[-0.05468293127308542,47.64842261886652],[-0.004507638464452976,47.64768842379034],[0.01704033105751261,47.62110138156107],[0.05165930848592442,47.606515201700375],[0.11568518986526223,47.60572820554534],[0.13984161379263732,47.59111878052602],[0.18492077212499186,47.599519723895675],[0.1857971097487886,47.61573515835152],[0.2300017263531844,47.60839829191704],[0.23453424561335756,47.577982037960055],[0.2150171714816557,47.57064544903573],[0.20150359657525238,47.544318760659884],[0.22484312443395177,47.52727704290141],[0.22010925240137172,47.50195329711621],[0.20921732522172254,47.49365838444261],[0.1812364735767597,47.4526491231434],[0.18528045906678275,47.42473344937359],[0.1676400513828326,47.405415942568375],[0.16799336737564852,47.3869314962575],[0.18295674766364445,47.38033212018486],[0.14939629089256964,47.36226337889678],[0.14729836062565832,47.34537579230401],[0.11746224213975613,47.33234274537884],[0.0785963884113725,47.28394130124859],[0.06792548837999822,47.2473308040697],[0.07249546123856535,47.22050992119078],[0.0532775371077964,47.19718486964462],[0.06659419807362671,47.18979325990068],[0.05382761471070587,47.16373008265526],[0.03664297673522525,47.160354293664795],[0.01901485826766373,47.17575785031973],[-0.01073662557135027,47.15750952036683],[-0.035959245982801084,47.12509157253751],[-0.04416541443323743,47.093242584398084],[-0.08590400471278307,47.1010103974686],[-0.09805549141019346,47.0913509263054],[-0.10212095637964737,47.064797190818005],[-0.12838002979815127,47.05442990559355],[-0.1476585466148043,47.069854366674875],[-0.178486598699701,47.0697670558895],[-0.1521214820209298,47.10085428544302],[-0.1848398275184138,47.10833699690516],[-0.20250740252740007,47.09583787535414],[-0.2415379484520476,47.10572466544675],[-0.2879290635736671,47.10144071067538],[-0.3414640153397548,47.08733467869207],[-0.3579271504355597,47.09365187822681],[-0.3834553981375389,47.08769862856716],[-0.4007795061579299,47.07077103460959],[-0.42854910796633194,47.07271663479802],[-0.4642554478540593,47.06757786350008],[-0.46269733093798004,47.08192636562548],[-0.4953402437613724,47.082385217708435],[-0.5595318719263807,47.06188673077478],[-0.5555783931772565,47.04353316953107],[-0.5654683969778376,47.01942614381194],[-0.61568293448452,46.99293402227639],[-0.6438716820428597,46.99351589442817],[-0.6758343487736584,47.00172199082605],[-0.7156396951065868,46.985502313803366],[-0.743365629187983,47.00070367813692],[-0.7619520119905745,46.992139886795954],[-0.7875770887198819,47.00513718237798],[-0.8559224678754487,46.979084161484536],[-0.8919599503022404,46.975817849607864],[-0.9027847223499762,46.99384133071281],[-0.9334603151811864,47.008908043397554],[-0.9670342291507741,47.00506278044761],[-1.0003954614147021,47.02080439583092],[-1.0158832983469237,47.00413844081306],[-1.0741287584409651,47.008280037449445],[-1.1444802777855911,47.02539165807213],[-1.1485704887534398,47.029545162586565],[-1.1170476687025708,47.04013159004134],[-1.1155386203739606,47.06269707451897],[-1.145027574182689,47.06837675006014],[-1.170292292370527,47.093053598552416],[-1.2423703743532273,47.10123014862037],[-1.2258419448390925,47.11944408223294],[-1.2374293726181724,47.13493300477958],[-1.207726991440738,47.1438706405948],[-1.175868309084218,47.16311976069785],[-1.1634008936162523,47.18546752937314],[-1.1784570598013726,47.193390310739396],[-1.1880521879881976,47.219792216059965],[-1.1809669432498426,47.24081046650355],[-1.1980384206236745,47.252940714686886],[-1.2283649350807286,47.239712044540795],[-1.251834385400758,47.248391505350874],[-1.279481478733716,47.274997858626456],[-1.2798655849130829,47.29443954491049],[-1.3017706698751919,47.30303238335918],[-1.3443707665147786,47.300912351608176],[-1.3358228427021601,47.3189666448679],[-1.2998771573086019,47.33762366530587],[-1.2612216058119492,47.34085259435289],[-1.2286336711215902,47.34992378396915],[-1.182960128465649,47.35431013426607],[-1.167609698077546,47.365887235139574],[-1.1082260597696614,47.36577684975045],[-1.0787286518898893,47.370791947022845],[-1.0178737847602033,47.36506226317233],[-0.9748672757080542,47.371382608948814],[-0.9508302510459343,47.38350557596203],[-0.9500724202369605,47.40418985727392],[-0.9610616341565943,47.418146960038484],[-0.9542208546281663,47.4539097574189],[-0.9672169416067916,47.468248780242014],[-0.9674825559179046,47.492800296900974],[-1.0086170505041334,47.489110660531026],[-1.0444575006084293,47.50550106908369],[-1.0397778230870207,47.54883710607215],[-1.0525094143946503,47.56363638662836],[-1.0068639898836467,47.58905339488284],[-1.026009375226936,47.599308629561634],[-1.0564895204285647,47.601479248609785],[-1.1006492140245874,47.62068366379477],[-1.137956817334609,47.619736138890346],[-1.1579089209094204,47.63660321755249],[-1.1608077767122782,47.65632049258235],[-1.1824294262619501,47.6680046714435],[-1.1749295691501485,47.694565013829596],[-1.1894960789668845,47.69916325132362],[-1.1951181057962028,47.72154902070605],[-1.2154187219671249,47.718817804901974],[-1.2545772523262662,47.733641751506994],[-1.2355437776358398,47.757046555422306],[-1.2458823462890538,47.776717547680406]]]}}