{"type":"Feature","properties":{"code":"85","nom":"Vendée"},"geometry":{"type":"MultiPolygon","coordinates":[[[[-2.304793360419174,46.70942393875938],[-2.3355867245025954,46.68810408131238],[-2.365411420853787,46.69514960298605],[-2.3928869274271354,46.71146786590562],[-2.398989314185467,46.72610823947123],[-2.371515973727442,46.732425575951765],[-2.3183814886611573,46.719019084873665],[-2.304793360419174,46.70942393875938]]],[[[-1.1485704887534398,47.029545162586565],[-1.1444802777855911,47.02539165807213],[-1.0741287584409651,47.008280037449445],[-1.0158832983469237,47.00413844081306],[-1.0003954614147021,47.02080439583092],[-0.9670342291507741,47.00506278044761],[-0.9334603151811864,47.008908043397554],[-0.9027847223499762,46.99384133071281],[-0.8919599503022404,46.975817849607864],[-0.8729898783606566,46.94434766819017],[-0.8519389677391533,46.94650472324497],[-0.8291443983745105,46.93336473376701],[-0.8170418725493785,46.903983682599055],[-0.8321833934652019,46.88454160082127],[-0.8152783793677632,46.87936123351067],[-0.7816473761536221,46.842828501140936],[-0.7328576209101574,46.8215002648331],[-0.7088363450612226,46.82106096053443],[-0.7273121698337293,46.76763245445797],[-0.7001491562174191,46.735799391945754],[-0.6688837671234614,46.717234169266845],[-0.6561893352875896,46.700774642460914],[-0.6807382103871169,46.686802029507525],[-0.6375207590786917,46.662275660644845],[-0.6341929952870002,46.63738600695415],[-0.6141139330666167,46.62039039102903],[-0.6270238350693782,46.60565028049541],[-0.6119040829758216,46.5883080542103],[-0.6245653646005823,46.57739763355232],[-0.6067041276726987,46.562332081853285],[-0.6021285989587045,46.533280547788735],[-0.6245399718190973,46.529723883887414],[-0.6451962418895167,46.50856915270028],[-0.6250321267782425,46.49748332134845],[-0.6159660718681671,46.46157045085021],[-0.6187762241263333,46.43885619623182],[-0.6368414296493504,46.43230561509176],[-0.6406445679433723,46.41622924515597],[-0.6208833834377796,46.390455794535654],[-0.6101772466297536,46.41373600220488],[-0.5660555377589854,46.39308485800112],[-0.5378004980121098,46.38646546545568],[-0.5618089129416993,46.35974018410839],[-0.6032466407115049,46.36146637541298],[-0.604945148704239,46.34715238390407],[-0.6366035278644262,46.337591841879316],[-0.6482532698392601,46.317144430298924],[-0.6722725322460164,46.3162191658117],[-0.6973310699310054,46.3250900125706],[-0.7201500047099074,46.31489050090406],[-0.7219129656364313,46.30237450310386],[-0.7504755422947275,46.30425879436195],[-0.8024766924625577,46.325152925140934],[-0.8090890487729437,46.33843674064563],[-0.839878203866059,46.340369117324364],[-0.8509360179567931,46.31718679438478],[-0.8876799965820683,46.32632425572865],[-0.9047974021645193,46.31381080962026],[-0.9348886609093259,46.31285600461673],[-0.9617714534617725,46.323112713720874],[-0.9441603850496662,46.33604884873509],[-0.9318397064952478,46.3658034260157],[-0.9645133582944424,46.3654018117805],[-0.9774473324091834,46.35111139719007],[-1.013807240115001,46.35562475996166],[-1.0525280096214227,46.34254164468142],[-1.0807261526640515,46.32142762319264],[-1.129404177492153,46.31027691915601],[-1.1671810169437413,46.31969405036838],[-1.2021666067108026,46.31599153007532],[-1.1955103805422935,46.30048349541652],[-1.2063765625294878,46.288846571626785],[-1.2073944924206363,46.266571614816904],[-1.281772839130423,46.309968266424384],[-1.3444380346892142,46.341953842181326],[-1.3667425638808843,46.34861328663727],[-1.4009792622186368,46.34050457904003],[-1.4284190944836321,46.34712502912173],[-1.4659415635018052,46.34235901019938],[-1.4877969769705215,46.38139204154906],[-1.5021454225847812,46.39734952406836],[-1.5340123722474628,46.40887626089284],[-1.5490765402226871,46.40548020561594],[-1.6113040094680402,46.41341659286108],[-1.7082937557327667,46.450884792059824],[-1.7558962800631415,46.474872816955255],[-1.777141798763278,46.49275846362317],[-1.8136695999589263,46.49534718792214],[-1.8213149950439371,46.523721393572785],[-1.8560176099926675,46.608577928185206],[-1.8906746733506474,46.634689983740806],[-1.9408440446802884,46.69106965939676],[-1.96540793995167,46.69200185704432],[-1.9826664543508177,46.72031292149719],[-2.0719487980113698,46.782813819976845],[-2.1410311606229655,46.81774558883561],[-2.1550297319780927,46.88965414468634],[-2.122239576466256,46.891263453405536],[-2.103448154684842,46.92098874969161],[-2.0582281140235676,46.950944454989695],[-2.0293326201395745,47.0086320208736],[-1.980414486742876,47.02890649407564],[-1.9688489284381314,47.02767329905578],[-1.9432276192598639,46.99471092059494],[-1.9166202315157645,46.991518959422415],[-1.9174428113267457,46.97508381963422],[-1.872614380314098,46.95312868208426],[-1.8318237164160205,46.953809822447525],[-1.8309821821134158,46.932033724154486],[-1.77556460551789,46.92540682943319],[-1.7513270577094098,46.929611815604666],[-1.7362508076850236,46.91143568904478],[-1.7371139932046213,46.89680599083098],[-1.7202546726947285,46.88456447923729],[-1.6870033984268769,46.89055113474326],[-1.6645131258008816,46.874779205029014],[-1.634820511862539,46.87837868837905],[-1.5485110748777025,46.86007983436468],[-1.5007668577856463,46.88389115282979],[-1.527927453698693,46.92377826735825],[-1.5309030377362816,46.94498074264914],[-1.5543623514658027,46.97816341773942],[-1.542665987015755,47.00327217070728],[-1.5552723334553664,47.01533738692226],[-1.515724271893768,47.027732420842334],[-1.4998449288829532,47.04068947453796],[-1.4759335714372155,47.029463554503664],[-1.469172627780506,47.00198697021648],[-1.4769594857010369,46.98097074445235],[-1.4572082927387657,46.95464665401728],[-1.4715165512848787,46.93291787054446],[-1.4582677297055284,46.92583846037384],[-1.4181594787532137,46.943057239909116],[-1.3729857700949506,46.95218446660972],[-1.3590587331965938,46.98113458794234],[-1.3775094300897999,46.990940454807415],[-1.363022131692666,47.005231806651935],[-1.3786124689367814,47.03085386698655],[-1.3627515861913184,47.04068820066417],[-1.3124114592110108,47.03350963450989],[-1.2946349782361042,47.03948346966515],[-1.2903251112226377,47.07019181205101],[-1.2683044893940385,47.08474885032919],[-1.248272600668004,47.068248451977425],[-1.230646678052403,47.0647662671337],[-1.200679265181828,47.04002068735864],[-1.1485704887534398,47.029545162586565]]],[[[-2.1980740779182004,46.95116764927802],[-2.223157246071586,46.965272827071246],[-2.264380088499401,46.96087838866196],[-2.3010983301708356,46.98904472545455],[-2.292512307340026,47.01255801910092],[-2.276523639405111,47.02888353822751],[-2.250689026745477,47.02730168494982],[-2.21884576130942,47.00847250653137],[-2.2262568575011112,46.976185679026486],[-2.157184376417708,46.950037734214405],[-2.1474391673875983,46.93419680146382],[-2.148498361118927,46.912972973348154],[-2.1679626813926482,46.90846416238237],[-2.175646599875998,46.92930475655864],[-2.1980740779182004,46.95116764927802]]]]}}