{"type":"Feature","properties":{"code":"09","nom":"Ariège"},"geometry":{"type":"Polygon","coordinates":[[[1.6884197209147511,43.27355372810048],[1.700754514704471,43.26054064540708],[1.699776940607475,43.243831295721215],[1.7238440687530252,43.22452425076901],[1.7099486500213625,43.20058204747453],[1.7134791529379416,43.185618701843005],[1.7435880718428745,43.182725951168436],[1.7806433096574144,43.159824933344154],[1.824772198868932,43.145813889155335],[1.8804078673476365,43.14153936255586],[1.8954279777499146,43.116633336360046],[1.9177470958909644,43.13323111235511],[1.9494047039555333,43.12070809144376],[1.9557758360446906,43.085446537199715],[1.941132873290632,43.05271547262669],[1.9730769071879921,43.04616201620429],[1.9850016206688033,43.032612459176974],[1.9853302810624713,42.96695793978397],[1.9364462363662087,42.95396589299509],[1.9338502257854864,42.93932515940288],[1.9805743107561908,42.92957969198593],[1.9919290520003003,42.905098487236415],[1.981007734505436,42.87842008504447],[1.9869209142233524,42.87101168756058],[1.9456558633746337,42.85619826237116],[1.8758890323432875,42.85273825107509],[1.869202579081601,42.81508603325651],[1.8970774273087732,42.80800219821675],[1.917663354345371,42.78274473527807],[1.913239238416856,42.75882498736125],[1.9516265106681303,42.73669095024391],[2.007929382662407,42.73412497082237],[2.057204243184995,42.75622286125991],[2.0839024245548936,42.7516077244054],[2.0874431064800922,42.73901317594321],[2.160632413925722,42.70112722891685],[2.1758741195218594,42.68279522431058],[2.166053682054993,42.66391836976526],[2.127356949655341,42.672313305937074],[2.1114664198303457,42.666032470916626],[2.0470193906647904,42.66358965489304],[2.0187920574337195,42.6534170353211],[1.9969224698605978,42.66006561399484],[1.9722426969695992,42.61714092425327],[1.9521234354600119,42.61830326460022],[1.9361188221910517,42.60541384031619],[1.907286118231748,42.60862947926328],[1.8744850028357225,42.58140598425563],[1.8347684364358996,42.58353364671248],[1.8010033491172206,42.57239786027001],[1.7861250110638969,42.57362343207788],[1.773155041578549,42.58067708426063],[1.7259206571767567,42.59036520824838],[1.737964425021432,42.61131401180095],[1.6835991033030946,42.624864963586695],[1.6620254880346446,42.61948091899569],[1.637155477178948,42.63029849282105],[1.6063547204789832,42.62745569822105],[1.58567689224097,42.633568385987964],[1.5623889852861503,42.653480869601616],[1.5492483438086209,42.655776285849846],[1.5014121994747076,42.64516242342437],[1.4801044915371044,42.6513900879463],[1.4694745196425487,42.62847928225725],[1.4772675936643833,42.614967659090894],[1.4557081666267313,42.60205166220692],[1.4401504415315978,42.60350721030018],[1.4201858337826103,42.62607181448239],[1.4139966708290406,42.65484551119558],[1.38773471434658,42.67099021370737],[1.389599626449476,42.68508287715744],[1.354404547925789,42.699493649410854],[1.3579397808759273,42.71551055541734],[1.32502612790918,42.72390397060219],[1.2778256065536044,42.71387414262699],[1.2525274855971043,42.71564959267591],[1.2283255116895055,42.727437974142234],[1.2171573639899749,42.7204805063676],[1.1618481533807585,42.711046329845956],[1.1333079622063968,42.729016535435846],[1.1280806814053455,42.75537633903151],[1.1069774050999934,42.772292244775535],[1.0706247661216861,42.78247308343543],[0.9831091862639382,42.787068192050434],[0.9598896789755389,42.805643801609044],[0.9235668371314283,42.7903836690362],[0.8583056667230173,42.82571908908446],[0.8598831874145956,42.83829919038498],[0.8429206845448278,42.88857838383233],[0.8261273850230597,42.91428331470268],[0.8446280617921965,42.9259553847581],[0.8735856733231423,42.92679338211308],[0.8853071428027446,42.93602990091024],[0.8749113719387422,42.957775746315285],[0.9124553143730214,42.95939313750352],[0.9791013887263271,42.97443096191435],[1.0013417692542665,43.002384225909054],[1.0162603018777892,43.01021732861986],[0.9867409563385678,43.02750002800353],[0.9856931292491957,43.06291853162641],[1.0052536354583397,43.08066466566629],[0.9909145410998831,43.09277803898931],[1.0185271263876248,43.107387874976396],[1.0388356827344098,43.100552820032235],[1.0597948169991893,43.1407984031395],[1.0898382360674839,43.141811753194446],[1.1321077536262771,43.15194534202816],[1.1623107695613917,43.13229310791629],[1.1749842663258816,43.14097449686551],[1.2087344680123453,43.11795105080988],[1.2236282372389116,43.086062046332636],[1.2615510081488481,43.09151179346513],[1.2600621395015414,43.10918367913112],[1.2808453772316608,43.11141550841685],[1.2914479372138445,43.12411619713413],[1.2743729840086873,43.144383453050935],[1.2189486150323017,43.15316275519517],[1.2139801500053244,43.16243740075925],[1.243672974766193,43.18955616855956],[1.274066147426889,43.19622758930005],[1.3200644605867593,43.19008881581775],[1.3441516514601857,43.210695251898116],[1.3743734334754012,43.21374576570538],[1.3827658374979088,43.228123061206055],[1.3667896677356772,43.2418101294384],[1.332370877192311,43.248931806901766],[1.3306718864082818,43.26256355573771],[1.3083430062252406,43.26452855969102],[1.2925309175036508,43.28836637975412],[1.3180291746094754,43.29589235276595],[1.3239682844769867,43.30940019027638],[1.3497399802929155,43.31601406526464],[1.4114797701413646,43.270269012569514],[1.4253606535844838,43.256571535866705],[1.417617895565898,43.227838739549625],[1.4479297220390106,43.2128941335395],[1.4703750181603599,43.21207194480044],[1.4845439726661527,43.226162777288515],[1.5046005088805332,43.22131429070002],[1.504462615387652,43.24943643931495],[1.489433194310029,43.25842220794179],[1.4962195339449893,43.29276893893769],[1.517589782341532,43.28942028243403],[1.5187255867607068,43.26917438445627],[1.5475200495883703,43.27567426925568],[1.602045022703857,43.265966045322976],[1.637330392962705,43.255476822404304],[1.674798339388505,43.28121472293003],[1.6884197209147511,43.27355372810048]]]}}