{"type":"Feature","properties":{"code":"2A","nom":"Corse-du-Sud"},"geometry":{"type":"Polygon","coordinates":[[[8.573411068108614,42.38140571205032],[8.594967598626758,42.370442888773276],[8.640801666424288,42.373436353833],[8.650412807593723,42.36235593170432],[8.681978913121439,42.358465400722466],[8.68321233664994,42.348405991522625],[8.715164693117954,42.34731408789375],[8.759078812317421,42.33804006429769],[8.770887277733078,42.324764827713246],[8.819561377056067,42.317558041882876],[8.861675727165986,42.32811167142221],[8.859024483697455,42.29995020570288],[8.87520921911696,42.29428830686922],[8.881953886518218,42.27178078880156],[8.904766989145307,42.253859280700944],[8.933097537277835,42.25043111224553],[8.947076130982284,42.23422817213641],[8.973044637723564,42.232597522891176],[8.991464818157644,42.216579484852076],[9.024603276811161,42.20363389421303],[9.04565931380628,42.206923431408285],[9.050611468499882,42.17000397791563],[9.064131426559902,42.166950715680095],[9.08185038106952,42.1259098454875],[9.123403164538574,42.10551607054204],[9.13482913062442,42.08700036410981],[9.130916384150003,42.05440439115911],[9.161526350789277,42.024930468066465],[9.188367061229057,42.03108582200928],[9.221084024655989,42.02759696053908],[9.223140183667368,41.95046593535651],[9.230490115935124,41.932324073627385],[9.220925415083576,41.9218761454385],[9.248804246301058,41.908855875310024],[9.25220736357214,41.898984720376],[9.234965106156862,41.87934237596686],[9.22749739090474,41.85558903234784],[9.236915461534869,41.84652580746613],[9.270702639104186,41.840591858357556],[9.301434820029463,41.84490426472732],[9.309095237783188,41.832145235940885],[9.329474334205734,41.83678041560044],[9.37190803582647,41.86500821735677],[9.40226832441199,41.858698242272276],[9.406272769840172,41.82236027573807],[9.394129959534725,41.79894602702587],[9.40804423486613,41.765964137404545],[9.399816891537837,41.692798815395356],[9.372306452198895,41.67882801196141],[9.3867990309586,41.66013485456259],[9.370050242610121,41.63650941542051],[9.354744447894907,41.64070711833988],[9.336739554234802,41.6215416098364],[9.287840387799415,41.60914794779935],[9.29567773050855,41.58331885207275],[9.318350951823037,41.60473961141595],[9.342535240446413,41.594200027915484],[9.365038855194317,41.596441470607836],[9.340900099192766,41.559245310577836],[9.30264040024383,41.54562427007991],[9.283924696074152,41.52045330843586],[9.275938375380612,41.496440290295695],[9.28564621195539,41.481455763871594],[9.256106433634463,41.45544645978787],[9.223954643701347,41.44249242165367],[9.226384203660677,41.41695973685865],[9.2502303450001,41.4084598048058],[9.217973376538382,41.36822599455603],[9.179838238258498,41.36705499317599],[9.167240749781808,41.385592289043764],[9.148965906928566,41.38520002286676],[9.123343747407722,41.39749027875982],[9.092348336772952,41.39866884973409],[9.104353270113341,41.4255060819188],[9.097269216996475,41.44376682791671],[9.074312339266525,41.44292158486769],[9.039677264505034,41.46863417186722],[9.0227210321415,41.46376611394031],[8.99284982541176,41.48539712661482],[8.959459141628432,41.49213642659868],[8.921974806573186,41.49333335996221],[8.91474945736704,41.50721159848068],[8.884614957295412,41.50507147381323],[8.877812471356815,41.523794319360206],[8.852559366284032,41.53340920646009],[8.839699710816092,41.54602923754972],[8.82073184232227,41.545714667370824],[8.800523477489595,41.57188276189636],[8.775873328951134,41.59168224390554],[8.789698855828817,41.605741813229336],[8.793554350339635,41.62955326123481],[8.821776132159119,41.63009123019617],[8.850720584313095,41.64641263412892],[8.869502509562649,41.64609463570318],[8.880911938109922,41.66809704399582],[8.915782780480423,41.68156786818509],[8.914509146058741,41.68972719719775],[8.841281825467787,41.69754888764182],[8.812716636350928,41.71412605870484],[8.773461665894612,41.71202820764472],[8.78400108030721,41.73521507782763],[8.77244949030242,41.74151395397478],[8.721540704721875,41.724158153889434],[8.686037575634304,41.748045833798216],[8.713140775389308,41.760833711858524],[8.730281258947743,41.776823799920166],[8.70924681599125,41.79940893302203],[8.740535859236362,41.80060842998491],[8.770981055994985,41.811121572150675],[8.784393807344568,41.830407894413874],[8.790279130273717,41.86641909560435],[8.779265166063484,41.88361463279185],[8.802495279594497,41.89037396990991],[8.780329131904372,41.924549684275014],[8.740124001713054,41.92079895025009],[8.717470184551035,41.90771623226959],[8.671249490634217,41.90478838139739],[8.641453371512307,41.90989807542862],[8.613429079275429,41.9012604850547],[8.620491915709744,41.92638143385013],[8.59770740264425,41.95324242752227],[8.614841081409581,41.97132815848069],[8.646060498119223,41.96813286974832],[8.665774103171897,41.978579613548604],[8.656419834192247,42.00934596433834],[8.690325750960795,42.02759574803638],[8.702100729051129,42.02667306302128],[8.741332481964943,42.04090929509705],[8.739158783588737,42.06270232429793],[8.719858223120928,42.063513495459055],[8.71025694439948,42.09582422568561],[8.683317701085334,42.10767939043072],[8.658338303250986,42.10633293826876],[8.647011374442783,42.121135348279964],[8.62381016858365,42.12310886026918],[8.577473591502791,42.15655723250558],[8.590170524060465,42.16388769237882],[8.578216021601701,42.188552849158576],[8.581385985210854,42.20594433664427],[8.56099542798187,42.23688048012684],[8.615721768949843,42.253944800849766],[8.689105710448825,42.26352397175119],[8.690120554846226,42.27821075076003],[8.65998027654801,42.30242037262011],[8.637554534466465,42.30184726505929],[8.62490287547782,42.3121592221741],[8.628148233048128,42.338703487843894],[8.614873875271428,42.349587758831014],[8.59038224862291,42.35235664185015],[8.562054289065225,42.33282223020302],[8.551790417379964,42.34737867747405],[8.573411068108614,42.38140571205032]]]}}