{"type":"Feature","properties":{"code":"27","nom":"Eure"},"geometry":{"type":"Polygon","coordinates":[[[0.2972244202906153,49.42986163728299],[0.33898282435946164,49.440931306061266],[0.36879599400345847,49.44396615809678],[0.4315314440644818,49.45895529203515],[0.49007688558798895,49.48360764057147],[0.5249403531988139,49.47786858986832],[0.5790634674462867,49.43507202120442],[0.606260846591224,49.428697933243775],[0.6341203993784739,49.43446117824468],[0.6597835439594861,49.41617560182564],[0.6652914150341133,49.40200234791148],[0.7736557882409092,49.41808160502643],[0.8035289901620026,49.41664937662084],[0.8265612311602684,49.395044519606806],[0.860851622884771,49.39535013278994],[0.8853214512018548,49.38352473329317],[0.9181193706199334,49.385460584535736],[0.9214023473164947,49.33855254623689],[0.8875928951071438,49.34591517415329],[0.8662303093667536,49.34231160512299],[0.8622783261742117,49.32742242737676],[0.8915316720257209,49.31656133415404],[0.8924955592567678,49.303062511451586],[0.9366215857125476,49.321701430518324],[0.959487909604523,49.28612972876709],[1.0133166256832071,49.252262976528414],[1.0540696575756032,49.26810664758745],[1.0644211959188252,49.28193243229649],[1.0482359283696867,49.2966707056018],[1.092924014464112,49.30997367751731],[1.133993537971445,49.30984205819146],[1.1359587366778499,49.32511330683783],[1.1602558424773857,49.3419941567295],[1.1990286032008088,49.35080528187691],[1.2721366387570638,49.346289233389804],[1.2860248038650488,49.36318319072627],[1.2931900574437356,49.394994727671126],[1.3080682780467234,49.39535659061039],[1.3096318834456244,49.42873257275235],[1.3353971000652705,49.43371952908696],[1.345233363898118,49.44805852414145],[1.378499108777362,49.45742638657252],[1.4771860122081044,49.45132697219684],[1.503549409663381,49.43807237615207],[1.5283196177789204,49.44198980558868],[1.576136831058076,49.43973886640559],[1.6069566095899943,49.410854416858434],[1.6210669431541742,49.414378158641135],[1.6593030583878112,49.39898608539559],[1.7139375433100608,49.409224988863485],[1.7203156024953805,49.39482842844473],[1.759340781875861,49.368238985112555],[1.7741379719748898,49.33469565160132],[1.7679448109268296,49.31982583692622],[1.7757705439300602,49.29951534986682],[1.8026808722972285,49.271950623613535],[1.7895325987859003,49.247868037421206],[1.7643521273092135,49.2630859414422],[1.7345063044967537,49.26899820204799],[1.7104793339744566,49.26446416218004],[1.7043642065965865,49.232201775163404],[1.674090204376027,49.210248479159524],[1.6643738026115165,49.15336752369717],[1.655777439712795,49.13016217033744],[1.6350518648476458,49.11430020855939],[1.6087960706299218,49.07789415353795],[1.6017185942276444,49.08450261108525],[1.5570756944651978,49.06962240086733],[1.5380423840651944,49.072342033316],[1.4848834480593345,49.05154791492779],[1.4607983669865394,49.0627440580796],[1.4474328265726297,49.04518805211747],[1.4577625828067995,49.026291046220386],[1.4770779834042216,49.01679764336922],[1.477085024550759,48.978790316157344],[1.4974212515808907,48.97955944476306],[1.5015238197988665,48.94105360615515],[1.4613084344852056,48.93755797274698],[1.4483097630235757,48.92433060014346],[1.471281965082692,48.897831449765356],[1.4549910456481823,48.87032343188624],[1.4093616066102121,48.86115348650526],[1.3621810029001884,48.834179003372945],[1.3583524111815377,48.8164325477948],[1.3769640090609683,48.791769052281],[1.3195484140595357,48.76096509555226],[1.300298160774345,48.76753862976326],[1.270215830640388,48.75748087478701],[1.2460222122058793,48.7696776023494],[1.184730602501536,48.77263016325766],[1.159490184478893,48.769724918274406],[1.1521108654240828,48.78556141919787],[1.121402821755998,48.789193818459175],[1.1186480947364004,48.75458615785833],[1.0957317749783022,48.74871690601713],[1.0590671926768536,48.756763319856546],[1.0140709189239645,48.7280968183202],[0.9614508974400996,48.7257249507322],[0.9552461079026382,48.71678344138858],[0.9023959771326227,48.7106473551684],[0.876707237647973,48.71549244581689],[0.8619896827437209,48.68705769224572],[0.8276671061162353,48.68072356503085],[0.8148191028635925,48.67016796018795],[0.7822053215915061,48.66652415160697],[0.7640759546715993,48.67527365639454],[0.7660502318369231,48.69679825478523],[0.7433928921084365,48.71690523836887],[0.774959043114129,48.73752726458568],[0.7508055582409985,48.75949683157833],[0.7584300486684715,48.767971967774606],[0.7319447587721393,48.78545800743581],[0.6889623683560373,48.79460354988005],[0.6687110370739024,48.80802140346215],[0.6078685100835315,48.832489316673694],[0.6109659813863897,48.853218358881485],[0.5780409793892106,48.89364694598877],[0.5525030083730612,48.87553783157171],[0.5021397353658976,48.878150204150515],[0.4761125006440536,48.88686266076319],[0.45358528537402837,48.88019513771439],[0.4200659412941513,48.88818710783798],[0.42156714219561403,48.89864779537123],[0.38618934896504153,48.91041450585282],[0.3907837746929919,48.9271332888758],[0.412814532889088,48.950626367694355],[0.42880993562155445,48.96612177413988],[0.43394360004573646,49.00495438261333],[0.4462781902001329,49.014969905257644],[0.42590416560578637,49.031961024526844],[0.39019525565888735,49.03437482486719],[0.37767980975475124,49.04945033019971],[0.37935511955028134,49.06776772669734],[0.40780490572913114,49.07739021420981],[0.3997150635817522,49.10053337795652],[0.4267310809928099,49.146911914644164],[0.3858907764132056,49.15405567420366],[0.3947289759189785,49.20844416130579],[0.36654884147794087,49.21588212665217],[0.33741825014085014,49.23147819071951],[0.32113000687689647,49.24813594819387],[0.382786744119418,49.26401647481274],[0.3808108509605511,49.28238539554381],[0.3648958938390429,49.29519774636941],[0.32302317286212995,49.29699256482139],[0.31206679218437866,49.32225733229892],[0.32342800534930133,49.34064201714996],[0.30171362422988823,49.37130535987279],[0.30882332255488343,49.38786856245116],[0.2972244202906153,49.42986163728299]]]}}