{"type":"Feature","properties":{"code":"47","nom":"Lot-et-Garonne"},"geometry":{"type":"Polygon","coordinates":[[[0.2973255098237856,44.76228467395237],[0.3232866327071292,44.74761897166385],[0.346186543626901,44.7225420355276],[0.340537569558902,44.70304824522456],[0.35961911790454776,44.69100214687724],[0.3496189213624863,44.66012732964435],[0.36900627419453386,44.661175745652166],[0.41754944795275234,44.64625042497145],[0.44565684789610666,44.65274912995912],[0.47053010943012324,44.66957916232141],[0.4875231075582992,44.666678761175476],[0.5156727555160711,44.678339438211495],[0.5461757009438561,44.664653811569345],[0.5704204904951242,44.67489859623235],[0.5771464644207092,44.694023979180336],[0.6097310220706117,44.69537205404958],[0.6300837174762535,44.70504186396566],[0.6539964422514456,44.696742561948255],[0.6609287903127476,44.676687086290784],[0.7290670391461425,44.67608019640507],[0.7798374176059383,44.68338808872983],[0.7977266310515655,44.701767285601186],[0.8270009642517767,44.69188957907683],[0.8260869083147476,44.675993641671084],[0.843404038496723,44.66348079792942],[0.8363594164481827,44.6385854946771],[0.8170042739845023,44.62700147643911],[0.8373861616885234,44.61609958290861],[0.8386686479648295,44.60073353333194],[0.8699961633461998,44.597307270914904],[0.8907495915923311,44.61499646988759],[0.938715915523624,44.63970350097892],[0.9908384393481793,44.63713268673032],[1.014756458102413,44.614096475712024],[1.0733204955931674,44.595582525404495],[1.0751408247250982,44.577324783565565],[1.0716976200447952,44.56784537769172],[1.029736286682771,44.551976017460866],[0.9824267786867313,44.54548429761793],[1.0162314531417111,44.50587117332308],[1.0090253989657336,44.48004110906167],[1.0230092810371172,44.47543907306224],[1.0213774342184947,44.44445120337611],[1.0299753681284962,44.43361948161042],[1.0574884025751128,44.427669679196114],[1.060650411597149,44.40361122945944],[1.0514255555669048,44.39209372311952],[1.0640838318649115,44.37851326503539],[1.0498031510072285,44.36263857861528],[0.9960831328157144,44.36864294446829],[0.9806308033981536,44.35841947585265],[0.9500583334266814,44.35976314594097],[0.9199180731590045,44.384149730804495],[0.8982100442421902,44.381369123534306],[0.8873307771559802,44.36637485759437],[0.8961131685671826,44.34622833470228],[0.8696283736168164,44.309384546367944],[0.8951266314063179,44.29679206245922],[0.916429926804432,44.30219542177865],[0.9239584511688518,44.28869614788378],[0.9504654080705977,44.274984882924066],[0.9190898187097761,44.238270029336576],[0.9292392370345569,44.23025011826531],[0.9051836940209331,44.19731593132676],[0.8596865515735523,44.19273721850749],[0.8535753263369856,44.17496072438758],[0.8722443454179576,44.16786912488895],[0.8884779694239573,44.14877042878723],[0.8687736555079509,44.1263296946747],[0.8204870205722198,44.143244018566314],[0.7950995188269604,44.145608667033],[0.7962434549004299,44.11513490164438],[0.7540526324371263,44.10494098314301],[0.7384290025794918,44.07517631749729],[0.7418847912050018,44.06519923501575],[0.707796417778404,44.05801693922403],[0.6876624158684242,44.045888241623125],[0.6770868392750434,44.02697200478653],[0.6316490534555541,44.04949866816937],[0.6278895165319084,44.06062754308569],[0.6022274135910171,44.07371011611412],[0.5765096062579593,44.075205934881076],[0.5650779969821476,44.059221404780686],[0.5384274746319986,44.05295246662407],[0.4858132156850541,44.058600121652084],[0.4595156323439905,44.05523744897399],[0.44244991475496404,44.0287619833259],[0.39446331623218994,44.01998446971625],[0.3815242105137543,44.00637522428769],[0.3575675314065643,44.01637987419657],[0.299563922705621,43.99275637569358],[0.23519766394983782,44.00847404202415],[0.22470724318893848,44.019168066012675],[0.18957513112649763,44.014641710019696],[0.1667631974496389,43.99683417955631],[0.1634750890689333,43.975927867916795],[0.1379369703469956,43.976883130578564],[0.14096031674824933,43.99467654310261],[0.07604560969926086,43.98314313658291],[0.0626980132929106,44.00084249917964],[0.09431661158348077,44.065613157677994],[0.10177914904503296,44.08782254660348],[0.13673121582335918,44.10987087477736],[0.13579733087558213,44.12419368483945],[0.03459384382221056,44.13065240342955],[-0.0035391663583750703,44.149897854637146],[-0.05985846246111547,44.150817206299195],[-0.10518222695424868,44.1551363597548],[-0.12915451548994408,44.152409928751574],[-0.12947353060156191,44.203862714468414],[-0.14068847985275829,44.226404747689884],[-0.12013584466981135,44.23674667953463],[-0.08804999010961528,44.23886102586299],[-0.05336184991028127,44.265764926478745],[-0.03298436987139304,44.271725233652084],[-0.034811250980738076,44.296725798024596],[-0.059508100967366126,44.32137184585115],[-0.08575207965012982,44.33761004988665],[-0.07881922376705748,44.35369515694866],[-0.02996839148968028,44.36051961592557],[-0.012122430998677084,44.371315036223],[0.014724678596450859,44.36661482670666],[0.018233646559888256,44.389878791845064],[-0.002882225353325675,44.40546555102971],[-0.012027062235710009,44.42216048739268],[0.007529968364000282,44.44714235059867],[-0.00964812423297182,44.458953045356914],[-0.015453699893016518,44.505062787136026],[0.01809835904410432,44.52978491547094],[0.03685067130235277,44.55377569309968],[0.07072066177634428,44.54932864142863],[0.08618477510895356,44.57628609745734],[0.15503121242167628,44.61515967421126],[0.1826776591534784,44.66107212400698],[0.16217020857686018,44.670520278429166],[0.14155522468909407,44.66553015383226],[0.13439127028221218,44.681785671797996],[0.10990756955468833,44.684238793464466],[0.10217651632957546,44.699261620698685],[0.11781564233279757,44.71279600247887],[0.13340494933362354,44.70463342458088],[0.15300384600842007,44.73048103978557],[0.1941659722396007,44.743134942046765],[0.20145524828961092,44.72314903553606],[0.22538308407055824,44.761938628969595],[0.2557380828743981,44.750109827832176],[0.2973255098237856,44.76228467395237]]]}}