{"type":"Feature","properties":{"code":"83","nom":"Var"},"geometry":{"type":"MultiPolygon","coordinates":[[[[6.4348048599912655,43.01553967859008],[6.455204193482509,43.02681414026909],[6.470219113787291,43.04517281781743],[6.489595213255647,43.04264656574441],[6.4698423857502005,43.01636834554753],[6.4348048599912655,43.01553967859008]]],[[[6.397097505711295,42.992801581371666],[6.382674546492372,43.0122950539356],[6.420662735426035,43.01371293579736],[6.397097505711295,42.992801581371666]]],[[[6.244070723660419,43.02003990146341],[6.250456907741955,42.999405471017184],[6.2086721858280045,42.98337897719049],[6.164093203064464,43.001486581994094],[6.178205964056932,43.008378995767266],[6.201680276206104,43.000832977469685],[6.244070723660419,43.02003990146341]]],[[[5.753650891000443,43.72462222505303],[5.757332977582704,43.72940911375532],[5.781343238677484,43.75565738832376],[5.8278752703448715,43.748065843473604],[5.849146371217722,43.72025525749223],[5.901533390582641,43.73289106389851],[5.903517180339531,43.751432620885154],[5.937716232260396,43.75023611335413],[5.937998300025333,43.73057120981495],[5.9564454360651595,43.719401124766904],[5.98543773624429,43.71396312876724],[5.987939406703312,43.69505659267458],[6.005007067617743,43.68778786403108],[6.021735021476141,43.66827944245308],[6.039033980651841,43.67892716093395],[6.036131813943926,43.69416334085516],[6.077305911948532,43.70817081210753],[6.1036091865345306,43.73722227951302],[6.140796857826169,43.73769553098114],[6.182886008281907,43.76217559136371],[6.188517764066482,43.776267312514086],[6.212407106246491,43.79839605677458],[6.254215459954332,43.800433718328094],[6.262893011516566,43.781882078680276],[6.3267516313932,43.74662594026461],[6.356960735074889,43.73636766488724],[6.3835404106739695,43.73442775895217],[6.413483066219063,43.760360418472196],[6.4144280526034985,43.79159445843418],[6.4388083985564,43.797745193516654],[6.482076253327453,43.791074426311035],[6.52476198332243,43.80636597788804],[6.558904687579015,43.7841955441722],[6.585317018818273,43.80050767551297],[6.619973007874097,43.80550530861199],[6.636395800176684,43.788950567095455],[6.657423432162916,43.74871807004049],[6.682708528326925,43.757936848433445],[6.70139956454595,43.754068906503676],[6.719415853332108,43.7381403462073],[6.753535969205428,43.73816698047835],[6.766592784345339,43.720212010988675],[6.774352202435761,43.69341283496426],[6.7608013983957,43.66648795918856],[6.782299387537954,43.65415726922716],[6.798740654261999,43.62818033606127],[6.812859360304176,43.6305052559662],[6.838776771755721,43.613611496756825],[6.8879265318112735,43.60741263064278],[6.908012993627823,43.599079187946934],[6.907175687871982,43.572966433750736],[6.879542001080731,43.53535761950226],[6.89638230847014,43.5271599958737],[6.884230099335205,43.502535727819215],[6.933726236453417,43.480068010885034],[6.922885490828145,43.45174387541975],[6.905141154857869,43.44535017666573],[6.891803829527237,43.428580913728375],[6.857004426913538,43.430474860535256],[6.858844544234777,43.414799720326116],[6.826767053167243,43.41737073152947],[6.782764730332782,43.409442320887486],[6.766270052682748,43.42375280812916],[6.733704630154437,43.40559793735444],[6.732003206721381,43.38946313855496],[6.714335229285594,43.36790695222178],[6.7099565741085065,43.344596635575606],[6.6800297271705,43.340297041676884],[6.665952517510404,43.3182163655059],[6.583869079366629,43.27730467434808],[6.58599194489557,43.264474487305584],[6.6206975135955615,43.26419875103567],[6.639850874222042,43.27423471176637],[6.662119995811744,43.26490893551231],[6.677311623765608,43.278791964313584],[6.697137390126857,43.26639912327035],[6.690285120903589,43.25444947454634],[6.663579906038083,43.23804248633585],[6.6697773834987,43.20593681234112],[6.6424608658713495,43.185044777871894],[6.620225523392656,43.16070781744534],[6.591926740934735,43.18547932186572],[6.556403062532188,43.188079368186806],[6.495595304956187,43.15114513174647],[6.459406427232955,43.155878063276724],[6.4051625531535405,43.14899847503375],[6.368717778683196,43.13697275788714],[6.359759637416901,43.119904470727896],[6.365822239355368,43.08894493070752],[6.332512727498749,43.0910972881653],[6.316672182510005,43.106169850809124],[6.274938809272962,43.12074293872334],[6.24125248602693,43.11390300424902],[6.20808289628789,43.11644424038581],[6.1802726418863445,43.10699799522913],[6.1604467571254595,43.08929067476381],[6.15001613157217,43.061260557512185],[6.157072005051721,43.0283622233928],[6.116717634954243,43.03924175451086],[6.131609970477635,43.04800821003079],[6.125902358634685,43.07753538311637],[6.076465121556624,43.08694321993878],[6.031440047836645,43.0774733246304],[6.0234687473310835,43.09480782262938],[6.006259832558937,43.103984285718425],[5.940943551094233,43.10775854379546],[5.9206305576319345,43.12390905489088],[5.899891552467621,43.11317366571534],[5.916526116114346,43.08566056570662],[5.871977255950896,43.06810192056182],[5.8574626666009255,43.0466186792423],[5.828809918694244,43.04936457422897],[5.804564531287972,43.078284936751075],[5.813898362790477,43.107129005014066],[5.773153880321081,43.117608445363594],[5.781006228280267,43.13093301699203],[5.725850946491633,43.13652712230804],[5.719019910025584,43.14727450998757],[5.694880043308294,43.14358778681909],[5.671875005699277,43.179268786904935],[5.683909137465821,43.23605829449104],[5.738053338597997,43.26234879905431],[5.760928945485899,43.26733799967126],[5.749842102092498,43.289268158207484],[5.726600840963344,43.317355354807546],[5.691040375926617,43.31296284082202],[5.6805714198425825,43.320567749059826],[5.686454243837883,43.34018809721801],[5.705025402908448,43.35591845372619],[5.694566647112354,43.364397692972155],[5.682787396731936,43.39915686931637],[5.724430347442292,43.408873853719896],[5.749995488821414,43.40151212758493],[5.786515741534922,43.41454030725915],[5.750365813842735,43.43483686058608],[5.729497620866793,43.4649455181253],[5.698802592390258,43.48217012690398],[5.716142493328895,43.50429675245373],[5.722822019697228,43.54816058741321],[5.695815693323289,43.5621406925523],[5.6692574361600405,43.56473259595678],[5.655965226280003,43.57740113848914],[5.691599302975247,43.58442798717338],[5.681084297973491,43.61251583703795],[5.7002276041895055,43.64171580606343],[5.744798262971254,43.65677840759107],[5.799061112603831,43.66051789095841],[5.803458345470844,43.67967259461735],[5.782188925366387,43.70688803457204],[5.753650891000443,43.72462222505303]]]]}}