{"type":"Feature","properties":{"code":"78","nom":"Yvelines"},"geometry":{"type":"Polygon","coordinates":[[[2.200591009269503,48.908679329890454],[2.168378401515456,48.8950779335488],[2.1528691414227357,48.87333985214219],[2.1458733412695294,48.83602003450691],[2.1515778037276103,48.81702039834037],[2.1766744128227886,48.81380509870073],[2.1829398770998654,48.7972269838604],[2.2026350450801604,48.798403323102875],[2.2265593271545225,48.77610203162176],[2.2027216574242257,48.771358218371454],[2.1820096609166937,48.757573640869396],[2.150675004182983,48.753712115449396],[2.1349798974354277,48.737139276053675],[2.097999010182745,48.73436502883337],[2.1103326928214208,48.714381141190366],[2.0820789629661083,48.68544592956703],[2.0456590375105823,48.687570739614664],[2.0178852678544255,48.64224227868909],[2.0602445240702307,48.6175941143781],[2.034508920154608,48.603498748150024],[2.035741451799255,48.58886342431221],[2.0172296562124665,48.56946047379915],[2.01757406029729,48.55759738742344],[1.9787832030076382,48.553654167165384],[1.9378872442847588,48.562931040710545],[1.9340684230182927,48.54810690246857],[1.9674261909808515,48.53307136184394],[1.9460308303104135,48.515862147920664],[1.933377950693106,48.482146422725215],[1.9149145708790403,48.473854949789406],[1.9221489648373706,48.457600286064135],[1.9064022701801788,48.44014576962788],[1.8716851573650342,48.43978475842447],[1.84486306037181,48.4493607065379],[1.8321369890615689,48.467581442678565],[1.8032057888939028,48.472565678495286],[1.7768442507697113,48.50931096191216],[1.775751488475668,48.52770729661422],[1.7872450519775867,48.55374456486673],[1.7653297161980415,48.56937104099974],[1.7092527874670105,48.57802434626235],[1.7019890546581085,48.58499862181419],[1.714895681919355,48.61439494545783],[1.6662188615195896,48.613706715891],[1.651574528306872,48.63812870428749],[1.603118482168126,48.66241796207503],[1.6117708691618606,48.68947111646258],[1.579545829918285,48.70181187348942],[1.6263993499269267,48.748094297484094],[1.5875947031508344,48.773602302755286],[1.5756742260519878,48.7905067944881],[1.5912030850964909,48.814869639400584],[1.5772685877162862,48.84436076548629],[1.581598875031263,48.85499897015231],[1.5462315883376268,48.87242890235984],[1.5595052783343866,48.88205164409549],[1.5385208308731109,48.90668492167043],[1.5386150005667363,48.92179645733065],[1.5073440226070087,48.927598989147334],[1.5015238197988665,48.94105360615515],[1.4974212515808907,48.97955944476306],[1.477085024550759,48.978790316157344],[1.4770779834042216,49.01679764336922],[1.4577625828067995,49.026291046220386],[1.4474328265726297,49.04518805211747],[1.4607983669865394,49.0627440580796],[1.4848834480593345,49.05154791492779],[1.5380423840651944,49.072342033316],[1.5570756944651978,49.06962240086733],[1.6017185942276444,49.08450261108525],[1.6087960706299218,49.07789415353795],[1.6455144472390726,49.08139804743355],[1.6736891270071164,49.07815117318431],[1.6937298328462178,49.056950122989164],[1.7234571618642331,49.04497657550691],[1.7596265233069017,49.06332287848212],[1.7942998843096216,49.058190360814926],[1.7965466896679247,49.072232197890884],[1.8300339442296272,49.0754853922552],[1.8653368480003796,49.05724562325274],[1.8513341928477542,49.03336315145782],[1.869115159435854,49.01823530435844],[1.8912257485830386,49.03927754626276],[1.9124689805854491,49.041836823035794],[1.9378021652564328,49.02177632637227],[1.9918815520004978,49.0210106286694],[2.02340791218018,48.99794435218925],[2.084914920835882,49.014678714910325],[2.127119946587909,49.009678482150534],[2.1207126230627655,48.99330122057494],[2.154931342389435,48.985723515837904],[2.175542212320485,48.97240487622723],[2.17723226175586,48.953657461253236],[2.20585834678071,48.94974074221645],[2.200591009269503,48.908679329890454]]]}}