{"type":"Feature","properties":{"code":"52","nom":"Haute-Marne"},"geometry":{"type":"Polygon","coordinates":[[[4.670183207291811,48.53188730232318],[4.718012145060739,48.54199401283636],[4.799180099828292,48.529779876249094],[4.776020152963706,48.565957606678474],[4.769195892207036,48.58868831063029],[4.796778242210989,48.59529317207245],[4.829662115751189,48.612481442983466],[4.850509978828629,48.614183688167515],[4.850578327876817,48.63991537290219],[4.807564203534146,48.65430553938369],[4.772425267645258,48.656461849317175],[4.7816659214071615,48.67019744127014],[4.822713970971492,48.67403036103939],[4.867775765589871,48.66719674333675],[4.910378975054349,48.68854676058441],[4.935102757331475,48.67804414699184],[4.9502952474979125,48.6879545407904],[4.988427677798425,48.684418562233176],[5.008333278861154,48.67023772723031],[4.992811815436962,48.65827053404921],[5.00616236089035,48.63348264533262],[4.99466786336989,48.62182551829475],[5.0141448684428935,48.610214170115775],[5.032284450963603,48.61329817233609],[5.049692721915686,48.631265806018796],[5.070374138899134,48.59610309669313],[5.117905583758205,48.58495445930086],[5.144873587885955,48.562874491019556],[5.173113022339201,48.55631460308862],[5.208425883036941,48.53861075457746],[5.264870353729535,48.51920792199762],[5.305623464696029,48.51591327057272],[5.327278259522607,48.50479938800887],[5.349469998299744,48.48198867902053],[5.406054924803939,48.46539304073884],[5.408498570986399,48.445794580180355],[5.445157350390678,48.425081250152175],[5.470061704426128,48.42092884036511],[5.443801554148948,48.412796111132934],[5.408721169498744,48.38310019043649],[5.441572019947177,48.38023164680497],[5.419996789966145,48.36209610065057],[5.418230200002256,48.339827299478394],[5.441808221286742,48.33585087730688],[5.482149185087855,48.35620132426793],[5.52236342294961,48.34085020470289],[5.544667324256171,48.31484393016795],[5.5879967536815585,48.278489865685614],[5.611652001252659,48.29181533437579],[5.65380919650419,48.26852380977062],[5.640901189478503,48.242354204929356],[5.677420725123087,48.22898238922798],[5.6877917029501965,48.23418465758911],[5.719343419026872,48.21284553404126],[5.730982683815125,48.18969958329602],[5.696740894208173,48.18888423309182],[5.6822435704493275,48.17570971343473],[5.68431870758825,48.14504209497101],[5.656886341889701,48.120399648852754],[5.629010103166862,48.0844163929701],[5.65966986503565,48.08486263156757],[5.740575630698962,48.050043986724326],[5.77774789858366,48.031361923263205],[5.793591975095584,47.99070892021546],[5.778492027788896,47.97800978811231],[5.787280985479235,47.952596973102644],[5.850003923490582,47.96283504722941],[5.884726375202079,47.926047148569474],[5.890864473987194,47.910829841401245],[5.869970150074121,47.900706913078324],[5.851317308296247,47.905988473584586],[5.805624457872526,47.847311152266364],[5.76119123886598,47.85933449216956],[5.744128331452809,47.84867639845901],[5.746056257349712,47.82359612703334],[5.732629873750381,47.81759710089163],[5.699885101970957,47.82390335263593],[5.681940162654595,47.806412809419605],[5.679969716046147,47.769967881716525],[5.705093217659827,47.76911094285444],[5.709442412269412,47.745127245662815],[5.693342993991239,47.737537821735295],[5.684123936651815,47.711966155758596],[5.690079801415203,47.684838574927916],[5.6534056633858105,47.67738242296545],[5.596682241448045,47.67168603172257],[5.585005103022503,47.69979015765272],[5.567204936430051,47.70523436852804],[5.529778304397354,47.67282923798152],[5.482567919490752,47.684602874896335],[5.4460337898832885,47.67077575883233],[5.406342872021028,47.673400744473895],[5.405745536478159,47.646866141018315],[5.37317594209649,47.61838294374159],[5.374078595885573,47.60454165278582],[5.354893869684326,47.59131447740441],[5.340003771124325,47.609065915523516],[5.299837418963084,47.60492946802028],[5.252920215668424,47.57694786282474],[5.238668295142944,47.597284983235],[5.239232274239111,47.61613009897604],[5.211414189836741,47.64189107719557],[5.173597037303847,47.65256871236608],[5.178340930532218,47.680951862214265],[5.1282137463189255,47.64769555171287],[5.084909015051583,47.65725535909673],[5.0435872776506425,47.676515292793226],[5.030001604156784,47.70940841478221],[4.992275225837213,47.688313503769756],[4.959844644041361,47.69697375959394],[4.953807643894032,47.70691553121908],[4.971770458339338,47.73022100712152],[4.949610301299183,47.765002530384045],[4.930742567556667,47.76133580408352],[4.918299821120011,47.7773135776728],[4.987227991995704,47.8032996343454],[4.993918239441858,47.81957144123197],[4.9683502146365655,47.83194135820226],[4.9540942495981195,47.8667681480835],[4.9282302679425625,47.871121167237085],[4.928173323343671,47.886876403893034],[4.901848449197037,47.921289405231384],[4.87629817749016,47.92022401352716],[4.857004574909452,47.895855881593434],[4.828942462053263,47.915128709594974],[4.866096820746109,47.94050603305215],[4.845182055142008,47.96125251907535],[4.811007449975246,47.95932655708529],[4.785061370779013,47.968869095555945],[4.794634345104126,47.983197869158744],[4.789083695644797,48.00782938255744],[4.749300809603172,48.00425102648959],[4.719943437560306,48.00889645519276],[4.704238250439468,48.0202323762063],[4.711006682460102,48.04991853541924],[4.688818526238874,48.073127919250304],[4.708492447514134,48.10012538889342],[4.730610406781701,48.11820899817677],[4.7632776797863725,48.11550181600475],[4.8193072949588815,48.10319242346332],[4.835619390228278,48.10855609279288],[4.829291938175258,48.129608375504965],[4.850099917169891,48.14175885538576],[4.837947597948636,48.168959717850704],[4.862104268789182,48.19962383107111],[4.844090578611303,48.24161361141823],[4.857678156974527,48.26856300069992],[4.842390138796092,48.28357098511807],[4.850845034125924,48.296245729889414],[4.814217580453079,48.323010826658724],[4.8414713515268755,48.339464111308324],[4.754719796035579,48.36668089354523],[4.76018751621395,48.38761245982979],[4.700747648353684,48.39575121376588],[4.672923053694571,48.44493692940629],[4.635723724779378,48.456919205602716],[4.6493513522062,48.47085769541501],[4.670183207291811,48.53188730232318]]]}}