{"type":"Feature","properties":{"code":"75","nom":"Paris"},"geometry":{"type":"Polygon","coordinates":[[[2.416339717281352,48.84923827340741],[2.4622646327720443,48.84253748930953],[2.4626974524261254,48.81905707868419],[2.4384502049151475,48.818235158647155],[2.4006819201840903,48.82909612370583],[2.363949262797974,48.81631512383787],[2.3318953139887446,48.81701271305569],[2.2790573794463054,48.83248998498127],[2.2242245702250814,48.85351605360998],[2.2317363464837308,48.869069480870024],[2.258472586492028,48.88038999464371],[2.277487004862913,48.87797011937597],[2.319884458526643,48.90045886733916],[2.385151006972503,48.902007792208785],[2.4139437894422056,48.87082877761242],[2.416339717281352,48.84923827340741]]]}}