{"type":"Feature","properties":{"code":"38","nom":"Isère"},"geometry":{"type":"Polygon","coordinates":[[[5.623748035268078,45.61326832676418],[5.623027366443004,45.60428439343032],[5.675167496407929,45.552447358553074],[5.671709636036369,45.53657315102359],[5.690155380407807,45.52805094541753],[5.71223316468065,45.505057950484435],[5.719054346580329,45.48422397831694],[5.73637233564262,45.47254042424704],[5.731970000928497,45.45281667211181],[5.740104011811925,45.43734623286918],[5.782081150720109,45.44065533936711],[5.820296539907869,45.421184335243574],[5.854272829475331,45.41656686156957],[5.8797384015593375,45.406796712103805],[5.891004502554541,45.39221582440636],[5.909619159426924,45.3904002917266],[5.901623412018766,45.41803604702067],[5.9205757281996165,45.446107810736585],[5.92551858695235,45.46607303539041],[5.915370443544101,45.47644734987887],[5.966169653050879,45.49230872138139],[5.991189721035916,45.47515424577151],[6.010911085643492,45.4732028948577],[6.008517618674313,45.45384805163827],[6.049753851710852,45.43791952965108],[6.090976636521003,45.444017712369956],[6.097443053810049,45.43210624582376],[6.13250773126349,45.43338472055341],[6.144660957447894,45.41359714609229],[6.177450938299202,45.39316148783122],[6.194758976954228,45.35224190534863],[6.1844503207792245,45.31794850760671],[6.160203556675586,45.31249020082116],[6.131944929909637,45.288287215984546],[6.140875621531491,45.261921460435985],[6.125696481423486,45.244270268835855],[6.159477588169717,45.202453059383735],[6.161919245441667,45.188407230805964],[6.143789597164076,45.15455037021851],[6.16131722681015,45.151009138334466],[6.189207693158913,45.163732283277994],[6.227710427654607,45.142718202360385],[6.248933790379999,45.14966269770901],[6.265373167502132,45.139612058658614],[6.260566197557925,45.12684791386632],[6.229388123209472,45.108750055807405],[6.243017832342709,45.06906387836911],[6.2200801563699395,45.06536793621533],[6.203927022398643,45.012469165084845],[6.251755823777455,44.99669933009644],[6.300180534522452,45.00397824625707],[6.321848392012048,45.000080059582814],[6.3148150406516885,44.98018487183722],[6.3285028218875325,44.969718924476524],[6.3289997583261135,44.94731911410858],[6.3588400606704845,44.941284471463],[6.354621853701313,44.92359576979837],[6.358440638759468,44.89205674340702],[6.350781709377172,44.88120395797154],[6.354685212537601,44.85597093285778],[6.336319027358193,44.84836943493937],[6.300679811301804,44.87347754001874],[6.269405725021001,44.87047437006196],[6.25054409332542,44.85265497741959],[6.196382213093447,44.85897725265292],[6.1707886083957675,44.85422409321522],[6.128361780211359,44.86189793671716],[6.111944264637026,44.844104598030206],[6.056880845755912,44.81648809334095],[6.030210546238997,44.838096097754196],[6.004863991929379,44.82044164675532],[5.979181680039922,44.81858485233257],[5.94951924784745,44.80453012289717],[5.977781702799108,44.79098097178422],[5.9801466158902254,44.78117807160656],[5.92220546362268,44.75408063667132],[5.900145988864039,44.75831810886521],[5.888833543818295,44.74880281266777],[5.846789359515513,44.75162114202083],[5.82777670542201,44.7400904212036],[5.801469996094522,44.706778512869995],[5.757110126926433,44.6960374105235],[5.7387858126735685,44.712419126045255],[5.708698705355806,44.720924547440156],[5.647101681531142,44.724098953876464],[5.627084872571889,44.75246442874924],[5.583886354820008,44.76534387074039],[5.582046117791262,44.777862736908396],[5.538609682625281,44.77435333052135],[5.4641587549688655,44.79242749679306],[5.484766003910795,44.82306199061912],[5.463794835880649,44.82597088831498],[5.475071217930305,44.86759688581832],[5.483647138020397,44.92229059824822],[5.477674326344703,44.96675249985711],[5.493108370230375,44.99650387405212],[5.480457675487145,45.013866206651436],[5.466222808609953,45.05369264423919],[5.482962641076428,45.083813985829416],[5.4594242070232415,45.084354048653296],[5.449788835244156,45.070783659173316],[5.388382939418146,45.03613916354605],[5.3438842908647155,45.04990301119417],[5.317097625615876,45.05144543143657],[5.300641951274725,45.06258684321087],[5.248350471901153,45.06093433768146],[5.226123302713108,45.07917959620953],[5.1833365351237415,45.08488121016097],[5.171188406008603,45.06901345142979],[5.148624024939402,45.07523359417633],[5.162894297608516,45.0984305870661],[5.187438130822191,45.12083055585071],[5.188573507748233,45.171268538792575],[5.165271150444932,45.1998716765054],[5.184576231954122,45.231193647083316],[5.176540876984406,45.2484020449113],[5.121425532367965,45.24833591809063],[5.138525456127068,45.29621886821675],[5.075414977696186,45.28182474686916],[5.054318727576239,45.319054679747346],[5.019860000114205,45.32012334781686],[5.00965209426827,45.34223102677266],[4.989191483458711,45.34404664083611],[4.960882968689533,45.329431946438525],[4.927837287858217,45.322467078582974],[4.879709663152382,45.2969314761542],[4.858798773300606,45.30895383074844],[4.800493926884063,45.298360661142944],[4.769929030711337,45.316015123688956],[4.761388480871705,45.34063001021366],[4.772556757363274,45.35486449672088],[4.755996992712002,45.36567226076598],[4.755804203494391,45.39641527650575],[4.744760477737733,45.42132931211987],[4.758664794548146,45.43109160083594],[4.756935570818616,45.45570734978024],[4.775917949204341,45.45421052340817],[4.782279555986659,45.47220452723034],[4.8412638959614664,45.50060628572331],[4.868481734036511,45.5234402120416],[4.864438371893341,45.5373424891419],[4.840117013694024,45.543291913290595],[4.808696981728118,45.5723005698916],[4.828114865183135,45.58789311790868],[4.85277784466551,45.57887851405256],[4.864457684448963,45.59360146128447],[4.901457719834113,45.606267804658444],[4.927527809638902,45.605706962994894],[4.9719731415095545,45.61268302966118],[4.997963145407583,45.60341491364353],[5.0047455923475,45.62311113752578],[5.038083762231331,45.61507172104689],[5.035148740524161,45.63720294798379],[5.058062092364437,45.65324362294234],[5.059543480830934,45.66509793238911],[5.1081318769103605,45.68802493937274],[5.131061214476138,45.7077086126494],[5.159431081299061,45.7088530167123],[5.126011929215237,45.73790916787724],[5.094526879742294,45.739453359509234],[5.093091174921406,45.766089791057205],[5.068368951685849,45.765473881827624],[5.059330594890989,45.79197852353507],[5.089312645190639,45.784275022180616],[5.101067478338776,45.81337808264365],[5.1603687442585455,45.80231368825673],[5.176892976082814,45.7934833284559],[5.191532760208242,45.771688000938774],[5.221074288749879,45.76845271626348],[5.266894883868229,45.78936901099017],[5.288915017040864,45.81112188995001],[5.302019342914551,45.84764710800802],[5.329298728282268,45.86357404303832],[5.351020842949957,45.883709517437694],[5.413134793996487,45.85221987973304],[5.434944676804955,45.831093776494285],[5.422469140800665,45.80730767616671],[5.457406410775327,45.78099315590627],[5.482525465260449,45.754586398783026],[5.516232131684801,45.73225264077732],[5.52567323556446,45.71672537840989],[5.5455415978088505,45.71359345746488],[5.5757522584808825,45.69178828956468],[5.552743866622332,45.67988793690172],[5.586411372003499,45.66707375970352],[5.602655500360425,45.651527036877965],[5.623748035268078,45.61326832676418]]]}}