{"type":"Feature","properties":{"code":"58","nom":"Nièvre"},"geometry":{"type":"Polygon","coordinates":[[[2.8746252064056805,47.52042311253978],[2.8489038940037736,47.53754044480101],[2.8574899628231805,47.552844658956644],[2.890770179974213,47.55309660602271],[2.914297452553034,47.56597018271849],[2.95865823105343,47.55738006412381],[2.9765380120036067,47.56942879709582],[3.0187759740569513,47.55731386824091],[3.059199650745983,47.56884905584853],[3.080558427544962,47.5854885999859],[3.102009918822544,47.58795615956075],[3.1350763394879597,47.5419077972082],[3.165190757880271,47.51750199807388],[3.2046491761957805,47.522966343570126],[3.2354902376938353,47.4891790840854],[3.2721566613710795,47.49154765493751],[3.2852515362929866,47.50393862662616],[3.3395269332726487,47.47816523272086],[3.3807002450190415,47.48729175533955],[3.3972880002653882,47.508867495938276],[3.437164175942187,47.50799559642577],[3.488276701493949,47.493830911376975],[3.492366537968952,47.56012889108053],[3.50460694021663,47.557934222629186],[3.5135049928892266,47.527668013741454],[3.553140570878716,47.50232679103883],[3.5806168100615214,47.49786323631363],[3.580113356556516,47.46490071648911],[3.6789914842274665,47.445533677873506],[3.7147823454353084,47.406834666623176],[3.74055092250182,47.39650073819435],[3.774605414302544,47.40619956994621],[3.785647440559844,47.39054224193822],[3.818472205441228,47.380187941025326],[3.8217875906686545,47.402796919032404],[3.8443762508505244,47.41082738551116],[3.851506603080638,47.43558613394464],[3.878310953801514,47.42929226716236],[3.8933965172489198,47.410290156628015],[3.8635369268343536,47.395841532600606],[3.8718702934595615,47.36693490948858],[3.8867653218201808,47.3645805378824],[3.9087922026053734,47.38205569491613],[3.944243142987652,47.38021568332925],[3.9653529425108722,47.3652327054121],[3.973097819719344,47.332712674420605],[3.999278507688071,47.312773725416655],[4.028760221806572,47.31557728480351],[4.046432164286821,47.339943756300286],[4.106085850126875,47.339255985490894],[4.1249016818373665,47.33586115686488],[4.130399481098536,47.32021421171321],[4.114111422721765,47.30795616873572],[4.115801786333514,47.27973253282323],[4.135479914723283,47.23739632412277],[4.178052482394732,47.25029686466267],[4.218051703421399,47.22051351486304],[4.230668433773607,47.19895113888856],[4.21254075976185,47.18181888845327],[4.209834279044644,47.15541168354448],[4.1819015999311935,47.15050500507014],[4.137377150535575,47.14271256994814],[4.115067396116834,47.14616206884513],[4.1159670699158095,47.12333757652634],[4.093453790716921,47.11837533659616],[4.06142733788571,47.121041664100176],[4.038726355028209,47.08001003428516],[4.068333453149657,47.060849772300685],[4.0565135025792305,47.03590917660347],[4.054940156290852,47.0126839142093],[4.0314701513696285,46.99832730189447],[3.9951563121844047,46.9853110258271],[4.014415061270238,46.97247440888245],[4.039401951235417,46.98511001230653],[4.055716129773101,46.956751483000446],[4.037221978317054,46.91815560684184],[4.047930985015345,46.899770705295666],[4.063541781254885,46.898637142134945],[4.093851364443379,46.8747343332292],[4.10088702370378,46.859107279954316],[4.056234450174584,46.843272376735854],[4.062709832615211,46.78936469128212],[4.033374685377483,46.787597067958394],[3.9632215617966824,46.76602786916393],[3.9268461357095314,46.73932209846788],[3.886217784502878,46.72736946397975],[3.8446585970830824,46.720902226508414],[3.8260957715927075,46.70391953563021],[3.797329518692337,46.70150263714515],[3.783666045566592,46.736048122663426],[3.73619002089105,46.75247120098576],[3.6764513769021243,46.738863704610445],[3.638852795875816,46.7414291297393],[3.629423683496518,46.74945902193754],[3.575688644059658,46.74951576942387],[3.598004570548422,46.72398257750036],[3.5773110866449174,46.71485003618856],[3.550392218815862,46.715864672081594],[3.5601217846433015,46.68944384651715],[3.546479370174174,46.67829016254972],[3.523959952566555,46.685994912475735],[3.4885699471242644,46.6601824726314],[3.45529917195652,46.65239553162601],[3.4473359853067485,46.66355627140273],[3.453772658174005,46.68414192059341],[3.432977086126445,46.69334363262723],[3.43414613166678,46.711906018109566],[3.3877607382601562,46.71481835659156],[3.366446289777872,46.69126127383442],[3.3467088070518343,46.68441634541089],[3.3139717258866157,46.688751593416065],[3.3009216002863893,46.7163033886406],[3.2697920192933188,46.71674092868996],[3.2155498733945853,46.68289184476865],[3.197261486410674,46.679926344970944],[3.1631563644760856,46.69354021702288],[3.129775813721409,46.72720423640006],[3.0839363013486563,46.73762859045693],[3.049065356287102,46.75807894189366],[3.0320681893946824,46.794911188525944],[3.059347134977098,46.82726033600817],[3.069533804251037,46.85306859289044],[3.0680947893123323,46.877676731330354],[3.0502941730720203,46.9106303658982],[3.0793297925031697,46.955118753700084],[3.0628630913516144,46.98581276267424],[3.0757508386893258,47.019144570799824],[3.0627479524794685,47.04527994600743],[3.0232152406674615,47.06261687352466],[3.0313750673889857,47.09247842625923],[3.0280852399597813,47.129067685143],[3.0092825607816684,47.17991916254789],[2.9816846477683376,47.22199695723395],[2.9834041014118906,47.25976318037284],[2.9378686076548557,47.287718487007425],[2.9077684884182546,47.31098769398195],[2.8767969741076427,47.321752773704915],[2.8734906167112504,47.34839595881793],[2.9194707204649397,47.407274676600125],[2.931175112801269,47.441669509538606],[2.9026727758043678,47.4787904760825],[2.8884546532335578,47.5094282811585],[2.8746252064056805,47.52042311253978]]]}}