{"type":"Feature","properties":{"code":"72","nom":"Sarthe"},"geometry":{"type":"Polygon","coordinates":[[[-0.05453120471342586,48.382003457815514],[-0.04462899093295152,48.379755379925435],[0.0033707584170527497,48.39598744941706],[0.020988775959532427,48.38019902542899],[0.06252414284954447,48.38302768487248],[0.0686800642491165,48.406668571805646],[0.09917026625350714,48.41035346558878],[0.11624508246972709,48.43555379652284],[0.1513148609685129,48.43722944549019],[0.17216701037378906,48.46478849710128],[0.18981014616858835,48.46189487699406],[0.21796784681891437,48.4738014493765],[0.30023976976312095,48.480570774759265],[0.35577910790038714,48.4582196404425],[0.38155707814654405,48.42516246095979],[0.3717304119271855,48.41045271670545],[0.3831416441494548,48.35506581259146],[0.3826045470591668,48.33382739375671],[0.4062188750511576,48.31462381799055],[0.4313327796769827,48.30663773892564],[0.48757228180388706,48.307800269630285],[0.49456203378441577,48.28681219277962],[0.5303066115723511,48.265500468342935],[0.5359730618565085,48.24984731423508],[0.5791940330516644,48.24436715365327],[0.6236114391567086,48.24531365157172],[0.6531564634145168,48.26370008686643],[0.6754723126802372,48.254743451079044],[0.6954713879467597,48.236330986094266],[0.7236370295054257,48.198143278755104],[0.764084678712686,48.181597068873735],[0.797655838494225,48.19445221754921],[0.8367739335625146,48.166991974853865],[0.8619836907733601,48.16682130452495],[0.9116186783263119,48.14886135015183],[0.913802022562964,48.13512781830264],[0.8525696983122546,48.133605674559426],[0.8412172317044129,48.10306240932052],[0.8430226369432118,48.07264184794484],[0.8011883732648392,48.0715172542445],[0.7975514233427093,48.03724057968432],[0.8405346727531238,48.021049640847735],[0.8323705747596303,47.996592919852844],[0.8186564019800159,47.9892543363892],[0.8376537080820077,47.96869214349436],[0.8454683997304765,47.9413323536207],[0.8171444727137281,47.93447148791446],[0.8091382962389404,47.91066255080899],[0.7805065684044099,47.91037691407999],[0.7573343557395469,47.8911737517487],[0.7745788175007324,47.83968729513432],[0.7452461943264459,47.82624263074177],[0.7248506777855144,47.79889099623824],[0.6512736394121261,47.75525397111593],[0.6207093570907236,47.747478130583154],[0.6116040970811059,47.728130849502094],[0.5805178732790718,47.71232800971273],[0.6144311990931555,47.69421364605317],[0.6148109083098767,47.682749216116356],[0.5847693599955615,47.66857981952678],[0.5599236683507411,47.67081925112141],[0.5446201655241357,47.656594675363216],[0.5168171483414108,47.6548633763592],[0.49841790772099426,47.644762985249095],[0.45663070361835445,47.63882641156769],[0.449927725905683,47.619326961976206],[0.4239064036884163,47.61782807903746],[0.396250654091774,47.640846063055804],[0.36465541592168343,47.62601597769362],[0.39696475621012467,47.59398591871484],[0.4025770030261876,47.57851243241093],[0.37848363992659617,47.568525933307754],[0.3395858922127171,47.579470515833165],[0.32305499229698215,47.59299821090531],[0.27798986367452727,47.59737754800952],[0.2592506238809073,47.61225007215638],[0.2300017263531844,47.60839829191704],[0.1857971097487886,47.61573515835152],[0.18492077212499186,47.599519723895675],[0.13984161379263732,47.59111878052602],[0.11568518986526223,47.60572820554534],[0.05165930848592442,47.606515201700375],[0.01704033105751261,47.62110138156107],[-0.004507638464452976,47.64768842379034],[-0.05468293127308542,47.64842261886652],[-0.07177191841107244,47.658369330035505],[-0.1075909106103418,47.65528707795732],[-0.13610057418750457,47.634067825440376],[-0.15714474625449978,47.64556263174295],[-0.19315724780649848,47.6479165803738],[-0.19505682505367974,47.66137704033336],[-0.2201912638722686,47.68962152946947],[-0.20031003076883538,47.69468965521296],[-0.1823177464697087,47.712899554202],[-0.20237319489976208,47.7252424835264],[-0.23897070389904987,47.704236533845965],[-0.2867043357584838,47.7193267262097],[-0.3340636977656885,47.72116613990195],[-0.3749413527409204,47.739263349746885],[-0.3817032700427246,47.76056283993387],[-0.3754332123417834,47.76723904317632],[-0.3882005825686289,47.80531865639091],[-0.43408017720781095,47.80905444470248],[-0.4478589178811479,47.832216379452724],[-0.40938712543111205,47.858367062871636],[-0.3743813069594822,47.85830770196427],[-0.37698156137550093,47.887202712966676],[-0.40516479150867374,47.89292797578798],[-0.40710509590818,47.91084268048501],[-0.39622906190687696,47.92596685050878],[-0.37509534291502034,47.93272853592671],[-0.33832856883634976,47.93101420361583],[-0.2953214951501512,47.944001512102375],[-0.2826331784456301,47.958191807392794],[-0.3160042679648186,48.00526279935535],[-0.3399323890629896,48.01160216696548],[-0.31721069812097374,48.04509335726533],[-0.27144577462211034,48.06524304546605],[-0.2309424436035576,48.058985357486335],[-0.22496575471956115,48.0740005169816],[-0.23852128063613662,48.08512943952702],[-0.2164164207043083,48.11373479657783],[-0.25380835722539496,48.13652925202679],[-0.24992127138834272,48.157106805241526],[-0.1989536608764294,48.17827619579444],[-0.14683706738655639,48.205008919837425],[-0.14518119273289676,48.224233621433555],[-0.16095933457080433,48.23880560928454],[-0.162366087633251,48.26001034242559],[-0.13808698398432823,48.2934339795153],[-0.15462051452709383,48.31399248085133],[-0.15624187430084163,48.33878308965111],[-0.1322639799404977,48.34367891800192],[-0.13797809431803487,48.36135559567944],[-0.11216445619965741,48.37424593844257],[-0.07781568991642306,48.369011884149366],[-0.05453120471342586,48.382003457815514]]]}}