{"type":"Feature","properties":{"code":"95","nom":"Val-d'Oise"},"geometry":{"type":"Polygon","coordinates":[[[2.5905242793946224,49.079654846732424],[2.572031573014404,49.06149045194861],[2.587858904546535,49.04990157898905],[2.547651942231624,49.02344674891678],[2.55306064485419,49.0098171174389],[2.5322426864128684,49.005223756710706],[2.5147706684191236,48.9822601449233],[2.4673283497589793,48.96433475385722],[2.4594899596115933,48.95504632683333],[2.407383854100793,48.95612202818259],[2.3845399290016545,48.970997610129494],[2.344102277288972,48.96823838528235],[2.333312950123798,48.95538233563509],[2.2989593311869005,48.96630137751687],[2.2909735732251613,48.950966788077196],[2.2687243837962194,48.94657952905197],[2.200591009269503,48.908679329890454],[2.20585834678071,48.94974074221645],[2.17723226175586,48.953657461253236],[2.175542212320485,48.97240487622723],[2.154931342389435,48.985723515837904],[2.1207126230627655,48.99330122057494],[2.127119946587909,49.009678482150534],[2.084914920835882,49.014678714910325],[2.02340791218018,48.99794435218925],[1.9918815520004978,49.0210106286694],[1.9378021652564328,49.02177632637227],[1.9124689805854491,49.041836823035794],[1.8912257485830386,49.03927754626276],[1.869115159435854,49.01823530435844],[1.8513341928477542,49.03336315145782],[1.8653368480003796,49.05724562325274],[1.8300339442296272,49.0754853922552],[1.7965466896679247,49.072232197890884],[1.7942998843096216,49.058190360814926],[1.7596265233069017,49.06332287848212],[1.7234571618642331,49.04497657550691],[1.6937298328462178,49.056950122989164],[1.6736891270071164,49.07815117318431],[1.6455144472390726,49.08139804743355],[1.6087960706299218,49.07789415353795],[1.6350518648476458,49.11430020855939],[1.655777439712795,49.13016217033744],[1.6643738026115165,49.15336752369717],[1.674090204376027,49.210248479159524],[1.7043642065965865,49.232201775163404],[1.7341091564710822,49.221278789282294],[1.7421373979981678,49.18015527802457],[1.755165127607803,49.17454501384096],[1.7954686863275515,49.18525912523885],[1.845548847714221,49.169897638882595],[1.877040859056052,49.17144524902654],[1.8852389528169067,49.16263786454188],[1.9314802344723212,49.17417045483985],[1.9607171449401366,49.173518197205695],[1.973760882151743,49.18378113635129],[2.0006083248213287,49.175708039448175],[2.0749104023995684,49.20868708172066],[2.0968812642737786,49.18975715797898],[2.1327389034606554,49.191378260554046],[2.1819500283812623,49.17367773782481],[2.218650036331584,49.180682600571025],[2.252488213818398,49.15288152246086],[2.2864129770481765,49.15992057659305],[2.3109290446865427,49.18640655833579],[2.3462570508145517,49.161815824563625],[2.3912888696248515,49.14934773205012],[2.4131026213629148,49.152351151856486],[2.471584849664169,49.13543134509872],[2.5032579551258722,49.11758406300134],[2.4899309091229616,49.10636117791936],[2.5581713639343153,49.09838623642425],[2.5905242793946224,49.079654846732424]]]}}