{"type":"Feature","properties":{"code":"53","nom":"Mayenne"},"geometry":{"type":"Polygon","coordinates":[[[-1.0701645143702043,48.50849381419032],[-1.0605549892053183,48.51534444794686],[-1.003998750116345,48.489170559999316],[-0.9722539090536432,48.49459678797466],[-0.9563792193607108,48.5166180795957],[-0.9223589824244613,48.512387467627654],[-0.895759002734999,48.49483509679017],[-0.8603629154348681,48.50145849652254],[-0.7975558085305263,48.465278693659805],[-0.7778740724524535,48.46541168200867],[-0.7796468261489741,48.44602717779943],[-0.7572811397545338,48.436551469912764],[-0.7151034623418729,48.448949122074],[-0.7358573623603453,48.46112222178988],[-0.730343478460553,48.472706578375146],[-0.7020679300858332,48.467206812159105],[-0.6662397250359153,48.48588955148741],[-0.6510738694884249,48.44394876336686],[-0.5986229162657322,48.47101955265918],[-0.5502899127948604,48.47423143238625],[-0.5304357344769987,48.495166069981224],[-0.5050654278707298,48.50579601256293],[-0.4781981375781819,48.501570405632215],[-0.44380935670202487,48.51374721178168],[-0.3676233888648988,48.492944315128234],[-0.33820693066737895,48.50050101655408],[-0.3202385045732452,48.522920009526636],[-0.2715497531161014,48.50745217404008],[-0.2629746987558156,48.52359724467027],[-0.24146030977322894,48.53711490462154],[-0.26180278773892185,48.54789343136948],[-0.23435383691646136,48.56233718214002],[-0.20693829348513745,48.562944759163955],[-0.16938322355767327,48.53697934057344],[-0.14460396356167668,48.52775250488166],[-0.1663420949957147,48.51558833305454],[-0.14362687075469976,48.45472711281225],[-0.10641204070316028,48.44752336948581],[-0.051896256193192464,48.4532597698412],[-0.05735713318959158,48.42850475869075],[-0.05453120471342586,48.382003457815514],[-0.07781568991642306,48.369011884149366],[-0.11216445619965741,48.37424593844257],[-0.13797809431803487,48.36135559567944],[-0.1322639799404977,48.34367891800192],[-0.15624187430084163,48.33878308965111],[-0.15462051452709383,48.31399248085133],[-0.13808698398432823,48.2934339795153],[-0.162366087633251,48.26001034242559],[-0.16095933457080433,48.23880560928454],[-0.14518119273289676,48.224233621433555],[-0.14683706738655639,48.205008919837425],[-0.1989536608764294,48.17827619579444],[-0.24992127138834272,48.157106805241526],[-0.25380835722539496,48.13652925202679],[-0.2164164207043083,48.11373479657783],[-0.23852128063613662,48.08512943952702],[-0.22496575471956115,48.0740005169816],[-0.2309424436035576,48.058985357486335],[-0.27144577462211034,48.06524304546605],[-0.31721069812097374,48.04509335726533],[-0.3399323890629896,48.01160216696548],[-0.3160042679648186,48.00526279935535],[-0.2826331784456301,47.958191807392794],[-0.2953214951501512,47.944001512102375],[-0.33832856883634976,47.93101420361583],[-0.37509534291502034,47.93272853592671],[-0.39622906190687696,47.92596685050878],[-0.40710509590818,47.91084268048501],[-0.40516479150867374,47.89292797578798],[-0.37698156137550093,47.887202712966676],[-0.3743813069594822,47.85830770196427],[-0.40938712543111205,47.858367062871636],[-0.4478589178811479,47.832216379452724],[-0.43408017720781095,47.80905444470248],[-0.3882005825686289,47.80531865639091],[-0.3754332123417834,47.76723904317632],[-0.3817032700427246,47.76056283993387],[-0.38561432621561664,47.769116081601474],[-0.42831835229803605,47.76761186364019],[-0.4545880132966191,47.75647912746232],[-0.46447480825707566,47.76859230202414],[-0.5096576702100792,47.786039414506206],[-0.5328644845775566,47.750826614212684],[-0.5847783552138252,47.7583563948255],[-0.6108182423666896,47.73568882741341],[-0.6537866615388507,47.73338137800601],[-0.6714156583122058,47.741118751584196],[-0.7103297199047672,47.74460337209696],[-0.7417076584328766,47.73810748626689],[-0.7593093892972002,47.75375329055893],[-0.7838699174942475,47.75058272701156],[-0.816067662956568,47.77122618643005],[-0.8399853237495013,47.768146096038514],[-0.8392941203736607,47.75227330317501],[-0.8812984869415317,47.763548188692084],[-0.9251020877476097,47.78771562691841],[-0.9602944572916631,47.7963079545433],[-0.955206706607692,47.76711117947228],[-0.9784592276088574,47.76203334334952],[-1.0204536348384041,47.77298948127482],[-1.0676842898971974,47.77297059421489],[-1.1226318940891669,47.78417913959446],[-1.152946550291737,47.778006298929476],[-1.1931389674383266,47.78697417474339],[-1.1986209884138974,47.795087631101424],[-1.2382517343256678,47.80999146297073],[-1.2160077396105768,47.83115457607098],[-1.2139598200974668,47.84431487401968],[-1.1892286738461781,47.8675257247478],[-1.1966267612194066,47.88926967278471],[-1.176229425978116,47.89739680946678],[-1.1595139860083212,47.939220868111676],[-1.1539806565642339,47.96582146885006],[-1.1260769059410864,47.97331126695682],[-1.1026711686637318,47.98906278289821],[-1.0709701077191276,47.98180281363006],[-1.0212610284765602,47.99494016247969],[-1.018202579829028,48.012309356573546],[-1.0346655165784813,48.03361464779431],[-1.023283345569893,48.06891120315209],[-1.04960608939875,48.08980493060165],[-1.0602909002161003,48.150112461248],[-1.0796054903163383,48.18347699576321],[-1.0736642370047438,48.20075616092018],[-1.1015118599620337,48.26179752391566],[-1.0820973324543777,48.298390519589205],[-1.0450195299623026,48.327727830000974],[-1.0646345421184056,48.36828025341763],[-1.0539346752839132,48.383988802654805],[-1.0771281225801501,48.41169597169672],[-1.0830222073820854,48.43355484623164],[-1.06581502082362,48.4511898364817],[-1.0757201292558587,48.499394433638884],[-1.0701645143702043,48.50849381419032]]]}}