{"type":"Feature","properties":{"code":"06","nom":"Alpes-Maritimes"},"geometry":{"type":"Polygon","coordinates":[[[6.88742990090296,44.36104783803612],[6.922569034715827,44.35073334653868],[6.92647211225925,44.334749781019966],[6.960525832743343,44.31085198397747],[6.955859859005885,44.2970594542236],[6.9934468208164935,44.280891427852495],[6.99712995413101,44.251997804252646],[7.008054894297459,44.236431060527],[7.038841660238861,44.22372981024312],[7.070224944864906,44.23297997575481],[7.112226619139014,44.21733524158766],[7.141050183667786,44.2010003780328],[7.1597495198014025,44.20620545858123],[7.2033866897276635,44.184792768493224],[7.218868901675846,44.1689469810721],[7.237041234869469,44.174339231954],[7.24856917472652,44.158515503110245],[7.280317813440188,44.141181126207165],[7.340417586180365,44.145649028908274],[7.358475305086881,44.11815061891558],[7.388931942608855,44.12479464638471],[7.4268012934594045,44.117564036132904],[7.429927081340899,44.127804524896916],[7.459974202378207,44.125692456404565],[7.505741191835109,44.143652395337554],[7.5567970945239376,44.14692262748108],[7.577148887227901,44.15289005329537],[7.614555274657836,44.14967082474187],[7.645064338759674,44.17790074590103],[7.68458536705161,44.17401845696774],[7.670852285754872,44.15374050304116],[7.667154197554274,44.13343096570642],[7.67452067122969,44.117978351966265],[7.715741685167259,44.082768394074186],[7.714078792245614,44.06542948835954],[7.700025563701426,44.04078903341254],[7.664986572845552,44.03066821354587],[7.670204633842334,43.998475578585406],[7.652699330334664,43.97484454446134],[7.610194650987026,43.95513695471592],[7.596854299346449,43.95652880599456],[7.572900090571807,43.9377923733289],[7.559929417388958,43.914446448952816],[7.559218845189717,43.897294632318086],[7.511282181839372,43.88226017750882],[7.495202515535623,43.862291505445505],[7.518300877134688,43.80329700642123],[7.530159376168468,43.78804906400435],[7.490212035782315,43.767197668733566],[7.475918505385493,43.750796761738144],[7.4597300454166495,43.76004177050826],[7.412274588246639,43.7343884782676],[7.413235194461564,43.72476923386886],[7.375064708715003,43.71753336634211],[7.360727399718111,43.72228177889476],[7.337596357798404,43.711716462798286],[7.326468236003214,43.69615480753041],[7.297211876953826,43.68614078433695],[7.285170356707785,43.694320925627316],[7.24382000023942,43.68938268481802],[7.225884891654834,43.66225535365977],[7.206455679516468,43.64563646874049],[7.194537177820155,43.657919305629925],[7.157853271963104,43.65385083741795],[7.139271239473155,43.6360982414893],[7.1230039862754415,43.58829721341579],[7.121751847241626,43.55949556145099],[7.101266887315347,43.57067799664823],[7.0675662048264405,43.561639844055605],[7.055944916816456,43.54796646787975],[7.014827677611477,43.550856545562084],[6.974303482945652,43.546078781561825],[6.952169379017137,43.53471699106892],[6.938368675282269,43.51639156043654],[6.954746280767227,43.50472407547113],[6.947072439425319,43.48436595161653],[6.933726236453417,43.480068010885034],[6.884230099335205,43.502535727819215],[6.89638230847014,43.5271599958737],[6.879542001080731,43.53535761950226],[6.907175687871982,43.572966433750736],[6.908012993627823,43.599079187946934],[6.8879265318112735,43.60741263064278],[6.838776771755721,43.613611496756825],[6.812859360304176,43.6305052559662],[6.798740654261999,43.62818033606127],[6.782299387537954,43.65415726922716],[6.7608013983957,43.66648795918856],[6.774352202435761,43.69341283496426],[6.766592784345339,43.720212010988675],[6.753535969205428,43.73816698047835],[6.719415853332108,43.7381403462073],[6.70139956454595,43.754068906503676],[6.682708528326925,43.757936848433445],[6.657423432162916,43.74871807004049],[6.636395800176684,43.788950567095455],[6.641524167665496,43.795472444882115],[6.70606421451232,43.80841245654836],[6.703701880641647,43.822825820470534],[6.667938865272228,43.83092697652154],[6.677914955878909,43.850959763474634],[6.698718605090542,43.85521098299028],[6.697323345466608,43.87365480225297],[6.748392415086803,43.87167747871268],[6.781621637708193,43.883549262987735],[6.804290312432095,43.910790628356104],[6.830709312232406,43.91836301148648],[6.876620003660876,43.89859537972932],[6.884610185550847,43.88912075689405],[6.941753698705185,43.89697361215048],[6.913088787529998,43.92796536503886],[6.884040903481558,43.93530101735706],[6.875468351966293,43.95281563358485],[6.849124623100394,43.95555833887359],[6.838726887709297,43.98970431437945],[6.795850869439254,44.00702405029123],[6.74580308295055,44.04269169406513],[6.7552927685949316,44.078606159081765],[6.736610415319581,44.10225823836325],[6.707586373017441,44.124473345545944],[6.705499890845224,44.144466155776314],[6.686536427072904,44.16925393086098],[6.718344217584288,44.21071074917548],[6.724182328511966,44.249467455280936],[6.759092155836728,44.26206489740905],[6.762927060646822,44.279037241415196],[6.7863504827742736,44.28849643698575],[6.796090992510113,44.3161057075123],[6.811873213958045,44.33221347515919],[6.839688603111202,44.34616952567193],[6.856147812069906,44.342952907783264],[6.88742990090296,44.36104783803612]]]}}