{"type":"Feature","properties":{"code":"93","nom":"Seine-Saint-Denis"},"geometry":{"type":"Polygon","coordinates":[[[2.55306064485419,49.0098171174389],[2.580314053373102,48.99158952144207],[2.5717986314833206,48.96867398285449],[2.58930360616549,48.953762745338985],[2.592341722831452,48.925023616614034],[2.5870340052947016,48.893952959629644],[2.568103791053846,48.86594445401019],[2.592517689219438,48.82587446702569],[2.5922804883088015,48.8074366758147],[2.533679919545506,48.84510353911671],[2.4815340793391782,48.86140985004899],[2.416339717281352,48.84923827340741],[2.4139437894422056,48.87082877761242],[2.385151006972503,48.902007792208785],[2.319884458526643,48.90045886733916],[2.3198186459199985,48.91593565477114],[2.3363515897545497,48.93235062393098],[2.3269700232985637,48.94536493100808],[2.2909735732251613,48.950966788077196],[2.2989593311869005,48.96630137751687],[2.333312950123798,48.95538233563509],[2.344102277288972,48.96823838528235],[2.3845399290016545,48.970997610129494],[2.407383854100793,48.95612202818259],[2.4594899596115933,48.95504632683333],[2.4673283497589793,48.96433475385722],[2.5147706684191236,48.9822601449233],[2.5322426864128684,49.005223756710706],[2.55306064485419,49.0098171174389]]]}}