{"type":"Feature","properties":{"code":"82","nom":"Tarn-et-Garonne"},"geometry":{"type":"Polygon","coordinates":[[[1.0640838318649115,44.37851326503539],[1.1067222137699213,44.39234711511698],[1.133750630714704,44.39298864277138],[1.1274427936033644,44.37298221773624],[1.0935208798901315,44.365961836772776],[1.081222945573455,44.354384743572695],[1.1134152586304344,44.33885107169266],[1.1219514922437734,44.31674824624536],[1.159346881110355,44.3106276809867],[1.1957883877382156,44.281420540652135],[1.2379955233318247,44.27589295439949],[1.2680258772309094,44.28148431232658],[1.2978031763342432,44.29486040345977],[1.304059855892509,44.26295931081006],[1.284277976591082,44.25174919798396],[1.2842650178929034,44.23519209123777],[1.3179163572182218,44.23295776845425],[1.3437890556280911,44.22428502732317],[1.3567953753702289,44.204016861252555],[1.380368119687147,44.22485773308437],[1.4535628583819051,44.25411881791156],[1.4531769569737827,44.26735663623184],[1.4732207948805132,44.28421134803531],[1.4951499133483663,44.27109950643376],[1.5096978064892344,44.27344945044928],[1.5290793065479253,44.235377109638385],[1.5417577750229903,44.22781299250401],[1.5752251099432597,44.23873127310143],[1.5872537911119244,44.24900550804784],[1.5707268227394882,44.30150251962804],[1.616906636210223,44.297528790899236],[1.6156813561412897,44.27840070659787],[1.6422791348823196,44.270774261083055],[1.6516207663148532,44.286805806785146],[1.6995029158165784,44.313814281404504],[1.755361660673192,44.325821897882314],[1.7745395287661794,44.31236243680847],[1.7918320747165322,44.33342155767223],[1.826465277116675,44.32358769097796],[1.882082857535903,44.340065248844205],[1.8594609109987437,44.320378858719295],[1.880911316974408,44.30347685224885],[1.868779185952882,44.29203687124151],[1.901390505373501,44.27911646341682],[1.941087860705048,44.28241377562342],[1.9704438024330744,44.276436279434016],[1.9594126927401139,44.241188828077995],[1.9430651280544025,44.247586110602526],[1.9049135238032417,44.210214643984514],[1.903654339982968,44.19375585363767],[1.935140495123965,44.18136455834765],[1.976683004728593,44.17992355171282],[1.977057759324639,44.16258114075737],[1.990170712650344,44.149452563484346],[1.969528164610802,44.14268050879639],[1.9470531745397543,44.14670665841298],[1.9196921618272453,44.16294029634055],[1.894363466379432,44.15555865721924],[1.91928917399122,44.14138672306297],[1.8600956113709224,44.14291167180455],[1.8305641028040827,44.131618758275124],[1.840515979784208,44.114288575980986],[1.825515829990398,44.10797185179575],[1.8061153359121302,44.126377351181155],[1.7699612205027875,44.098072774451964],[1.7637387132353881,44.107940426275455],[1.7064309387658185,44.117360786594475],[1.687249576121949,44.11145262454695],[1.6589585652250582,44.11641211601676],[1.6531212588113546,44.09644666319218],[1.6692525822909714,44.0897935292734],[1.663698631036224,44.067293948046974],[1.6928507235679002,44.061263774222766],[1.7042082044268858,44.04435014147369],[1.691390036568917,44.02434074044874],[1.6713878275979381,44.01064280343677],[1.6503200088773333,44.00970081509553],[1.6208860145318815,43.97931453686908],[1.6127153523350066,43.95906662893657],[1.566776744212795,43.96532381568133],[1.5391789751184526,43.94610094085612],[1.5688025856988956,43.943198531782116],[1.5744028028209767,43.91999510793722],[1.5556171726831822,43.91831715512138],[1.53278908620992,43.92135227933209],[1.5233234997345355,43.90360072658564],[1.4907818788063523,43.888997239785134],[1.47466252365823,43.90211274166312],[1.4529636675835562,43.87502936555188],[1.418934148647794,43.87135534680213],[1.4086035229055638,43.88264557304525],[1.374917030255939,43.8843365489393],[1.349235626213503,43.871655526938696],[1.3626018809802545,43.85723006032639],[1.2965943993985685,43.847335316271405],[1.3137064308190725,43.8322272891667],[1.328030911759578,43.83816349035954],[1.3572704568738654,43.83369324204132],[1.3600316395881045,43.81720012311376],[1.311084838455899,43.800602295519234],[1.2676345847416235,43.79377274514794],[1.2666508924183946,43.78318101448264],[1.2192055591403763,43.7707867235541],[1.2161233635195094,43.791159600168356],[1.1798084884492999,43.7952937589264],[1.1577904338124643,43.81838124698653],[1.126079238294049,43.80959552989913],[1.1124096388582891,43.79707276987681],[1.0808172102613443,43.81306583616325],[1.0591319349426427,43.798594472191574],[1.0361954975370666,43.804232715802144],[0.9910444477374416,43.797045697236534],[0.9777987859720318,43.7864397525409],[0.9539831166064948,43.78737246570886],[0.9225087136116431,43.792160090217415],[0.9016078422827867,43.803642278388125],[0.9258616635111263,43.83162570191422],[0.895421911527158,43.840341795321024],[0.8994393128667493,43.86469845813272],[0.8834946132400759,43.87525629317644],[0.8898495576086674,43.90333223113469],[0.8635672395335378,43.923563445790464],[0.840062943234885,43.9163310081733],[0.8092979458979879,43.9323016655978],[0.7706960292642194,43.92228348891115],[0.7601497122296061,43.945349940213774],[0.7845407712528714,43.9558047755343],[0.796774360578817,43.97561613750477],[0.8277030720805598,43.99957154660625],[0.8136473846848539,44.024906180353696],[0.835544710660537,44.024621299340474],[0.8578678740058554,44.03490133585646],[0.8273513279716257,44.05525093595275],[0.7640478940656028,44.0296390768852],[0.759648653180342,44.049474350183324],[0.7418847912050018,44.06519923501575],[0.7384290025794918,44.07517631749729],[0.7540526324371263,44.10494098314301],[0.7962434549004299,44.11513490164438],[0.7950995188269604,44.145608667033],[0.8204870205722198,44.143244018566314],[0.8687736555079509,44.1263296946747],[0.8884779694239573,44.14877042878723],[0.8722443454179576,44.16786912488895],[0.8535753263369856,44.17496072438758],[0.8596865515735523,44.19273721850749],[0.9051836940209331,44.19731593132676],[0.9292392370345569,44.23025011826531],[0.9190898187097761,44.238270029336576],[0.9504654080705977,44.274984882924066],[0.9239584511688518,44.28869614788378],[0.916429926804432,44.30219542177865],[0.8951266314063179,44.29679206245922],[0.8696283736168164,44.309384546367944],[0.8961131685671826,44.34622833470228],[0.8873307771559802,44.36637485759437],[0.8982100442421902,44.381369123534306],[0.9199180731590045,44.384149730804495],[0.9500583334266814,44.35976314594097],[0.9806308033981536,44.35841947585265],[0.9960831328157144,44.36864294446829],[1.0498031510072285,44.36263857861528],[1.0640838318649115,44.37851326503539]]]}}