{"type":"Feature","properties":{"code":"55","nom":"Meuse"},"geometry":{"type":"Polygon","coordinates":[[[4.950989232683009,49.23686584630137],[4.964355608998914,49.24744898908259],[5.0490438324721545,49.285310734141504],[5.029829036850663,49.31126357145343],[5.026436999727152,49.33591387470532],[5.053405249590282,49.35696721044802],[5.060208646165214,49.3715170366231],[5.089930289451002,49.370323496215384],[5.10414955392406,49.38977780781045],[5.088196804414101,49.40639195324937],[5.105323165099615,49.42524686929281],[5.083514142411665,49.48411961123408],[5.062396105126222,49.49915347170529],[5.079628538782785,49.50986338174908],[5.100584675318172,49.53581688248469],[5.0894348019213345,49.54153840662955],[5.118278729173794,49.59307211738766],[5.144850262012005,49.589890809096836],[5.162975033383016,49.56353425622026],[5.2130512805303555,49.573482704275165],[5.232756898423872,49.56948078917659],[5.262709976999561,49.54181962580043],[5.311770447172107,49.55928969326421],[5.339875065404366,49.59248374512851],[5.379377254594306,49.59433240963621],[5.393536658328508,49.61708773850276],[5.430990436352139,49.592779697501115],[5.441967127749439,49.55082330374587],[5.465066186620626,49.53886525112502],[5.447572873980034,49.517370291127484],[5.470910130592771,49.49720502129504],[5.464077098251315,49.48166228909141],[5.484917984168407,49.447407925985885],[5.479078499230624,49.42581983768407],[5.5082075510446815,49.42126281023766],[5.494194442210637,49.40716409539809],[5.473184918539263,49.410751894615125],[5.465505385541393,49.39543214203441],[5.49401344811939,49.39033314948081],[5.501152367426069,49.40854921219478],[5.529099312496953,49.40737462726648],[5.570360828663015,49.42337579247067],[5.605732699304691,49.420038245637656],[5.634565984546508,49.43743606551583],[5.692251573142445,49.415032283683246],[5.6873570419508095,49.39388035166439],[5.703787894109554,49.38822577419103],[5.738361460568846,49.35203800497206],[5.721511174836554,49.331722881180944],[5.731786006583374,49.311343191085655],[5.768385347743778,49.30323265211939],[5.760519022687266,49.28011599684701],[5.7307018275006305,49.269793739617505],[5.720933295684269,49.24770674117828],[5.7405557083585155,49.23011722139386],[5.719044394768754,49.215986946421715],[5.725126551060128,49.19564550252695],[5.765544232834611,49.198088628043735],[5.744850073758657,49.156560167159334],[5.7598104959514655,49.1500556297571],[5.746940032204187,49.12460282697201],[5.771295494951546,49.10609592152142],[5.783813515045618,49.11260817951947],[5.817853206320084,49.11104150017413],[5.821401407633705,49.08761132685174],[5.808379157586719,49.075815388035736],[5.85417290109245,49.04241757672373],[5.821881378508286,49.022693614160396],[5.815223115374213,48.99679278215558],[5.80326928510364,48.98585252935934],[5.847464234333094,48.96231608120681],[5.847269852543282,48.95178377098051],[5.817089167952623,48.94245503424679],[5.800245290300757,48.94674605759089],[5.779494546763762,48.925543676493376],[5.747161790828688,48.91525787263704],[5.765854111109667,48.89809074303494],[5.7910610910637805,48.88661747785826],[5.765548217904568,48.87307300517377],[5.781194766587596,48.83501432221366],[5.767728814139585,48.79014237286009],[5.740251235774411,48.77265140486108],[5.741889978939901,48.75279715005143],[5.714036349479591,48.744533308856504],[5.719037232595988,48.73290914785586],[5.75271389850188,48.714164509499184],[5.7646010210683505,48.701073717982744],[5.744957392577322,48.67137758077308],[5.7445806082888415,48.653070921811086],[5.772143533804788,48.6202830387491],[5.7647290820585555,48.60790861161145],[5.718661477131132,48.59033867223855],[5.71608982178375,48.561424169817386],[5.776263522421036,48.54107814064725],[5.761049602880216,48.521683894153604],[5.765154701602298,48.49649260851312],[5.7385787703210624,48.466071385805314],[5.713228409793979,48.46034355947541],[5.67902361096049,48.47139115386205],[5.6151325162349,48.44043873717153],[5.564650216197492,48.441090759508775],[5.520280149216775,48.43239263092878],[5.510986594146936,48.41821515231162],[5.470061704426128,48.42092884036511],[5.445157350390678,48.425081250152175],[5.408498570986399,48.445794580180355],[5.406054924803939,48.46539304073884],[5.349469998299744,48.48198867902053],[5.327278259522607,48.50479938800887],[5.305623464696029,48.51591327057272],[5.264870353729535,48.51920792199762],[5.208425883036941,48.53861075457746],[5.173113022339201,48.55631460308862],[5.144873587885955,48.562874491019556],[5.117905583758205,48.58495445930086],[5.070374138899134,48.59610309669313],[5.049692721915686,48.631265806018796],[5.032284450963603,48.61329817233609],[5.0141448684428935,48.610214170115775],[4.99466786336989,48.62182551829475],[5.00616236089035,48.63348264533262],[4.992811815436962,48.65827053404921],[5.008333278861154,48.67023772723031],[4.988427677798425,48.684418562233176],[5.011787133446862,48.70669113644506],[5.009219993538869,48.74139150464051],[4.990124563499123,48.74183736486811],[4.947881817618987,48.771602644481156],[4.934571757746961,48.790360787111126],[4.889557040484959,48.798206203700566],[4.888760929797642,48.81720971453769],[4.93570201866688,48.840631475686905],[4.924676889741789,48.86463057973145],[4.924696402833776,48.89135651199283],[4.915798542054488,48.89979310962273],[4.9362093920054075,48.92214239512387],[4.986405609443761,48.93190826599592],[5.030128675561755,48.95690245547182],[5.037904334159841,48.9730160560533],[5.004646480636104,48.98364213966209],[5.032675426761192,48.99373965141204],[5.036321445219877,49.02433254954083],[5.0076814026818575,49.03495195077163],[4.96844159954904,49.02290133721377],[5.005744190171552,49.05987214490083],[4.99213130434257,49.114899861463385],[4.974408367068746,49.13340447110328],[4.953397966379194,49.17195155260111],[4.9397619983736725,49.18506820457861],[4.993377429884994,49.20962536427259],[4.970761881963812,49.23605865097721],[4.950989232683009,49.23686584630137]]]}}