{"type":"Feature","properties":{"code":"76","nom":"Seine-Maritime"},"geometry":{"type":"Polygon","coordinates":[[[1.3815511365583815,50.065766690242754],[1.4092601958562414,50.057074130391825],[1.4235954957723689,50.070850716019166],[1.459145908803628,50.062499063196654],[1.4521908437935025,50.04023194047863],[1.4933078848725079,50.01773775805818],[1.5165885660526253,50.011616580757526],[1.5269495769722599,49.99657729204429],[1.5738945679765357,49.973919004055446],[1.5940134659800094,49.94905060798451],[1.6784506742272387,49.91813416149145],[1.6932905136148655,49.895599170378354],[1.7102228122571477,49.889310195824926],[1.7373868163547241,49.808208553760934],[1.7579353611352482,49.78079816556512],[1.7838370588623413,49.75830750106765],[1.7416263242274626,49.751633772466256],[1.7454557068129848,49.73856265789178],[1.7196883349196141,49.730467625863746],[1.7154681056064667,49.70860435289633],[1.6895758821118119,49.694785646260954],[1.7045143422610263,49.68092631423977],[1.7339504969080488,49.69920938045457],[1.7521846819353237,49.680957188725905],[1.7252046142437358,49.67263435960493],[1.7088335612864556,49.64638148474686],[1.7216075786347382,49.62199032398025],[1.7057508157515966,49.60621127470416],[1.7147813730167585,49.576405140938526],[1.7298338150528105,49.56129313430964],[1.7271846205611596,49.54162647589022],[1.7478873461630975,49.537734307389876],[1.7192326604453187,49.50822302010686],[1.7508109914810421,49.4953034048916],[1.7718644061411502,49.51284827349518],[1.7902240900460897,49.50346919449449],[1.7741127542848931,49.48629204874629],[1.775862453037976,49.47132557760213],[1.7474339115753832,49.45944834208184],[1.7229968419974309,49.43391580233039],[1.7139375433100608,49.409224988863485],[1.6593030583878112,49.39898608539559],[1.6210669431541742,49.414378158641135],[1.6069566095899943,49.410854416858434],[1.576136831058076,49.43973886640559],[1.5283196177789204,49.44198980558868],[1.503549409663381,49.43807237615207],[1.4771860122081044,49.45132697219684],[1.378499108777362,49.45742638657252],[1.345233363898118,49.44805852414145],[1.3353971000652705,49.43371952908696],[1.3096318834456244,49.42873257275235],[1.3080682780467234,49.39535659061039],[1.2931900574437356,49.394994727671126],[1.2860248038650488,49.36318319072627],[1.2721366387570638,49.346289233389804],[1.1990286032008088,49.35080528187691],[1.1602558424773857,49.3419941567295],[1.1359587366778499,49.32511330683783],[1.133993537971445,49.30984205819146],[1.092924014464112,49.30997367751731],[1.0482359283696867,49.2966707056018],[1.0644211959188252,49.28193243229649],[1.0540696575756032,49.26810664758745],[1.0133166256832071,49.252262976528414],[0.959487909604523,49.28612972876709],[0.9366215857125476,49.321701430518324],[0.8924955592567678,49.303062511451586],[0.8915316720257209,49.31656133415404],[0.8622783261742117,49.32742242737676],[0.8662303093667536,49.34231160512299],[0.8875928951071438,49.34591517415329],[0.9214023473164947,49.33855254623689],[0.9181193706199334,49.385460584535736],[0.8853214512018548,49.38352473329317],[0.860851622884771,49.39535013278994],[0.8265612311602684,49.395044519606806],[0.8035289901620026,49.41664937662084],[0.7736557882409092,49.41808160502643],[0.6652914150341133,49.40200234791148],[0.6597835439594861,49.41617560182564],[0.6341203993784739,49.43446117824468],[0.606260846591224,49.428697933243775],[0.5790634674462867,49.43507202120442],[0.5249403531988139,49.47786858986832],[0.49007688558798895,49.48360764057147],[0.4315314440644818,49.45895529203515],[0.36879599400345847,49.44396615809678],[0.33898282435946164,49.440931306061266],[0.3393207094305681,49.449868831628415],[0.27314284372297987,49.453414579238974],[0.25680101789478893,49.44632740649414],[0.21769675248147502,49.45296251103499],[0.19246414594061223,49.45146267347711],[0.12124538314126981,49.46319090812617],[0.09027197399997772,49.48238083770633],[0.0869152117239871,49.50142956453898],[0.06955005489894274,49.50639804169097],[0.07493125272583377,49.53633203458849],[0.1067376725391497,49.58349804620551],[0.1358703018889327,49.61860240605246],[0.1545347165457159,49.648642302677665],[0.16422682078283132,49.6864622352224],[0.1916018630620729,49.70633817691035],[0.25070045477776937,49.72314244472515],[0.2832559477463974,49.736576618509304],[0.3204248903804176,49.741454635143654],[0.35491793407269084,49.75501019348861],[0.3653124690043182,49.7657533954537],[0.43342979790476643,49.788116116429364],[0.5227583029442804,49.82453411281469],[0.5729399803584807,49.84972067059468],[0.642036660341264,49.86418779498403],[0.7061281802579872,49.87233770484798],[0.717770959544887,49.86976975035244],[0.7909714215080401,49.875752899331296],[0.8325742104597927,49.889609850179305],[0.8746626207569893,49.894680673456534],[0.9297893305630467,49.90673400517858],[0.9631874837108031,49.91985755151356],[1.0200465393294824,49.91610987649026],[1.106143977580899,49.936747669981074],[1.205890918797349,49.97349908694593],[1.2464603482064156,49.99528129594621],[1.3324241305696787,50.047123771141564],[1.3815511365583815,50.065766690242754]]]}}