{"type":"Feature","properties":{"code":"74","nom":"Haute-Savoie"},"geometry":{"type":"Polygon","coordinates":[[[6.802516663522652,45.77837197402193],[6.755509936266976,45.76635254534395],[6.74001337439419,45.74561033697647],[6.711951361097394,45.72291924893507],[6.691927026555463,45.72680454299077],[6.6987046073815275,45.743259542342656],[6.686145373112389,45.755327050482464],[6.688825113135432,45.77134869370408],[6.661011726554582,45.799100632035966],[6.601732972495579,45.795419923318136],[6.577214777368843,45.81657207430024],[6.552237633503553,45.82687986970037],[6.539525002903797,45.86285738025596],[6.56843309482083,45.86317365422438],[6.572913173369461,45.87755381109516],[6.558675044419775,45.8930927712201],[6.514771172368506,45.90441808486001],[6.493715031750103,45.88999988497013],[6.470572561574056,45.8846919017355],[6.444801213660523,45.84550566374783],[6.424911859192457,45.80352244063008],[6.383851558657904,45.77805529558221],[6.328722589989684,45.693028041590736],[6.3048306731057115,45.69329913872337],[6.279888236747214,45.68431276833579],[6.239679907775353,45.685404763162595],[6.231653819459301,45.7027499445204],[6.189464060829947,45.70250157434257],[6.19554810502904,45.73233087617837],[6.178383991605425,45.74715464474954],[6.142900945398585,45.76151435802781],[6.127911958348486,45.75170259298121],[6.082884373383685,45.73997499672517],[6.0527168183887685,45.748591125666145],[6.042951856542115,45.73909560438109],[6.010784848574594,45.75008827465721],[5.973931864683397,45.77494633416943],[5.980956213671225,45.795577042949866],[5.962785346309549,45.81273546653543],[5.913222470309635,45.80414050655359],[5.873592999113487,45.842776979480114],[5.878940328529421,45.8597615070083],[5.869091534260767,45.886864468450106],[5.862101395990038,45.932402294861824],[5.831226413621035,45.93845957829322],[5.834025839734275,45.972026538215985],[5.809643351753076,45.98979960381866],[5.812398928975968,46.02398062317354],[5.806996561909532,46.043829800018194],[5.8114184967701625,46.07842009259869],[5.832300912634432,46.10599585856304],[5.855667958392184,46.08676688670444],[5.883180329915085,46.08491752032048],[5.8924200086063525,46.118482302607056],[5.922266804802187,46.13147760862653],[5.956063159932633,46.13208943594269],[5.985318105052286,46.14330892189844],[6.045529778815728,46.139907519306156],[6.052041801049772,46.151402672290395],[6.092465663697645,46.15175991441013],[6.126624627901115,46.14046081078615],[6.175072377878081,46.15814989960168],[6.185975362523726,46.178176058241256],[6.235977428314406,46.20654881404464],[6.277369983407964,46.21561016581553],[6.310110099309942,46.24370059763195],[6.307272725570715,46.255436556730494],[6.267633620497312,46.247839839653885],[6.237797813525851,46.2773342585167],[6.246790968617458,46.30206938671207],[6.277022020836744,46.34891543898281],[6.303735764913311,46.36625941824085],[6.3446765942166445,46.370013560347886],[6.356956142429217,46.35266345709143],[6.3900361566872315,46.34016563406088],[6.411592280204707,46.35839568319258],[6.468499886776638,46.37242442527263],[6.482856165126304,46.39192443764463],[6.513071711513262,46.40478840307281],[6.545175304790926,46.394727359364545],[6.588092394777118,46.402317999643515],[6.635060415534961,46.405770576746406],[6.722868985320351,46.40755389780494],[6.789802754759155,46.39291791721357],[6.806217638297463,46.38037206259825],[6.770617080369467,46.35489783286797],[6.784482072903341,46.33270290819052],[6.820345178565179,46.31437668901683],[6.829983705845801,46.300043050711345],[6.864509851829647,46.282990769883504],[6.853894399067287,46.253761843433864],[6.839925738114553,46.248239017516546],[6.80366083421475,46.20434524954354],[6.81194009872822,46.18337761562343],[6.792040848027208,46.16290288539592],[6.796535034034799,46.13861879772074],[6.814732162900611,46.129696461365214],[6.898381393099358,46.122562070394075],[6.883845122673671,46.09579681990079],[6.8914542235903005,46.08449157208838],[6.872633110865425,46.05204817296112],[6.888329552883717,46.043116914092494],[6.924513948824021,46.065193804450395],[6.951511564566567,46.04995609942393],[6.9846850080843375,46.00654353554806],[7.005830810542592,46.00054972582734],[7.022720712338816,45.98029457159881],[7.017978490745711,45.96034701964026],[7.03720423287911,45.95472134951176],[7.043890107046439,45.92361818207322],[7.020983385199974,45.916194082670756],[7.0031519124087716,45.89782921384603],[7.00536167353659,45.88435235390808],[6.991719912014907,45.86819987209143],[6.951037365261489,45.85954131063136],[6.939604939153821,45.8467321064224],[6.895100845805131,45.84259632779018],[6.8736072885923845,45.84549967424515],[6.818885778420616,45.83620281158613],[6.803991136344079,45.815853187486255],[6.812719976307191,45.808021694582315],[6.802516663522652,45.77837197402193]]]}}