{"type":"Feature","properties":{"code":"11","nom":"Aude"},"geometry":{"type":"Polygon","coordinates":[[[1.6884197209147511,43.27355372810048],[1.7083882204712093,43.29126593638564],[1.7041401191232926,43.302731061004685],[1.7264566850126617,43.31355860790404],[1.72381890913847,43.32974907649138],[1.7560895669919805,43.347786239580316],[1.7722726989104796,43.33697670685812],[1.8042058556067164,43.35792861707674],[1.8040846789340412,43.39168480485615],[1.8275744264204186,43.41839399539007],[1.8587429714302222,43.443820891217364],[1.8961151188637693,43.418448380585566],[1.9030825485451017,43.40648077638579],[1.9321973483656796,43.42425346114769],[1.9563832142288617,43.42542487943702],[1.9882982689321873,43.40760727642704],[2.013251174841698,43.41479228000688],[2.0291328387973606,43.43689796484212],[2.05313408767619,43.430200497980316],[2.0708019369201476,43.40639420952169],[2.1092766429079504,43.39455364359396],[2.171612173004611,43.41555236920325],[2.1877030879041897,43.393901845464775],[2.2150238714414177,43.38350522654672],[2.2296639061851096,43.409449060674696],[2.2220362066137076,43.42780221311405],[2.2441052741816327,43.44588047377504],[2.2648019643127553,43.45354440574296],[2.282011032773141,43.44122586946259],[2.3113690047501163,43.441551364653506],[2.3951180854863265,43.4183086163608],[2.4331017858919792,43.43517605493275],[2.452244714182291,43.43185573872313],[2.4968524565426087,43.43693032075721],[2.5192241258183463,43.42357280473514],[2.5657873980365586,43.42295974410401],[2.593459760332987,43.4125861022952],[2.569215560940852,43.40030210238747],[2.5532224612518877,43.381578705629835],[2.55675033079638,43.3671181357703],[2.547404327067849,43.33874150409467],[2.5847987373211803,43.333574828863085],[2.6016030790296316,43.29870698639686],[2.6587668022165167,43.29400885554122],[2.6935895397617924,43.32048879782006],[2.7068228959310465,43.293727070528135],[2.7002195943205365,43.28232047565704],[2.737891172803547,43.26734188065557],[2.7525204916724526,43.254593867354295],[2.772248225673249,43.25778564580618],[2.7869223712743656,43.273512651125344],[2.79178868739065,43.293015551205826],[2.8385539311891925,43.32211574816248],[2.868317493236679,43.32958665849561],[2.872040834033522,43.373176887725414],[2.890171804390596,43.36535216139457],[2.8867026665888473,43.32989534646164],[2.9469414010608523,43.31208498526138],[3.004349268167806,43.3201311415976],[3.005861156020884,43.28492197900128],[3.0548510434943674,43.27971779305137],[3.0783431423637917,43.261829334517095],[3.110944425233587,43.253471060898335],[3.1220006410048176,43.26158196380372],[3.1472079664155532,43.24700506844497],[3.175401641785767,43.24369767269661],[3.2010265503923754,43.249167148053665],[3.2103050300757787,43.235638559541265],[3.24056113717041,43.21280863308409],[3.177252971331801,43.1653931155685],[3.140803804618427,43.12876695257695],[3.092876973759121,43.06914228496683],[3.074043532794371,43.03811903535086],[3.0428431893335772,42.96015378799919],[3.0404710136346944,42.929704326912585],[3.060589297455898,42.9170599049451],[3.043510805290506,42.8381501142638],[2.976233697434438,42.870285782323506],[2.9176652105086776,42.88490560680479],[2.9068743640845423,42.89581380072565],[2.8804319367618048,42.90142601782671],[2.8652738803519484,42.91834143726101],[2.834726633088116,42.91226461376727],[2.8163773260069473,42.899968720008566],[2.789053819259419,42.895988728811574],[2.762151578941423,42.87367587089044],[2.754406508896001,42.85193277009744],[2.7392695852260918,42.83704183830966],[2.680460074219605,42.83066919623472],[2.665129702318414,42.836638227667535],[2.5979979640054287,42.83710010473599],[2.551517478135935,42.84669055878725],[2.5303296696211732,42.84330870449564],[2.501496510152125,42.85114590958063],[2.4524747607108766,42.83693276356475],[2.382167466090285,42.848465968894374],[2.3271160459779234,42.83744277583184],[2.3335924644994988,42.80438237482061],[2.343922918928302,42.8012178810544],[2.3429452475243857,42.77535071033062],[2.352474899591023,42.76247835717117],[2.3573542563069108,42.730614151700564],[2.3220061203917695,42.7077915762024],[2.297058357278089,42.70099502933411],[2.255205048620104,42.69745713836985],[2.246516821037239,42.681202948030595],[2.176204944795001,42.65250633141794],[2.166053682054993,42.66391836976526],[2.1758741195218594,42.68279522431058],[2.160632413925722,42.70112722891685],[2.0874431064800922,42.73901317594321],[2.0839024245548936,42.7516077244054],[2.057204243184995,42.75622286125991],[2.007929382662407,42.73412497082237],[1.9516265106681303,42.73669095024391],[1.913239238416856,42.75882498736125],[1.917663354345371,42.78274473527807],[1.8970774273087732,42.80800219821675],[1.869202579081601,42.81508603325651],[1.8758890323432875,42.85273825107509],[1.9456558633746337,42.85619826237116],[1.9869209142233524,42.87101168756058],[1.981007734505436,42.87842008504447],[1.9919290520003003,42.905098487236415],[1.9805743107561908,42.92957969198593],[1.9338502257854864,42.93932515940288],[1.9364462363662087,42.95396589299509],[1.9853302810624713,42.96695793978397],[1.9850016206688033,43.032612459176974],[1.9730769071879921,43.04616201620429],[1.941132873290632,43.05271547262669],[1.9557758360446906,43.085446537199715],[1.9494047039555333,43.12070809144376],[1.9177470958909644,43.13323111235511],[1.8954279777499146,43.116633336360046],[1.8804078673476365,43.14153936255586],[1.824772198868932,43.145813889155335],[1.7806433096574144,43.159824933344154],[1.7435880718428745,43.182725951168436],[1.7134791529379416,43.185618701843005],[1.7099486500213625,43.20058204747453],[1.7238440687530252,43.22452425076901],[1.699776940607475,43.243831295721215],[1.700754514704471,43.26054064540708],[1.6884197209147511,43.27355372810048]]]}}