{"type":"Feature","properties":{"code":"90","nom":"Territoire de Belfort"},"geometry":{"type":"Polygon","coordinates":[[[6.823538854548165,47.81305372458858],[6.846179818400714,47.822945196999186],[6.848453009671943,47.80186631777955],[6.862439977221479,47.786366479297826],[6.924003092082664,47.77046856849051],[6.940432511420332,47.77156566113129],[6.971172049261423,47.75268332188395],[7.011758808530528,47.741727719619604],[7.0374240128839105,47.72163936009252],[7.026487154962489,47.70099973832609],[7.046314752908177,47.67150171047833],[7.018871382727326,47.65067487496959],[7.004983231421509,47.61938273174142],[7.025415883306456,47.59267760605909],[7.064719544691056,47.60105755104757],[7.086270201422721,47.592562199657216],[7.106219108143236,47.55138203283421],[7.135819374783416,47.53646303183533],[7.130345969302944,47.50302658239207],[7.111058458608464,47.49490275577542],[7.066595656975458,47.49348103198955],[7.024394386855231,47.50421334191186],[6.985924997204884,47.49152131286686],[6.998962818675516,47.45229903121829],[6.970004495274878,47.44688262940426],[6.940536510867674,47.43337372140521],[6.932315529660057,47.45581501043693],[6.917231799861733,47.46886980086098],[6.907596719688256,47.49436626816266],[6.930856287246399,47.49817970710937],[6.946162450184676,47.51131633258056],[6.909674152385642,47.525507149094636],[6.905669627634239,47.547361521011815],[6.883473648745609,47.55533115808764],[6.860809068981891,47.54751358468233],[6.816660001724921,47.54792247821983],[6.80700533167707,47.562801384972],[6.804959146951254,47.582108256125515],[6.780404771904786,47.62526070544475],[6.80103447418288,47.636044219886536],[6.776099673752326,47.668572918052455],[6.781911060840567,47.687677725049234],[6.772570902276831,47.71163343375122],[6.756625698295901,47.72444662113829],[6.757638483670512,47.747877966474704],[6.785629179422312,47.78207231453601],[6.811469860026116,47.796038470605524],[6.823538854548165,47.81305372458858]]]}}