{"type":"Feature","properties":{"code":"41","nom":"Loir-et-Cher"},"geometry":{"type":"Polygon","coordinates":[[[0.8412172317044129,48.10306240932052],[0.8758906410789156,48.10943550861685],[0.8909295923841402,48.10206310395515],[0.9440295929845693,48.11237193590575],[0.9502768856001645,48.09927549241419],[0.9813105576003316,48.119560230186515],[1.012548026499917,48.132548614185936],[1.0387342870949972,48.13165484141439],[1.0456264025684945,48.11762847776995],[0.9915488801693668,48.09741164653938],[1.0085477409246668,48.0831267789959],[1.0260026950898764,48.088407307781466],[1.1031936171142485,48.08108800423722],[1.122713770015408,48.035980030467925],[1.1666303937374705,48.02739182079259],[1.1695601007353318,48.00668912927458],[1.2096430686639739,47.96850051668402],[1.2456512469484482,47.979278052584],[1.262653160836444,47.96284180147032],[1.2995800659732568,47.96816150698365],[1.3086281518302283,47.953853799768815],[1.343701298620938,47.957530775683054],[1.3700158222874876,47.95374905485532],[1.3869462890722553,47.9812831788851],[1.4068828320031919,47.97009659263769],[1.4372409526093535,47.9764987201296],[1.4396560496498594,48.01194932329023],[1.5201238283340488,47.982278476987],[1.5648186289077217,47.989771943729956],[1.5654541645457618,47.97421749655934],[1.525499326800869,47.94229204754703],[1.5254235639039053,47.929113580200145],[1.5571710400083827,47.91853552571645],[1.581422578383437,47.90192694837693],[1.588137738369647,47.8764265961909],[1.5579324839494983,47.84812808991504],[1.5351015717504108,47.839545777266615],[1.5337009096463892,47.82052592915118],[1.57053819365027,47.79658651597201],[1.571250855065289,47.786963386235925],[1.5478779921036048,47.76976159021967],[1.608594434126198,47.73393326082299],[1.6266316344148937,47.760971714419085],[1.675275323556801,47.73862278622698],[1.7113085978372213,47.73187770277278],[1.72806479545811,47.699564603486614],[1.7399382527750795,47.66153396917555],[1.7819763886541304,47.65230252991529],[1.8451687786713176,47.657075980599814],[1.8436947697611497,47.68635321599452],[1.8701081905766355,47.67418008034603],[1.8995427041357686,47.67321863025759],[1.9341238444974078,47.6794171004311],[1.943437380081729,47.66008510917376],[2.00158311405148,47.66867970749289],[2.008045857144552,47.67730418039903],[2.066463070283871,47.6743106765294],[2.0712946786313693,47.681559290786815],[2.1397679887163026,47.67737542400391],[2.148515572748776,47.67042742106637],[2.20255850774907,47.67814460514722],[2.2199555931269646,47.667865521618396],[2.2409780083952664,47.63734539809969],[2.2392136309887465,47.62097830786331],[2.1979481169523365,47.607172865315],[2.1537378905390843,47.60082068488091],[2.1195753203342678,47.58295161292573],[2.131269305993213,47.550272515078134],[2.1956362774138967,47.54857375639977],[2.2152905780056495,47.52210707630713],[2.2178746796449196,47.495343490555165],[2.247745015297621,47.491732324776784],[2.2369731533510286,47.4712635208768],[2.2478944881999485,47.44140228778668],[2.24369191507804,47.414818238040475],[2.2052259819019713,47.40525327924356],[2.1886360612239333,47.43774542166242],[2.1428436560395734,47.40889739927532],[2.1170302440572,47.41010870128665],[2.103653119991459,47.39321656330969],[2.128211459230398,47.331734733954534],[2.1515587241969385,47.310723959822234],[2.1389909561599825,47.28548622024678],[2.111689632581936,47.279437465410155],[2.0772893478221053,47.285804260444245],[2.03110991609486,47.269807386211056],[1.998492852908483,47.264047399335425],[1.940816059215001,47.29013078285961],[1.9214647164538976,47.26271748785687],[1.8947687643612021,47.25466020007403],[1.9165941784807092,47.23598592691221],[1.9038108872203174,47.21524765964095],[1.8730051860601082,47.20531826355262],[1.8554824505856486,47.22040769184943],[1.8390792420529518,47.219308157716554],[1.8088371356765827,47.23387535753442],[1.77611073651641,47.23138256399343],[1.7397902842883757,47.2549073525034],[1.715953376298902,47.276776997807374],[1.7058305011298698,47.26587806828036],[1.6659002787349648,47.25778142355442],[1.6504371377870972,47.27317015052999],[1.5924281213159723,47.27667661628705],[1.59104001493485,47.25746333923802],[1.566277084478891,47.261616837192406],[1.539459756494749,47.25652806281719],[1.5245337678448851,47.22597700817113],[1.4815998938388473,47.239163055882926],[1.4484622479605171,47.23796792120677],[1.4241047321761513,47.22954437481808],[1.4014266290701616,47.21244937239578],[1.32666554504539,47.186225424714024],[1.2945860121083586,47.23735505703783],[1.2753776194772806,47.25665618088809],[1.2433106673289427,47.2738511703364],[1.2233351560525534,47.29417679425747],[1.194077711170585,47.282955427790995],[1.1732084801290505,47.285312153710144],[1.1623243677400883,47.272335282824905],[1.127510095723219,47.29676734084024],[1.1079035040639091,47.29948400233637],[1.0948532977686622,47.3285366431566],[1.106312735447246,47.331083370539545],[1.1228695110868157,47.35644850071685],[1.1043501548322552,47.370150192490236],[1.1215488811681436,47.382432672337416],[1.093707046251301,47.42905551300356],[1.1144031703140151,47.42842030526633],[1.1333660737875422,47.44894991839347],[1.1128833087567993,47.46591695745825],[1.0945042162450278,47.469318385564065],[1.0739220708330763,47.51210138412339],[1.0464291767245975,47.536720528819714],[1.0763363652479012,47.563221554317444],[1.0333525357335172,47.60701157045949],[1.0147853330259788,47.60470741380823],[1.0037237984188345,47.58435868340903],[0.9867433094857044,47.59068498133699],[0.9917892369385366,47.62002605530995],[0.9190111731399363,47.63260906008665],[0.8989296726576519,47.60470549484694],[0.8638905035844368,47.59963034358335],[0.8436538464911009,47.645477850792176],[0.8595037193186879,47.669207269893576],[0.8349728165936311,47.67716533256789],[0.7689302951021508,47.68497280116767],[0.7386942552766614,47.696124610338615],[0.701006484813832,47.68458422067955],[0.6747744974506991,47.699004075610326],[0.6313085686496198,47.709099413081624],[0.6144311990931555,47.69421364605317],[0.5805178732790718,47.71232800971273],[0.6116040970811059,47.728130849502094],[0.6207093570907236,47.747478130583154],[0.6512736394121261,47.75525397111593],[0.7248506777855144,47.79889099623824],[0.7452461943264459,47.82624263074177],[0.7745788175007324,47.83968729513432],[0.7573343557395469,47.8911737517487],[0.7805065684044099,47.91037691407999],[0.8091382962389404,47.91066255080899],[0.8171444727137281,47.93447148791446],[0.8454683997304765,47.9413323536207],[0.8376537080820077,47.96869214349436],[0.8186564019800159,47.9892543363892],[0.8323705747596303,47.996592919852844],[0.8405346727531238,48.021049640847735],[0.7975514233427093,48.03724057968432],[0.8011883732648392,48.0715172542445],[0.8430226369432118,48.07264184794484],[0.8412172317044129,48.10306240932052]]]}}