{"type":"Feature","properties":{"code":"18","nom":"Cher"},"geometry":{"type":"Polygon","coordinates":[[[2.2392136309887465,47.62097830786331],[2.289632282146918,47.62905507196624],[2.3249512144551785,47.60757115362496],[2.3424427416844122,47.60527658931115],[2.3730210260695963,47.585524572377516],[2.402680868810648,47.599506360587185],[2.439400020099367,47.60949994575173],[2.475044546159242,47.579880080920134],[2.4991330263197966,47.56751893993049],[2.547268117212732,47.57517784121953],[2.5729159948690103,47.560017104315655],[2.596866741027346,47.5564207348813],[2.616737946714408,47.54089713523513],[2.612017744333409,47.52638001278611],[2.6558708896887775,47.51039583983229],[2.658459112358834,47.48789924166263],[2.684437897133784,47.482967548570784],[2.716060360099423,47.48953015835246],[2.7274074958054517,47.498891999551546],[2.722269834213415,47.52137488790703],[2.7671158140580423,47.52510072819235],[2.7848278000315037,47.51590818527616],[2.7968724826242704,47.49670238161028],[2.8253483178196612,47.49720762944185],[2.8346896177800054,47.50891434033172],[2.8746252064056805,47.52042311253978],[2.8884546532335578,47.5094282811585],[2.9026727758043678,47.4787904760825],[2.931175112801269,47.441669509538606],[2.9194707204649397,47.407274676600125],[2.8734906167112504,47.34839595881793],[2.8767969741076427,47.321752773704915],[2.9077684884182546,47.31098769398195],[2.9378686076548557,47.287718487007425],[2.9834041014118906,47.25976318037284],[2.9816846477683376,47.22199695723395],[3.0092825607816684,47.17991916254789],[3.0280852399597813,47.129067685143],[3.0313750673889857,47.09247842625923],[3.0232152406674615,47.06261687352466],[3.0627479524794685,47.04527994600743],[3.0757508386893258,47.019144570799824],[3.0628630913516144,46.98581276267424],[3.0793297925031697,46.955118753700084],[3.0502941730720203,46.9106303658982],[3.0680947893123323,46.877676731330354],[3.069533804251037,46.85306859289044],[3.059347134977098,46.82726033600817],[3.0320681893946824,46.794911188525944],[2.9599146908207157,46.8038765767733],[2.9081337416117115,46.78790090388258],[2.9097996708207035,46.77934846021115],[2.827616388160227,46.73528787880108],[2.791229376607484,46.73345369143159],[2.758717331696372,46.71770479874165],[2.737293702840373,46.74315745422507],[2.7144961054529793,46.74448968334189],[2.701686181879871,46.72775447664072],[2.647884573027338,46.688911012473135],[2.623913816878901,46.656626585968894],[2.5977652900203827,46.66465075679083],[2.5721840644866165,46.65944372206644],[2.5966478252098466,46.637219569816494],[2.577951915975513,46.60379087601659],[2.6011237640888596,46.590178123200815],[2.6098613959683155,46.55013821923558],[2.536652020779054,46.51969984591659],[2.5286102816734966,46.52948202499876],[2.4991214173027565,46.52128856511456],[2.482928804775826,46.532697444644036],[2.4454932330861086,46.520050656829746],[2.368300280591156,46.518434763382956],[2.3520035556502914,46.512211347274814],[2.3054653620681904,46.47543251470377],[2.2857578150118907,46.45351915029325],[2.2810476101300576,46.42040537318101],[2.2498713444180876,46.426364231750945],[2.2138451955651943,46.423141210473545],[2.1975702533853765,46.42829596011364],[2.1677857181383846,46.42406650081809],[2.154348029342259,46.43408051549606],[2.1565419224007676,46.46152623851912],[2.193160461276067,46.47025540007179],[2.2043972607989812,46.48439997524806],[2.1810826759773936,46.52903506403956],[2.158700190947214,46.557346281682186],[2.1732125948301104,46.56618677203497],[2.1671454437331246,46.588979151612705],[2.187486147291389,46.61672498199302],[2.1894467123408132,46.64214127258008],[2.138670574914567,46.66743461292721],[2.1554479927780568,46.69216020128774],[2.111303456191762,46.71160114289773],[2.065751312591214,46.742494802064904],[2.0929846391107216,46.75496838536534],[2.116649522348319,46.779717208437596],[2.1032165162358063,46.79543413838327],[2.072503508712849,46.808814332303335],[2.048810332345124,46.82944826814363],[2.0782472483795438,46.83892644966574],[2.106948767251103,46.87213575040175],[2.1390397070573326,46.888569836472456],[2.154834385411464,46.91162948370054],[2.1460169903433157,46.91750721360478],[2.109999619994995,46.91338987501182],[2.0706986163554206,46.93399643786306],[2.0702028641356307,46.95442291025531],[2.1088559092730397,46.99719111950124],[2.0933838995940373,47.01573583572996],[2.0297138722809316,47.04747052812152],[2.05567516887427,47.07168995789588],[2.0483747223375235,47.10602450452247],[2.024534600265164,47.104448294258844],[1.9966600854821617,47.12699833408193],[1.9664139793909294,47.12541751372791],[1.9184124209566409,47.10482799182933],[1.882721849834433,47.1019495456428],[1.8488587784887625,47.10936986097168],[1.8226530300255424,47.122071863013495],[1.793670861418607,47.12090886272082],[1.7776202085696244,47.13240064713366],[1.8100544192382355,47.15615809030652],[1.8234729723307537,47.173942852701636],[1.8422371270362656,47.17758044921177],[1.8390792420529518,47.219308157716554],[1.8554824505856486,47.22040769184943],[1.8730051860601082,47.20531826355262],[1.9038108872203174,47.21524765964095],[1.9165941784807092,47.23598592691221],[1.8947687643612021,47.25466020007403],[1.9214647164538976,47.26271748785687],[1.940816059215001,47.29013078285961],[1.998492852908483,47.264047399335425],[2.03110991609486,47.269807386211056],[2.0772893478221053,47.285804260444245],[2.111689632581936,47.279437465410155],[2.1389909561599825,47.28548622024678],[2.1515587241969385,47.310723959822234],[2.128211459230398,47.331734733954534],[2.103653119991459,47.39321656330969],[2.1170302440572,47.41010870128665],[2.1428436560395734,47.40889739927532],[2.1886360612239333,47.43774542166242],[2.2052259819019713,47.40525327924356],[2.24369191507804,47.414818238040475],[2.2478944881999485,47.44140228778668],[2.2369731533510286,47.4712635208768],[2.247745015297621,47.491732324776784],[2.2178746796449196,47.495343490555165],[2.2152905780056495,47.52210707630713],[2.1956362774138967,47.54857375639977],[2.131269305993213,47.550272515078134],[2.1195753203342678,47.58295161292573],[2.1537378905390843,47.60082068488091],[2.1979481169523365,47.607172865315],[2.2392136309887465,47.62097830786331]]]}}