{"type":"Feature","properties":{"code":"2B","nom":"Haute-Corse"},"geometry":{"type":"Polygon","coordinates":[[[9.40226832441199,41.858698242272276],[9.37190803582647,41.86500821735677],[9.329474334205734,41.83678041560044],[9.309095237783188,41.832145235940885],[9.301434820029463,41.84490426472732],[9.270702639104186,41.840591858357556],[9.236915461534869,41.84652580746613],[9.22749739090474,41.85558903234784],[9.234965106156862,41.87934237596686],[9.25220736357214,41.898984720376],[9.248804246301058,41.908855875310024],[9.220925415083576,41.9218761454385],[9.230490115935124,41.932324073627385],[9.223140183667368,41.95046593535651],[9.221084024655989,42.02759696053908],[9.188367061229057,42.03108582200928],[9.161526350789277,42.024930468066465],[9.130916384150003,42.05440439115911],[9.13482913062442,42.08700036410981],[9.123403164538574,42.10551607054204],[9.08185038106952,42.1259098454875],[9.064131426559902,42.166950715680095],[9.050611468499882,42.17000397791563],[9.04565931380628,42.206923431408285],[9.024603276811161,42.20363389421303],[8.991464818157644,42.216579484852076],[8.973044637723564,42.232597522891176],[8.947076130982284,42.23422817213641],[8.933097537277835,42.25043111224553],[8.904766989145307,42.253859280700944],[8.881953886518218,42.27178078880156],[8.87520921911696,42.29428830686922],[8.859024483697455,42.29995020570288],[8.861675727165986,42.32811167142221],[8.819561377056067,42.317558041882876],[8.770887277733078,42.324764827713246],[8.759078812317421,42.33804006429769],[8.715164693117954,42.34731408789375],[8.68321233664994,42.348405991522625],[8.681978913121439,42.358465400722466],[8.650412807593723,42.36235593170432],[8.640801666424288,42.373436353833],[8.594967598626758,42.370442888773276],[8.573411068108614,42.38140571205032],[8.608843089791446,42.38638181068826],[8.608422093704315,42.416825413431944],[8.623443614293404,42.421015734058656],[8.655236173325635,42.41573491228313],[8.67479692494207,42.47624538852454],[8.664552800602856,42.4929949414802],[8.665497159436656,42.51362834780463],[8.696840811820111,42.52558454397895],[8.71045001223845,42.52370248684714],[8.720517193362127,42.55564630552545],[8.756417557530522,42.570659862791466],[8.760441827402945,42.55857137100389],[8.787065945635801,42.55803097954457],[8.804094980454654,42.569860341632605],[8.808932860020777,42.599055946968434],[8.87503956071919,42.61316864013493],[8.881531586278046,42.62934512068445],[8.902416916945402,42.62713736501694],[8.918133832632359,42.63690557613399],[8.94178034180466,42.63409527809801],[9.010380292350433,42.64035285104823],[9.061821349825943,42.66509048310729],[9.053801584912287,42.67995503339286],[9.085757984829678,42.714606767529766],[9.124558531022126,42.731635182878094],[9.168148283828739,42.73637983567517],[9.19805748276381,42.724981437235],[9.220663922308333,42.73560950529737],[9.293321757624451,42.67431591000078],[9.32260417864183,42.69810306283922],[9.32247464967814,42.71680913865703],[9.3451446458748,42.73666315749103],[9.337520755219344,42.765033852323455],[9.340204735886463,42.800597016108405],[9.311621298469504,42.829728091907505],[9.331968178166248,42.87026782937916],[9.322219609930274,42.899631062547094],[9.347705223407253,42.91305574845976],[9.358875948356951,42.94492748470534],[9.340869996691138,42.99446130565274],[9.359044857554936,43.006721643949774],[9.413672465126256,43.00653079400656],[9.463553614767086,42.98640316480421],[9.451876286538043,42.964357928208706],[9.466129664769332,42.9409504747163],[9.469036245492854,42.90508876257289],[9.48223146636352,42.86451840047255],[9.491086000893741,42.79496852775402],[9.47207892681302,42.7705337050651],[9.446187747709702,42.67357644963208],[9.474879109198852,42.62483253404349],[9.514827798261265,42.58472928229309],[9.527302925634157,42.566105171529315],[9.53474359181352,42.523009178263784],[9.529616852014632,42.489443970187914],[9.54134697029719,42.455927275892016],[9.543397471188387,42.428489580925785],[9.532439507617266,42.38377840928965],[9.537662619936489,42.34360270025531],[9.559720920174655,42.281366796993574],[9.552574586239787,42.23523928410182],[9.558966860048981,42.19643769306218],[9.556601094642179,42.14214728519851],[9.549983013016067,42.104163972329616],[9.530222254216497,42.08620807802025],[9.466958564261997,42.01274493764188],[9.441543252653778,41.98975134561307],[9.41378283019094,41.95570089844187],[9.415949003320323,41.927960722873955],[9.397017056900047,41.87461789997752],[9.40226832441199,41.858698242272276]]]}}