{"type":"Feature","properties":{"code":"14","nom":"Calvados"},"geometry":{"type":"Polygon","coordinates":[[[-1.1196225402660513,49.3555679898469],[-1.0782173743324184,49.38849350541246],[-1.0302250793020893,49.38958141035263],[-0.9887106844575865,49.39741154140852],[-0.939384692333383,49.39504220855989],[-0.8754490370644941,49.36957076039473],[-0.8252067535670959,49.35753795654393],[-0.7222488013847815,49.347004165939666],[-0.647937711207899,49.3459781072392],[-0.5987386883749173,49.33981459321013],[-0.5532470677623611,49.34610161856534],[-0.5153140242090218,49.34501616988366],[-0.451962464076699,49.33549752432251],[-0.41484859816372344,49.33558104324266],[-0.36104180324658686,49.3228840274954],[-0.3025757588502727,49.298441925066236],[-0.22569330389903117,49.28181693021672],[-0.1696632231153101,49.28624405434959],[-0.09557631944627808,49.2981805995376],[-0.0005074304791027337,49.32556281264521],[0.07413515099973117,49.3651917979644],[0.11039331683077662,49.39427124874853],[0.1297510279522393,49.40298907653438],[0.17578018698541883,49.41235618373611],[0.21994001130961943,49.42676180478785],[0.2972244202906153,49.42986163728299],[0.30882332255488343,49.38786856245116],[0.30171362422988823,49.37130535987279],[0.32342800534930133,49.34064201714996],[0.31206679218437866,49.32225733229892],[0.32302317286212995,49.29699256482139],[0.3648958938390429,49.29519774636941],[0.3808108509605511,49.28238539554381],[0.382786744119418,49.26401647481274],[0.32113000687689647,49.24813594819387],[0.33741825014085014,49.23147819071951],[0.36654884147794087,49.21588212665217],[0.3947289759189785,49.20844416130579],[0.3858907764132056,49.15405567420366],[0.4267310809928099,49.146911914644164],[0.3997150635817522,49.10053337795652],[0.40780490572913114,49.07739021420981],[0.37935511955028134,49.06776772669734],[0.37767980975475124,49.04945033019971],[0.39019525565888735,49.03437482486719],[0.42590416560578637,49.031961024526844],[0.4462781902001329,49.014969905257644],[0.43394360004573646,49.00495438261333],[0.42880993562155445,48.96612177413988],[0.412814532889088,48.950626367694355],[0.40609491524831554,48.96346413266829],[0.37731004626458825,48.972554866896424],[0.3581085399804696,48.95050361041376],[0.3332314772821841,48.942781544583966],[0.3105016483200191,48.9525668734449],[0.28264019709882576,48.94899613116388],[0.27250168047082235,48.964655839870495],[0.24466232022740259,48.95878245595905],[0.24227175031800538,48.94434881189317],[0.18746286897648523,48.940627353263515],[0.1564748700538276,48.924787583562484],[0.12760760912750246,48.95221907078784],[0.09488679748726127,48.93579979818696],[0.07094503667266873,48.932121250285164],[0.05639799250068904,48.902464038657314],[0.008758124525063051,48.8910599383045],[-0.030666077085217337,48.8738778222776],[-0.0590064530019254,48.853491798472966],[-0.0850638956816069,48.84465033807136],[-0.1463430882060753,48.83444909949476],[-0.17671993891467938,48.83423079521249],[-0.26217897261037365,48.85359465583731],[-0.29452074618238994,48.85168192113505],[-0.3285204584539417,48.857599313600346],[-0.3267045002943942,48.840277412458356],[-0.3462445710154039,48.821999140746314],[-0.38621249067401003,48.8452588814631],[-0.4089756657265101,48.87089665763008],[-0.431252227536603,48.87431946705079],[-0.46875379913660753,48.86921416486376],[-0.4940452996821073,48.84857463029627],[-0.5445223814299559,48.8478900838751],[-0.6264394642029217,48.8268065097143],[-0.6935979640277244,48.8472307255334],[-0.7054998116130325,48.83677879901897],[-0.6821715230909893,48.821834119269546],[-0.7125565216024937,48.80069002566648],[-0.7806266616236817,48.78665142650693],[-0.8192734301255277,48.7541311066678],[-0.8409353560137922,48.75222016383323],[-0.870843068323719,48.755747083763815],[-0.9194507448733115,48.76990119354358],[-0.9510500649738302,48.78923788485761],[-1.0126842102843516,48.77178311290127],[-1.0374406727580494,48.78252947303227],[-1.0587344201065705,48.7733510406527],[-1.0894728333388959,48.781514884249376],[-1.1038400489666345,48.814802746543315],[-1.1537697728059082,48.822236045223256],[-1.1553820376155783,48.83646333089034],[-1.099957594999108,48.86805030812276],[-1.0711805139009567,48.87028515761762],[-1.049194217272288,48.89402994339517],[-1.0137402112544927,48.91595272397592],[-1.0226214673729113,48.927090137671044],[-0.9557321879384142,48.966234060803075],[-0.9427299538328557,48.967706984870034],[-0.9136451137312932,48.99096142683413],[-0.9061381953887807,49.006106279376766],[-0.8623508752010071,49.034658294620314],[-0.8845207940960534,49.03871404252527],[-0.8703864178242734,49.07831283220894],[-0.8799553096857228,49.088797685340666],[-0.8784554052403395,49.117103346563994],[-0.8865942987279166,49.12943404142505],[-0.9314412531318438,49.14557476084313],[-0.9373335821349595,49.16152234602555],[-0.895819782126535,49.19807825865292],[-0.9205699599745509,49.221065178841805],[-0.9754585570109295,49.19216218144188],[-1.03400192072734,49.218462649963996],[-1.0787006256545217,49.23459214406213],[-1.124678305514618,49.26791880332945],[-1.1215034590044193,49.28156614073767],[-1.1400966460602808,49.2973935275135],[-1.1395424010513058,49.30987085975071],[-1.1134631010458858,49.32794637083092],[-1.1196225402660513,49.3555679898469]]]}}