{"type":"Feature","properties":{"code":"35","nom":"Ille-et-Vilaine"},"geometry":{"type":"MultiPolygon","coordinates":[[[[-2.1237080247752895,48.6044100285603],[-2.141418514151318,48.63150826238565],[-2.1110187885946092,48.639371270835035],[-2.0731195987308073,48.639848527788644],[-2.0550968709795594,48.62731181103318],[-2.030265589793804,48.623037585858],[-2.0335527005150444,48.60945056178775],[-2.0135087146521657,48.58752054847777],[-2.006894935706843,48.56611290198358],[-2.0462129661682633,48.54401486364402],[-2.044804968300762,48.56420276394202],[-2.0924894843076234,48.572462492473],[-2.1233140883470694,48.58901274793282],[-2.1237080247752895,48.6044100285603]]],[[[-1.9480369010443914,48.53880790488251],[-1.9611498133853817,48.55028465234394],[-1.9919510225165333,48.59410622069773],[-2.0087091801575645,48.60763335351246],[-2.025977992976761,48.634440306350065],[-2.0259623321650078,48.651529854005666],[-1.9952407599257496,48.66014163675909],[-1.9698282134951834,48.686323125327455],[-1.938080197743341,48.69445682698749],[-1.9058385211153706,48.69048099448555],[-1.8905012399508623,48.69894290465139],[-1.8485728474073226,48.69470909677442],[-1.8364331812622583,48.68121682888067],[-1.862720260590434,48.66727765633872],[-1.8716564802790996,48.64741056211108],[-1.8450734275301934,48.61636825056999],[-1.7739813304009915,48.60347255264488],[-1.6611080846074195,48.61074343781696],[-1.571087121326364,48.62644574305228],[-1.5395886706131567,48.59990995187043],[-1.5429924815935763,48.580444133540496],[-1.5189153941473403,48.56659421958314],[-1.5332845735947223,48.548008242217605],[-1.5195667662578034,48.54001612578908],[-1.4956341385339116,48.508901592854826],[-1.4899474351423645,48.4893748476061],[-1.4492619036481307,48.48610480553381],[-1.4291375679083818,48.46255700303843],[-1.3825547062366061,48.4568090552251],[-1.3446860862323986,48.47306856926301],[-1.3286586444430455,48.49624141596003],[-1.2792064911793741,48.50916990134831],[-1.2722484935647256,48.533924823055],[-1.206555726308375,48.54220594454138],[-1.1883677623098592,48.52868744833374],[-1.1709940931325373,48.53107346572728],[-1.1470794109416749,48.517497772579],[-1.1305430914657242,48.52170438546665],[-1.0701645143702043,48.50849381419032],[-1.0757201292558587,48.499394433638884],[-1.06581502082362,48.4511898364817],[-1.0830222073820854,48.43355484623164],[-1.0771281225801501,48.41169597169672],[-1.0539346752839132,48.383988802654805],[-1.0646345421184056,48.36828025341763],[-1.0450195299623026,48.327727830000974],[-1.0820973324543777,48.298390519589205],[-1.1015118599620337,48.26179752391566],[-1.0736642370047438,48.20075616092018],[-1.0796054903163383,48.18347699576321],[-1.0602909002161003,48.150112461248],[-1.04960608939875,48.08980493060165],[-1.023283345569893,48.06891120315209],[-1.0346655165784813,48.03361464779431],[-1.018202579829028,48.012309356573546],[-1.0212610284765602,47.99494016247969],[-1.0709701077191276,47.98180281363006],[-1.1026711686637318,47.98906278289821],[-1.1260769059410864,47.97331126695682],[-1.1539806565642339,47.96582146885006],[-1.1595139860083212,47.939220868111676],[-1.176229425978116,47.89739680946678],[-1.1966267612194066,47.88926967278471],[-1.1892286738461781,47.8675257247478],[-1.2139598200974668,47.84431487401968],[-1.2160077396105768,47.83115457607098],[-1.2382517343256678,47.80999146297073],[-1.2458823462890538,47.776717547680406],[-1.318489521021141,47.79233158240722],[-1.360603817710753,47.798432206803135],[-1.3904279688415837,47.828280801153184],[-1.4178432025307772,47.82748441208516],[-1.4651862054088018,47.83460451273148],[-1.475255403833222,47.82540410017005],[-1.4666150070573418,47.8074975400483],[-1.5042371318422498,47.8009448646891],[-1.5280651896409132,47.78584499709324],[-1.5934074072820492,47.77605009178189],[-1.6163557701095264,47.76415676086167],[-1.635569613301689,47.74266025266195],[-1.6381801885560439,47.72231564110314],[-1.6556020388557997,47.71053299603197],[-1.6911255411567772,47.71282712864092],[-1.7236704751667482,47.698676218818825],[-1.752032319383817,47.70741764750666],[-1.7724163023563184,47.69845339608558],[-1.8225344895568474,47.70628736859361],[-1.8640133393104241,47.7069846705491],[-1.9363047156903395,47.68664646647229],[-1.9546408028570217,47.67170187943092],[-1.9690539759076384,47.688369032568346],[-2.0093556937669623,47.67137826011831],[-2.0357262501792506,47.668539150280836],[-2.050619855103944,47.65113784113771],[-2.0747365598102796,47.65166099544987],[-2.097035597340287,47.63135984401428],[-2.1143465125517733,47.64948078140733],[-2.104362517130758,47.67679662818726],[-2.1226631940444274,47.68266972251208],[-2.1193410051181774,47.71063202277528],[-2.131472084919135,47.72224026215694],[-2.108708446187951,47.736577355949336],[-2.05870429699438,47.73825600134232],[-2.0847208937394774,47.76271449098266],[-2.1281864076334727,47.76137577244934],[-2.072263910083875,47.79043840708027],[-2.07046358794415,47.81140390317735],[-2.0495260703928677,47.816917397929046],[-2.035760594626103,47.83230046155979],[-2.0516011501156974,47.84056453938214],[-2.05159236139944,47.858773023325405],[-2.0912481690997526,47.8434473982296],[-2.0963111903663836,47.862554271425815],[-2.1162985684590643,47.88095628988424],[-2.104913226347623,47.90237571011746],[-2.0847410993122524,47.90544356892739],[-2.079088544973962,47.91952249839454],[-2.098673563613805,47.93553710123405],[-2.1112032705184025,47.959278246467555],[-2.143950368919052,47.983469165776214],[-2.174134646718617,47.97976235737829],[-2.2048365524509523,47.99406221955531],[-2.2328964298568574,47.998867256915695],[-2.282925404888046,47.99091881499263],[-2.2795950136703538,48.02636073132026],[-2.2418711140864542,48.05284164383506],[-2.193720023024239,48.05137966801874],[-2.1703797438923407,48.06358155989515],[-2.1873980178837424,48.08098581530162],[-2.2332446439270166,48.07562787634504],[-2.255362117704863,48.065686457906594],[-2.255541810894401,48.10943651832076],[-2.287278430400511,48.133745563458476],[-2.2832479885362944,48.14529870453187],[-2.248230377893739,48.15279776234215],[-2.2247373292770836,48.17059701877417],[-2.219796763889133,48.20213436033515],[-2.1843775145100226,48.213137604790425],[-2.1869612472272957,48.24637857003084],[-2.162901712976404,48.25626974900393],[-2.126853803195948,48.25976994927449],[-2.110118931164646,48.2529034820783],[-2.0762583662242795,48.28371148397488],[-2.0532925486538485,48.29832786130155],[-2.014100529199395,48.27953190980406],[-1.998266241844134,48.296980554393514],[-1.9548327221541828,48.317109845291775],[-1.9668973217216907,48.3428189820063],[-1.9290791323813683,48.34704210576775],[-1.947720243456438,48.36894464609711],[-1.9384653904593245,48.391389339464936],[-1.9367895889503266,48.420070240063225],[-1.9519092329646253,48.42918354147581],[-1.9486347678108729,48.446456041738884],[-1.923895933613775,48.460907740617046],[-1.9268720731463556,48.47686450947533],[-1.9110132247187712,48.51741534739239],[-1.9251126755890333,48.54530394613221],[-1.9480369010443914,48.53880790488251]]]]}}