{"type":"Feature","properties":{"code":"59","nom":"Nord"},"geometry":{"type":"MultiPolygon","coordinates":[[[[3.0403984136982025,50.159705108437066],[3.063005335119136,50.17367767246187],[3.0939135240338187,50.1622262487789],[3.0681434935957395,50.14734495422104],[3.0727880608848768,50.131186438720206],[3.037036047993321,50.130313345175814],[3.0272922183841873,50.118551266105456],[2.9993155954143598,50.11885065997644],[3.0038853511528694,50.15024647820991],[3.0403984136982025,50.159705108437066]]],[[[2.067712027611001,51.00650515466528],[2.1101030884192196,51.00515436424168],[2.1387263723924743,51.02047731288083],[2.1902457546664613,51.01804063448275],[2.1918237851448867,51.034715807218134],[2.218563107404832,51.03222167243631],[2.2590195633030064,51.043490583642196],[2.342194490550121,51.057309558240824],[2.395233281299764,51.05033008301106],[2.4247542826080695,51.055626117413155],[2.5463252972819905,51.088402305103116],[2.5628959666132043,51.064605626153075],[2.575982419777286,51.01375274755887],[2.5739940374755257,51.00352108038122],[2.6080265106495104,50.98718243218274],[2.6326872836805335,50.94600519935866],[2.5900130400649437,50.919096163778526],[2.607535290732441,50.9124066086538],[2.610326300169626,50.862061552621626],[2.634982733121708,50.81275641876223],[2.7181914035396804,50.81320560793264],[2.737511840411906,50.782670872072046],[2.781947131330458,50.751092598326686],[2.7867446611456996,50.73381921547943],[2.813275390169948,50.716947630173586],[2.8483804350303905,50.72291764499729],[2.870172980563469,50.70291406808004],[2.8983800599236966,50.69423611297018],[2.922327234684258,50.70280503897035],[2.9374114543505443,50.74209770629575],[2.969662775707332,50.74961097888233],[3.0220450489487614,50.77210693218003],[3.0613770323899683,50.78050085123832],[3.088705984283759,50.77336931450737],[3.1109249331515394,50.794122278216896],[3.1519976780893755,50.78234329668403],[3.1991342816652897,50.734730939175776],[3.211782829092417,50.71325538898358],[3.2446834848058272,50.71304246580907],[3.2583851392745764,50.70064949194268],[3.2624232273169933,50.6784852826563],[3.2410965359392057,50.65778991575674],[3.25520436601742,50.62258275479467],[3.270292523712289,50.610812110449736],[3.2817266737308675,50.57732844552126],[3.275957418697949,50.55853840025285],[3.286531399925948,50.52757580555707],[3.362673754976159,50.50309643957861],[3.3762218373048696,50.49108182460425],[3.432248715257614,50.507118771607686],[3.4739635628750074,50.533561751146436],[3.5194110029872943,50.522868831996384],[3.4963210235985827,50.498683290226374],[3.5223176214061334,50.49496788323126],[3.5683447329862488,50.50097669533296],[3.5853371177327213,50.49053885448199],[3.607087548067213,50.497283044825515],[3.6436495322531623,50.463211807396284],[3.664218477773235,50.45317465879256],[3.673733173288203,50.38972521710218],[3.658270970690328,50.37134117960119],[3.673675908769281,50.3349233228203],[3.710430924740463,50.30316614070561],[3.731606234421014,50.31235332867399],[3.7362206016065613,50.3432570480394],[3.7474038155627727,50.35092914840201],[3.8527555820958135,50.35159288086556],[3.889799951126813,50.32998024472696],[3.9090033110400197,50.328466474363545],[3.967898522087576,50.35036640688851],[3.993908424048428,50.3486153355103],[4.027387066832294,50.357490365275616],[4.037614330208127,50.34294913095139],[4.12197186382358,50.298311640610294],[4.124352666164769,50.27361398697191],[4.207538662540225,50.27297040073831],[4.221850100147642,50.25695260304661],[4.189455991301053,50.23687571936165],[4.160120194753328,50.202535967141905],[4.149388632981125,50.174787171955124],[4.154073029606527,50.161253710023075],[4.126926892460069,50.13501086614893],[4.197038470830976,50.13530868448463],[4.197497822706036,50.109176465683625],[4.227538806961173,50.079679063351016],[4.217832037790911,50.06080510279823],[4.173905462387534,50.045603929706495],[4.162223866832849,50.04898484693673],[4.136379263762434,50.0204647847058],[4.157702243163169,49.988249823321674],[4.140895251736092,49.97875959899442],[4.08712850474961,49.9691875854119],[4.056699209471129,49.98542604488944],[4.01304088648856,49.98566024631078],[3.9794498952640214,50.00299190781123],[3.9947330894398947,50.02553192166869],[3.9895472401156926,50.0413469883853],[3.903385572183311,50.01801137888116],[3.8820101104438387,50.03303286775057],[3.8356719382516733,50.048312733420666],[3.815827444952555,50.03904215991495],[3.797523254135232,50.048396124718515],[3.7463798889650586,50.05360423497288],[3.715184685025503,50.06927463596353],[3.6657493008457873,50.05473310262326],[3.6623093500340085,50.03911432468407],[3.6136399192005855,50.025418579177284],[3.6006637298781827,50.039925849470826],[3.5671883147756422,50.053261540953365],[3.542755355797365,50.05391998941126],[3.5286139046189744,50.03818286664185],[3.507141600307539,50.03577661902003],[3.490663196296732,50.0188947701039],[3.4282376399201713,50.022065913063614],[3.3989075840823038,50.03475745860893],[3.3529820989914247,50.03586832624208],[3.3371140096429532,50.017096007517154],[3.2801740988851327,50.015182550806884],[3.2306551064640994,50.03198300751153],[3.2026122838195157,50.01743710744522],[3.1729557922769542,50.011311964972776],[3.117562382696325,50.027670727516394],[3.090253620620082,50.05374055513492],[3.094758364918514,50.08315987378872],[3.1141238720183764,50.092160389605915],[3.1048462443791918,50.115285460750734],[3.0918531294760667,50.12063041191277],[3.128954376035887,50.16556204959065],[3.1561320895920617,50.183715151473976],[3.1314047305598587,50.19940491824935],[3.1427922279498945,50.219237231259655],[3.1788851239271336,50.219073327099096],[3.188353526948621,50.22867621857968],[3.1556853741465,50.243187559380864],[3.133679451303655,50.26623580402242],[3.0515044113968517,50.276650211776854],[3.018560069810309,50.26439442090914],[3.0152741338861255,50.283780191722634],[3.0843056602069536,50.31119078351624],[3.004772238368158,50.36678462460666],[2.990408003554761,50.39527899657189],[3.0251728351795903,50.40757565859167],[3.076383262967528,50.44060786930254],[3.0543582082042056,50.455089924005314],[3.037672306035308,50.4416400980408],[3.016772027301739,50.44834132930235],[3.0157717239835207,50.48645538436221],[2.9647097377674005,50.512778020799246],[2.8989518584324676,50.5015578156606],[2.8798761281832572,50.51589325872625],[2.881364535884128,50.535434775320184],[2.8259824668620874,50.52538845142136],[2.801938478218003,50.53483062913716],[2.8134467388705726,50.54934391547588],[2.80816309470569,50.57916943876986],[2.7890757995406865,50.583060514887364],[2.8065346151718447,50.606764517797096],[2.8424416096298035,50.62905410400955],[2.8697378084597434,50.631095996029686],[2.8404494526472543,50.656566351394346],[2.809187984818708,50.669372896442674],[2.7690409100193936,50.66367813929786],[2.757400535457718,50.61823745589094],[2.725641525704916,50.61411481623499],[2.713850503520111,50.63129225354632],[2.6844644994994438,50.632719762619324],[2.630516060197486,50.617951505356416],[2.5866206729970513,50.63809536205738],[2.564653031146168,50.624522730303156],[2.5370449897762186,50.63045370101787],[2.533625965601234,50.64308581112802],[2.495948921017839,50.631244941936494],[2.4503937034166032,50.65384652293581],[2.428985110726485,50.65701656077829],[2.40779242678447,50.67276560279946],[2.3831045994174644,50.671828851607664],[2.363524646595893,50.684643637888016],[2.3829874868893204,50.69628206936786],[2.3417485781495326,50.72837526546449],[2.34089102647672,50.74090632543495],[2.4114775397506802,50.76673424707295],[2.375989607627449,50.78404912635709],[2.3428811569437658,50.7810883826341],[2.252496270869472,50.788115718263434],[2.213001675000002,50.81619844972972],[2.2018976811147395,50.8508405908696],[2.1541252595915212,50.92600143483312],[2.1353365874298347,50.96425774404664],[2.097600537080802,50.998427200370195],[2.067712027611001,51.00650515466528]]]]}}