{"type":"Feature","properties":{"code":"23","nom":"Creuse"},"geometry":{"type":"Polygon","coordinates":[[[2.1677857181383846,46.42406650081809],[2.1975702533853765,46.42829596011364],[2.2138451955651943,46.423141210473545],[2.2498713444180876,46.426364231750945],[2.2810476101300576,46.42040537318101],[2.2847885229424363,46.38630891270082],[2.3233435644763096,46.36652595580878],[2.302749949603141,46.35441622497473],[2.3230243720211274,46.32927925675375],[2.3549021067976903,46.32568201768989],[2.3704814292505856,46.312630811170784],[2.3918607677139923,46.329982476677515],[2.4204617595913738,46.310131437621955],[2.421342247531783,46.28462476459887],[2.443031552582666,46.294998578986906],[2.4807602356876792,46.28101200577568],[2.47709210519503,46.26936080025225],[2.4917957849327936,46.24786046438832],[2.5158528050357227,46.23696126598014],[2.5280462333006355,46.186332427553644],[2.55979833292496,46.1733665543973],[2.5653790586982073,46.143032182829025],[2.5505225579409916,46.11895797457819],[2.5521924042632187,46.08251218540567],[2.57170126140345,46.04837735959016],[2.6025111446423104,46.033460147639815],[2.5944189201416936,45.98944187163358],[2.61078659720824,45.971228075938264],[2.5696347302085196,45.95881426721691],[2.55163679096888,45.94126557576326],[2.5279244706403525,45.8992324603817],[2.4922254101808226,45.86402992467918],[2.4706202631864147,45.87233257398153],[2.4265480371985815,45.83477320365116],[2.4013447212803922,45.83757813269279],[2.3880204308712214,45.82737590512424],[2.427406116463833,45.79428142437904],[2.435460687234864,45.76697343160803],[2.454731087219177,45.76088170513876],[2.4921255582417543,45.73767009540705],[2.4358558482207813,45.69927506144423],[2.410248662063398,45.709634900959585],[2.351695193492091,45.71006973438515],[2.3401720745484034,45.682564129551814],[2.3209438982497623,45.668590909995366],[2.3059428488736584,45.674659005456235],[2.2733519532781403,45.664007418292094],[2.271074402972525,45.69164773075567],[2.1939584682323856,45.69904710388085],[2.202325950043259,45.71857614165799],[2.182986086625649,45.72061691902859],[2.1609119774740395,45.73583595403904],[2.1338092129271105,45.735432891151106],[2.1135454727593443,45.72477506502512],[2.0839036779216125,45.7460341651736],[2.0356658672821046,45.75505181598863],[2.0015199455968986,45.7487930104446],[1.988528308650944,45.72135422054224],[1.9565786180296985,45.7247553300422],[1.9417142236595262,45.711351415159655],[1.915517948219608,45.71125548778204],[1.898730779182943,45.69827755120411],[1.880957399347195,45.71285387339609],[1.875140102478583,45.7327797889896],[1.8941319437754782,45.7592554835555],[1.8808988285366512,45.797714818456456],[1.8464472547509174,45.809940191138686],[1.8284337256367398,45.80980874385992],[1.7891620911385413,45.83007210551306],[1.7558371847814345,45.855656306428116],[1.7148786249110421,45.8400586312482],[1.69036360011077,45.84361369992126],[1.6766374034760068,45.83511402023573],[1.6023984681707661,45.85746515857901],[1.6023488376186423,45.89096810343807],[1.635996388309483,45.88844297865446],[1.6397206723679907,45.89953853071148],[1.6150681481078124,45.93195022666644],[1.5791744495987925,45.93040642363652],[1.5782614117742197,45.91727264832772],[1.5472651107258997,45.91683379316217],[1.5299613213195493,45.93182220228596],[1.5325001755915217,45.95280423814569],[1.5661484901291225,45.96325060326457],[1.5764733332307777,45.98099739362502],[1.5648266887508957,45.99711597960844],[1.5385468041090549,45.99742846047048],[1.5363833974668037,46.02629327721946],[1.5491757848158925,46.03541014153877],[1.5317830893571065,46.05816171452662],[1.5429508225169888,46.0765888129599],[1.5048991958425688,46.08815343941205],[1.4919762107249506,46.11473183426131],[1.5052016882428472,46.127461799559406],[1.467878491573528,46.151750416293105],[1.4552353294299893,46.18103071472153],[1.415268536568449,46.177157045823584],[1.3749003074212893,46.2154511009523],[1.394145356288105,46.238349230413554],[1.4168521672178434,46.24087405708507],[1.4036544413446612,46.25990982797783],[1.4265688116168553,46.298921049134],[1.4437697350516507,46.30589420737529],[1.4151905101137505,46.34721849587296],[1.4353808001913293,46.363844088424806],[1.462936752493747,46.375350693466984],[1.5223068332769556,46.42652499450049],[1.543962708576285,46.416887448744504],[1.5462010463391824,46.39346394164149],[1.5696928311710425,46.4054957864533],[1.6143011395442397,46.405298584782024],[1.6448464161558112,46.38681584908517],[1.6836025202595086,46.41817777856285],[1.710900805328006,46.39205717074327],[1.7277004157566196,46.38940888777561],[1.7601258090399783,46.42758992898391],[1.747590198721343,46.45002145600438],[1.7983765894227512,46.45481762095847],[1.8195004176655625,46.430038338950894],[1.883436954441824,46.43255455176469],[1.909176472236739,46.44350179050311],[1.9243082864873586,46.431902226728816],[1.978108199916569,46.439771706882276],[1.9930823669027022,46.43091738935582],[2.044395406151348,46.42134446075375],[2.074201476301987,46.41984302086565],[2.088941803334241,46.40890318674806],[2.129684686571857,46.41986520092511],[2.1677857181383846,46.42406650081809]]]}}