{"type":"Feature","properties":{"code":"28","nom":"Eure-et-Loir"},"geometry":{"type":"Polygon","coordinates":[[[0.8148191028635925,48.67016796018795],[0.8276671061162353,48.68072356503085],[0.8619896827437209,48.68705769224572],[0.876707237647973,48.71549244581689],[0.9023959771326227,48.7106473551684],[0.9552461079026382,48.71678344138858],[0.9614508974400996,48.7257249507322],[1.0140709189239645,48.7280968183202],[1.0590671926768536,48.756763319856546],[1.0957317749783022,48.74871690601713],[1.1186480947364004,48.75458615785833],[1.121402821755998,48.789193818459175],[1.1521108654240828,48.78556141919787],[1.159490184478893,48.769724918274406],[1.184730602501536,48.77263016325766],[1.2460222122058793,48.7696776023494],[1.270215830640388,48.75748087478701],[1.300298160774345,48.76753862976326],[1.3195484140595357,48.76096509555226],[1.3769640090609683,48.791769052281],[1.3583524111815377,48.8164325477948],[1.3621810029001884,48.834179003372945],[1.4093616066102121,48.86115348650526],[1.4549910456481823,48.87032343188624],[1.471281965082692,48.897831449765356],[1.4483097630235757,48.92433060014346],[1.4613084344852056,48.93755797274698],[1.5015238197988665,48.94105360615515],[1.5073440226070087,48.927598989147334],[1.5386150005667363,48.92179645733065],[1.5385208308731109,48.90668492167043],[1.5595052783343866,48.88205164409549],[1.5462315883376268,48.87242890235984],[1.581598875031263,48.85499897015231],[1.5772685877162862,48.84436076548629],[1.5912030850964909,48.814869639400584],[1.5756742260519878,48.7905067944881],[1.5875947031508344,48.773602302755286],[1.6263993499269267,48.748094297484094],[1.579545829918285,48.70181187348942],[1.6117708691618606,48.68947111646258],[1.603118482168126,48.66241796207503],[1.651574528306872,48.63812870428749],[1.6662188615195896,48.613706715891],[1.714895681919355,48.61439494545783],[1.7019890546581085,48.58499862181419],[1.7092527874670105,48.57802434626235],[1.7653297161980415,48.56937104099974],[1.7872450519775867,48.55374456486673],[1.775751488475668,48.52770729661422],[1.7768442507697113,48.50931096191216],[1.8032057888939028,48.472565678495286],[1.8321369890615689,48.467581442678565],[1.84486306037181,48.4493607065379],[1.8716851573650342,48.43978475842447],[1.9064022701801788,48.44014576962788],[1.9221489648373706,48.457600286064135],[1.940657409608177,48.42520626181189],[1.9258935288275238,48.412738189076535],[1.9765777946992387,48.39938447447991],[1.9734600276085819,48.38883055198841],[1.9868210109251592,48.36214189229105],[1.9699915637784469,48.33969146951863],[1.9799848326906437,48.31848007972407],[1.9592272366957604,48.308689574530625],[1.9752916566344318,48.28719843612737],[1.9940847180593788,48.286585877943075],[1.9878756044776544,48.268707563969706],[1.9654790051841269,48.255466245296866],[1.9625953467362638,48.22259665048149],[1.9514550396684471,48.18958117854365],[1.9250485316689847,48.17448662149941],[1.9033398897931277,48.152806309750886],[1.920402814020387,48.14638533996389],[1.9010631123528121,48.129720309688054],[1.8843851938361136,48.097661066466635],[1.8656712589157682,48.08385719871519],[1.797975547328593,48.07686831186792],[1.7448338583126362,48.0661443495906],[1.6789955266507441,48.065829398062704],[1.6556783876479508,48.076176598146596],[1.6245928719693987,48.067222742913955],[1.6138290938946773,48.04498314926178],[1.5941156652809598,48.03069992074373],[1.545306911308587,48.0445885217016],[1.512975755811939,48.02872178084264],[1.5266687471482352,48.00726560320355],[1.5201238283340488,47.982278476987],[1.4396560496498594,48.01194932329023],[1.4372409526093535,47.9764987201296],[1.4068828320031919,47.97009659263769],[1.3869462890722553,47.9812831788851],[1.3700158222874876,47.95374905485532],[1.343701298620938,47.957530775683054],[1.3086281518302283,47.953853799768815],[1.2995800659732568,47.96816150698365],[1.262653160836444,47.96284180147032],[1.2456512469484482,47.979278052584],[1.2096430686639739,47.96850051668402],[1.1695601007353318,48.00668912927458],[1.1666303937374705,48.02739182079259],[1.122713770015408,48.035980030467925],[1.1031936171142485,48.08108800423722],[1.0260026950898764,48.088407307781466],[1.0085477409246668,48.0831267789959],[0.9915488801693668,48.09741164653938],[1.0456264025684945,48.11762847776995],[1.0387342870949972,48.13165484141439],[1.012548026499917,48.132548614185936],[0.9813105576003316,48.119560230186515],[0.9502768856001645,48.09927549241419],[0.9440295929845693,48.11237193590575],[0.8909295923841402,48.10206310395515],[0.8758906410789156,48.10943550861685],[0.8412172317044129,48.10306240932052],[0.8525696983122546,48.133605674559426],[0.913802022562964,48.13512781830264],[0.9116186783263119,48.14886135015183],[0.8619836907733601,48.16682130452495],[0.8367739335625146,48.166991974853865],[0.797655838494225,48.19445221754921],[0.8302416950484665,48.21430027818372],[0.7875964742272762,48.26131463776064],[0.7958184564245077,48.28648186022423],[0.7688672771787132,48.32194393371593],[0.7854319060188925,48.34042724028456],[0.8187477629538905,48.3492990187552],[0.8837069426865347,48.35671469741493],[0.9090291135378351,48.37025942165492],[0.9486303005350746,48.40254075139077],[0.9439900556805834,48.41543779690512],[0.9584142860496184,48.442595257597894],[0.9357072927920254,48.475553713886015],[0.956288496333069,48.48228110680156],[0.9539997024327551,48.50383926047164],[0.9667159729358187,48.52408891339411],[0.9226089134985012,48.5377152127879],[0.9387576535104647,48.55055845317247],[0.8912620563004201,48.57217735609871],[0.8676826582446395,48.57348477486485],[0.8495690718886973,48.584317085863454],[0.8465847869380818,48.60477987546661],[0.8177592533729132,48.616321964340834],[0.8268154990669214,48.63060614219509],[0.8148191028635925,48.67016796018795]]]}}