{"type":"Feature","properties":{"code":"29","nom":"Finistère"},"geometry":{"type":"MultiPolygon","coordinates":[[[[-5.102603031250701,48.43611710405846],[-5.103600745641675,48.47233254581352],[-5.065760515653101,48.48139267104152],[-5.04035308104457,48.46511684576535],[-5.063102244199608,48.44905420596996],[-5.102603031250701,48.43611710405846]]],[[[-3.6591438196705743,48.659209780669244],[-3.6542763238260356,48.61697438924653],[-3.6411048139943123,48.596795685658186],[-3.5900947382947392,48.58273907967781],[-3.5933075055755452,48.55460449049691],[-3.5699848146891386,48.55609659253676],[-3.55387113158307,48.53037692213068],[-3.5820087289476406,48.50685582272],[-3.6045363791794003,48.49579010573053],[-3.5989459676290556,48.47050839949987],[-3.5813817787905893,48.46480510230907],[-3.563244712868301,48.43986658912548],[-3.6005386081976343,48.42162432587916],[-3.605518820600736,48.38654294008208],[-3.5545842830629764,48.37776678483146],[-3.556786825742612,48.335519987867116],[-3.540871846305997,48.29905273798831],[-3.518062717927428,48.281842614354964],[-3.5259985674913756,48.26077449475174],[-3.553237531594755,48.241947687032244],[-3.5577832202588646,48.22853101061742],[-3.538217936786089,48.20645883664802],[-3.564838973733329,48.18574694305737],[-3.6283881260752544,48.1687248221492],[-3.6518557265570566,48.156583426737576],[-3.69467505545132,48.15091429371495],[-3.7155113160954,48.14222278424499],[-3.717299501973206,48.12152104588753],[-3.73401071349441,48.11285300326305],[-3.725890623875097,48.09496610205945],[-3.7032714693453843,48.08734402006448],[-3.69816707482359,48.06231160032721],[-3.675286774640338,48.059296687637904],[-3.662606521516704,48.02008121333488],[-3.640231533075075,47.98524271311537],[-3.5813379803683882,47.98707045002737],[-3.5552758457516087,47.993098470462],[-3.5156118733539357,47.97536899639446],[-3.497303664400367,47.97663709189755],[-3.4813997640454386,47.95187230610157],[-3.4627039996577236,47.948470485246176],[-3.4128264844188565,47.9741964735994],[-3.3922406780637284,47.95650358632056],[-3.4015047820862296,47.94296944095624],[-3.3870295747062062,47.925240278144464],[-3.406618446285296,47.917155590887866],[-3.4040114963344528,47.86615562756545],[-3.449172314379866,47.861897916786695],[-3.4584776087007003,47.83672369691625],[-3.488375735328993,47.82369125414433],[-3.5117214211485104,47.83199375246112],[-3.523004293499609,47.84914685714251],[-3.5396513689234244,47.83617965304551],[-3.5425770850250635,47.82151227934617],[-3.5229226544939514,47.80223614015396],[-3.5386344188426375,47.76264176980493],[-3.5641121250447267,47.76861005548025],[-3.6173293885938573,47.76951026006133],[-3.666828405107558,47.78066980771674],[-3.6808401232958055,47.776789568451115],[-3.7359638663585395,47.80568353533829],[-3.7620343226442494,47.790565500089855],[-3.80058711359008,47.787633168752826],[-3.8206966045621122,47.79704005110039],[-3.8510582202094192,47.79595113220543],[-3.9014575009234087,47.83811402726429],[-3.9352297901853737,47.88271768897734],[-3.979285765673716,47.90506331053172],[-3.9892426691277407,47.88124042404969],[-3.9779071580540446,47.85370904171028],[-4.041402101062129,47.84560407995417],[-4.071579359966193,47.8639343495831],[-4.12605004973185,47.864172382493564],[-4.163559448578027,47.84918510804166],[-4.175106219653961,47.87596847062619],[-4.1971340520002265,47.86102385449842],[-4.179428919445678,47.83927438037873],[-4.15940114971976,47.8318173246385],[-4.183013010492385,47.800536704160066],[-4.2165887057710965,47.793144928603546],[-4.269232846114915,47.790984442793075],[-4.298541674244525,47.80045582335789],[-4.362405222202317,47.79574452412905],[-4.379252075100091,47.82205366025167],[-4.349806909070088,47.830787344673475],[-4.35026147711619,47.85720715426938],[-4.367485583327389,47.895018967431604],[-4.388015035003269,47.926654784945555],[-4.423497441952159,47.9629190746406],[-4.45357212479016,47.98178335103627],[-4.509946245392576,48.00508930612951],[-4.540544158513848,48.01277237320508],[-4.564748323475724,47.99983217909559],[-4.617153960280601,48.01668341623001],[-4.632961817787164,48.029371518298575],[-4.65236486621254,48.02197780046869],[-4.699486095336003,48.0276385517676],[-4.716343505589336,48.06246408637442],[-4.673766453815838,48.060832956449374],[-4.6659348329354255,48.07024114770002],[-4.621727492652852,48.068543619046565],[-4.5801348626137575,48.08191194086029],[-4.553615731275088,48.07713834742257],[-4.532513782688574,48.08825622911054],[-4.487667360513949,48.086548703734806],[-4.466691486895225,48.09914603365788],[-4.42937785197245,48.09921479885298],[-4.374400199477134,48.110160305908614],[-4.306988535338467,48.089182615717235],[-4.2855866218113725,48.104744565148835],[-4.2837220130952955,48.126900982468996],[-4.271721077823729,48.133056537289555],[-4.273083579380047,48.15418112435729],[-4.295843919274587,48.16142932399722],[-4.292060558661123,48.17634830008409],[-4.303105949344183,48.19481221480856],[-4.332028821902894,48.20625396161038],[-4.367421587366783,48.20518414807059],[-4.376408546426716,48.217120176811314],[-4.462948817851071,48.23822329999254],[-4.501654363959345,48.230424062827204],[-4.520558957420493,48.191481893648785],[-4.5541301011022846,48.167773715825284],[-4.55239723973961,48.20798329589854],[-4.564023813101924,48.232230611567076],[-4.544514592316071,48.241191573122464],[-4.556269907144756,48.25839883522839],[-4.583648389279179,48.25188609816883],[-4.606432460120089,48.260804316606915],[-4.566613794720501,48.286343567274294],[-4.5805180078903875,48.31953640425027],[-4.553173678040408,48.33877871593713],[-4.545322996139177,48.32453014489154],[-4.552688342449066,48.29433138900056],[-4.535044973995933,48.28408016653001],[-4.51791127193264,48.29532344340755],[-4.502598847108407,48.28086108393083],[-4.455054516900592,48.292768680960236],[-4.423778354693354,48.291677200748616],[-4.4121268947877414,48.27743520886878],[-4.384499553201252,48.27515572709832],[-4.338007897909741,48.28559363845158],[-4.308030328849242,48.29716811390846],[-4.271673566367982,48.29591729189257],[-4.261871578053853,48.27947084714217],[-4.223087545336637,48.296299071102354],[-4.281228861951339,48.314447470573086],[-4.328634688910267,48.31488418033181],[-4.316134692309666,48.335818592679146],[-4.367224196551887,48.34371171314183],[-4.375256083838373,48.32630324311795],[-4.442251665475733,48.32677107157494],[-4.443889468046649,48.34883595893029],[-4.402940735996712,48.390022498012094],[-4.424948261340765,48.397597431903],[-4.435282416373567,48.38339288656854],[-4.458114014938408,48.385867352822785],[-4.5070286895447,48.375178986581524],[-4.538022709122905,48.357127206507],[-4.54966862065911,48.362005158047474],[-4.608723907528041,48.33788748522352],[-4.628097678951578,48.33751415715651],[-4.678429988988318,48.35543131935038],[-4.69483398347226,48.35279072707112],[-4.707560306796703,48.33232585661272],[-4.7722963997844206,48.329183978768505],[-4.769925202904266,48.361796246678736],[-4.760909970272357,48.37274934621913],[-4.774449224429342,48.389388669092874],[-4.773685539184036,48.40492512169256],[-4.79490980371592,48.41306522400434],[-4.778308286782586,48.44933411185572],[-4.759049827922969,48.47040485137466],[-4.777001937365527,48.50311695180772],[-4.757988885564184,48.52093310825663],[-4.762396097201912,48.530913179201654],[-4.730582004767845,48.556349210517865],[-4.704749488588449,48.56897618289027],[-4.681095549020893,48.56731997011509],[-4.627815146836776,48.57891940354545],[-4.6098896150813555,48.575823083209116],[-4.590772268866488,48.59402847039412],[-4.562764141371104,48.59817521227606],[-4.557624352657544,48.623470387580625],[-4.519579706212667,48.63461429836846],[-4.501808596546954,48.621190515057386],[-4.431795383056437,48.635233047605645],[-4.417756994812844,48.65471295900724],[-4.398044453426728,48.65561657189681],[-4.35001885330614,48.67651959770488],[-4.3167824361752904,48.67199333723616],[-4.271733741368674,48.64950099695784],[-4.223767566780155,48.648361716153644],[-4.209602839214799,48.67044798555623],[-4.186935690423405,48.68646122790089],[-4.1089633691562515,48.69443456873133],[-4.057584711672935,48.689257976253764],[-4.0534274992711286,48.7032941013924],[-4.032990823785386,48.71270325427199],[-4.0005346564303155,48.71162801931488],[-3.9834396203178497,48.72630319219002],[-3.9668110875090608,48.7196296260678],[-3.973629366481163,48.70388914743309],[-3.9694817850407995,48.67541780327085],[-3.9494614719873633,48.65286849015005],[-3.9035069777805154,48.66440380162745],[-3.8895722831453385,48.64166403341278],[-3.845544973771357,48.62696293321332],[-3.8562366572284197,48.64905420905967],[-3.8458155271587935,48.66164492704556],[-3.8544747780529227,48.68637205322022],[-3.820777313163899,48.701354575208065],[-3.7874874253592217,48.70179551925303],[-3.765699137667055,48.70888608345991],[-3.7332511605024314,48.70742218765922],[-3.702432092334233,48.69038564489073],[-3.6591595380103863,48.69489143579908],[-3.642801218211254,48.672120238447434],[-3.6591438196705743,48.659209780669244]]]]}}