{"type":"Feature","properties":{"code":"24","nom":"Dordogne"},"geometry":{"type":"Polygon","coordinates":[[[0.6297424639524398,45.71456998977268],[0.6542322548355602,45.68870460553755],[0.7021017463764117,45.68712391220238],[0.7164967555921232,45.69492986065276],[0.742191639150923,45.690583187900515],[0.7636991223155143,45.66825689490875],[0.7758431349260253,45.6675695723418],[0.7630383629892018,45.62833642730259],[0.751529712610917,45.618323854020026],[0.7803710896124326,45.591186976030635],[0.8035615373389846,45.59623658602799],[0.8115003322647284,45.575870643461926],[0.8425878139261963,45.58227280988904],[0.8593270163801664,45.61255366991051],[0.8748028110501537,45.62135072197518],[0.8981892208012014,45.59978358036884],[0.9470174998837003,45.61359375507784],[0.9863932565151387,45.604487080117515],[1.0232467983202298,45.60995990299867],[1.0358490435954522,45.600209290253126],[1.0354291459916498,45.573323428579684],[1.0475013530672403,45.55793278314188],[1.0746444865790412,45.54577271138723],[1.080359033146871,45.533998770505264],[1.1103236008119233,45.54491026026193],[1.137684533027224,45.53977362177215],[1.1672867970396268,45.52482220464761],[1.1359472599446487,45.50640914164488],[1.1197844789851377,45.48778292627877],[1.1358342826377092,45.47086498923646],[1.1641763230169675,45.47552956976588],[1.1865884187192175,45.45529497029879],[1.209501347214524,45.463084747625864],[1.2531518386328937,45.44421907802482],[1.2886523745642784,45.426113502905665],[1.2596039598397974,45.39834890279047],[1.2797966098842408,45.38451121421732],[1.2959441431554541,45.39478234683706],[1.32391737940144,45.37898344779817],[1.3157869427441322,45.360911470391635],[1.2891042257150067,45.35407630580714],[1.2726101443911217,45.32822630817563],[1.235803372736093,45.3220410364473],[1.2415605436420754,45.30063281308439],[1.2271194403372112,45.271979970998935],[1.2545821687088141,45.254867349405984],[1.2744827002548649,45.257076684850865],[1.2745146719905638,45.23791148068256],[1.2336078544796087,45.2221954421389],[1.2322937564526977,45.197704072069364],[1.2741303261002948,45.200069727068225],[1.292124890237363,45.18651272307218],[1.2853426192045976,45.17595247253618],[1.2547674981005628,45.15931225123928],[1.2899337103990007,45.14204241946589],[1.3173936647057205,45.1421087376802],[1.3521193591746319,45.13399031293482],[1.3852045692932187,45.13561794853778],[1.4128982767653495,45.12508229172991],[1.4094740420968277,45.11264145564816],[1.3864424774272137,45.102881378523996],[1.4063598793620342,45.069297115006954],[1.3998064471929033,45.06159332248495],[1.4482615439322117,45.01931315867405],[1.40926521871603,45.00600178685703],[1.4335895146429747,44.93830164881089],[1.4106099419064448,44.90896015297044],[1.4398566373102875,44.8889508179699],[1.4397519128973866,44.87494627874561],[1.4048386704545461,44.86234716877302],[1.4019390596723829,44.849446039670674],[1.3614038259537624,44.84079526684299],[1.3641029713426986,44.81156818641523],[1.3281098679785208,44.80652884504556],[1.2996352435270742,44.79691953728407],[1.296243021698294,44.7778123630601],[1.322817940494351,44.76513318662047],[1.3160508396721997,44.74037462834149],[1.2794274292251306,44.715831247801496],[1.248270791913345,44.70770636912258],[1.22455005545425,44.6842663489296],[1.1688078503397572,44.680017048529535],[1.1466718447537778,44.67034606645626],[1.1537498404734852,44.63882020403],[1.0957075874791038,44.59024337388754],[1.0751408247250982,44.577324783565565],[1.0733204955931674,44.595582525404495],[1.014756458102413,44.614096475712024],[0.9908384393481793,44.63713268673032],[0.938715915523624,44.63970350097892],[0.8907495915923311,44.61499646988759],[0.8699961633461998,44.597307270914904],[0.8386686479648295,44.60073353333194],[0.8373861616885234,44.61609958290861],[0.8170042739845023,44.62700147643911],[0.8363594164481827,44.6385854946771],[0.843404038496723,44.66348079792942],[0.8260869083147476,44.675993641671084],[0.8270009642517767,44.69188957907683],[0.7977266310515655,44.701767285601186],[0.7798374176059383,44.68338808872983],[0.7290670391461425,44.67608019640507],[0.6609287903127476,44.676687086290784],[0.6539964422514456,44.696742561948255],[0.6300837174762535,44.70504186396566],[0.6097310220706117,44.69537205404958],[0.5771464644207092,44.694023979180336],[0.5704204904951242,44.67489859623235],[0.5461757009438561,44.664653811569345],[0.5156727555160711,44.678339438211495],[0.4875231075582992,44.666678761175476],[0.47053010943012324,44.66957916232141],[0.44565684789610666,44.65274912995912],[0.41754944795275234,44.64625042497145],[0.36900627419453386,44.661175745652166],[0.3496189213624863,44.66012732964435],[0.35961911790454776,44.69100214687724],[0.340537569558902,44.70304824522456],[0.346186543626901,44.7225420355276],[0.3232866327071292,44.74761897166385],[0.2973255098237856,44.76228467395237],[0.2742254006482923,44.78339312502083],[0.2637263179027021,44.82627665355831],[0.2840562599933618,44.823659365748206],[0.31506665558289004,44.84541323207388],[0.27905937516440416,44.86697670764365],[0.2376501157602628,44.86924207555338],[0.24120144851108916,44.85652879127665],[0.2062908527795184,44.838781587007574],[0.19284351960714802,44.820802554808736],[0.10655870123187683,44.832720431213495],[0.046921251109006,44.82458068187802],[0.018664421295006353,44.849628493830664],[-0.021935541227067503,44.850692462395095],[0.03436214413600705,44.91546925454322],[0.0032479456177751075,44.947439781487724],[0.019184278571431145,44.98034965777573],[0.04010873279330704,44.99350460562092],[0.035847937705388945,45.01115004721698],[0.07329671773303688,45.07012096510982],[0.06352711067229469,45.09563292386136],[0.04083219110465748,45.115350817593736],[-0.003552786965686552,45.11956999344142],[-0.04020033978963981,45.102384335963414],[-0.029231978204044492,45.129832110551455],[-0.03705116480547907,45.139026589692236],[0.004720897151709058,45.153735338120526],[-0.017366400658601018,45.16986388363175],[0.004330746876933936,45.191632555616],[0.007749483713343667,45.20202343974376],[0.034845860697314227,45.20874744152009],[0.05343044144838288,45.226854975561835],[0.07573321487779969,45.2202598278516],[0.09619541225687946,45.2278578556264],[0.13030604926862757,45.20798900287554],[0.17055210372198007,45.23701026486455],[0.17763742117729522,45.253740934302506],[0.20441616387648323,45.26359520741223],[0.22141736394530237,45.290328116659495],[0.24739630895607334,45.289484009049765],[0.26971965078434545,45.30539294080847],[0.26498472290743125,45.334216796479616],[0.25007284811879654,45.371801187374246],[0.2781514641521634,45.427303344509845],[0.2943995470605675,45.434183799907565],[0.3078489404274546,45.46087036559335],[0.356537146854989,45.465479098992546],[0.4327895064931416,45.5024678675343],[0.46573672024377105,45.539623254776004],[0.4962604525540854,45.5444880543905],[0.506492513438957,45.55388701893163],[0.5007291724346205,45.57307480085136],[0.5155919010618789,45.600377918791985],[0.49986594015823305,45.616678558714106],[0.5355449863742777,45.63336713201865],[0.5612176923905663,45.63273730287464],[0.5678112654431465,45.6510243172179],[0.5988182940413804,45.67062696828461],[0.6297424639524398,45.71456998977268]]]}}