{"type":"Feature","properties":{"code":"02","nom":"Aisne"},"geometry":{"type":"Polygon","coordinates":[[[4.047972977986833,49.40564229475753],[4.039913351175735,49.397396867183815],[4.035496373111564,49.359904159430094],[4.0127284202980995,49.358299141243386],[3.9949400464231957,49.37789993445056],[3.9613090288565647,49.37734494086453],[3.9252301838116423,49.40757795776365],[3.898159524095673,49.39324676616779],[3.864856156264051,49.40533685972032],[3.837686516500783,49.39565820991326],[3.8563548292895904,49.381163036761194],[3.84805797975596,49.36391735212325],[3.8224705767098395,49.35696565512036],[3.777534921928809,49.35581577743615],[3.7422207217091263,49.33651301919691],[3.6989371212574853,49.33195284253632],[3.643938967409509,49.31271547683784],[3.6573162286122742,49.291023347068474],[3.65525456317135,49.26285133857558],[3.670777136423702,49.23959850877529],[3.662544752146768,49.20897792079391],[3.697104870697589,49.20547444963648],[3.704392046963459,49.181373023469],[3.725444039996693,49.173515945092305],[3.7511478237665794,49.17770096615194],[3.7487650521863713,49.15708155419203],[3.701623868432638,49.14308771135046],[3.6838349064164695,49.15449185807903],[3.6534402301896542,49.14869065051608],[3.622246623748466,49.151103693376655],[3.6103983127772716,49.13550196815309],[3.6117958918993924,49.11808793409194],[3.6390535019551273,49.08130605737889],[3.5877067932472952,49.059394631367105],[3.587608670612347,49.03381324798993],[3.647726454659581,49.04140800760242],[3.663950657450056,49.03730898527378],[3.678113179313511,49.01690766636074],[3.665158653762439,49.00563193481009],[3.6387510313501172,49.002277384044845],[3.620658549289589,48.9659439788058],[3.591558411237313,48.96037176960385],[3.601964878227183,48.94505940416911],[3.5744431375994288,48.93901643224886],[3.5738538398044097,48.92148321270002],[3.528576443116953,48.91214102895302],[3.5083215469627684,48.890402602371054],[3.4851874436586847,48.851908494372864],[3.4607105852412756,48.83944139457446],[3.452232416190477,48.856291455303484],[3.404630766733507,48.86387236235099],[3.380474508825688,48.874761432854626],[3.3828132392962247,48.88874725594759],[3.3663472431751384,48.922836905893014],[3.3302994547269797,48.908706088642376],[3.3130758740800688,48.9212163651494],[3.3047494707754015,48.94876427894454],[3.2678460373508416,48.938331129104206],[3.2518351589230496,48.97236625695047],[3.229176905886298,48.98841784600257],[3.1682883590774806,49.01667270236993],[3.1818268776645002,49.060865198640144],[3.1535840813505853,49.08328424779814],[3.16523032905892,49.09965085798759],[3.1361260876735515,49.10736575572267],[3.1039032023368676,49.10783847337312],[3.071884293834167,49.117554218816146],[3.0924779533731277,49.12879682562634],[3.0943242330142073,49.14204789992474],[3.1396578896700365,49.15257695363476],[3.1213530433372445,49.1615694736916],[3.116850461379955,49.18929161278119],[3.1027108891029056,49.19726093786907],[3.057604302772935,49.19731791616205],[3.0499603800932262,49.20875690532957],[3.0004940244510117,49.21363093492948],[3.00241402574711,49.187810905489094],[2.967751163640478,49.19164549413419],[2.970646337718828,49.21429263146397],[2.958587991995842,49.226138012652044],[3.0027869375627287,49.23569244874083],[3.023604722971875,49.21655041441553],[3.0397940574425517,49.22840404055804],[3.025849635470415,49.25992627182155],[3.0351669019132688,49.2871713469825],[2.981004000749905,49.29790832703466],[2.964603145483289,49.32192389525919],[3.001513216421808,49.34001503161223],[3.042914962956999,49.333571302660516],[3.0747246045970944,49.34897187029861],[3.076780341252717,49.371262738908456],[3.0925346575940007,49.37534154439133],[3.1005059556280803,49.439314058331185],[3.131884455784113,49.43177892295364],[3.1626441754771344,49.440639681268124],[3.1605832452848968,49.451589762665364],[3.1070854783285102,49.46823138703083],[3.1212810029381983,49.493670908120365],[3.096325086537241,49.51789625444081],[3.121165955043159,49.520974573583764],[3.1314803354793224,49.54337765179183],[3.126982208375892,49.573038994477],[3.139814891208892,49.57623313724928],[3.1220112456372937,49.60374206640511],[3.093575310755229,49.622548596683885],[3.1127661529868123,49.63132972837916],[3.09777622468101,49.65668309123162],[3.115636640843051,49.66498825414465],[3.1184031553047866,49.705968560150744],[3.0937519856623417,49.75705197896964],[3.0627453563551175,49.78264211542407],[3.0859749674446215,49.792016685972655],[3.078694114076548,49.82241521578422],[3.0558889248241528,49.83168131148238],[3.085506495983628,49.84381936000555],[3.0835290437648006,49.86638777885566],[3.1200543249509205,49.88428837261846],[3.117968662907868,49.91427637798353],[3.1515239055114135,49.94267027284344],[3.1768373814163575,49.98520439643777],[3.1613946355055402,49.996049271243585],[3.1729557922769542,50.011311964972776],[3.2026122838195157,50.01743710744522],[3.2306551064640994,50.03198300751153],[3.2801740988851327,50.015182550806884],[3.3371140096429532,50.017096007517154],[3.3529820989914247,50.03586832624208],[3.3989075840823038,50.03475745860893],[3.4282376399201713,50.022065913063614],[3.490663196296732,50.0188947701039],[3.507141600307539,50.03577661902003],[3.5286139046189744,50.03818286664185],[3.542755355797365,50.05391998941126],[3.5671883147756422,50.053261540953365],[3.6006637298781827,50.039925849470826],[3.6136399192005855,50.025418579177284],[3.6623093500340085,50.03911432468407],[3.6657493008457873,50.05473310262326],[3.715184685025503,50.06927463596353],[3.7463798889650586,50.05360423497288],[3.797523254135232,50.048396124718515],[3.815827444952555,50.03904215991495],[3.8356719382516733,50.048312733420666],[3.8820101104438387,50.03303286775057],[3.903385572183311,50.01801137888116],[3.9895472401156926,50.0413469883853],[3.9947330894398947,50.02553192166869],[3.9794498952640214,50.00299190781123],[4.01304088648856,49.98566024631078],[4.056699209471129,49.98542604488944],[4.08712850474961,49.9691875854119],[4.140895251736092,49.97875959899442],[4.172395207394802,49.977078597853904],[4.197110124342558,49.967721269218174],[4.195936343936246,49.955694802056996],[4.233164134987158,49.95775092391093],[4.21718238978302,49.914797372341994],[4.255701120243194,49.903213511956004],[4.248762948257405,49.85675363902506],[4.223593846602414,49.834105951164844],[4.214274015003939,49.806111475699495],[4.22667738196626,49.79303047019303],[4.207560089429096,49.78109084313398],[4.23820210581484,49.76742183396235],[4.246884569202133,49.75481606841705],[4.2279892494042794,49.74364073426544],[4.224711511604635,49.72720226620408],[4.19124300715433,49.71625657729972],[4.1846168956423835,49.698824907960066],[4.144181836797769,49.68854487089986],[4.127021546188527,49.677921251343555],[4.124516370102426,49.64959154766928],[4.09574589252208,49.62909455245626],[4.06432322371496,49.636967655409364],[4.041982613790211,49.629809951188015],[4.031390794494156,49.614289972299225],[4.076570889635557,49.57112749860688],[4.05829151546324,49.55254908076985],[4.076010833621256,49.53978341932618],[4.077307045795324,49.52519351384014],[4.040711745102368,49.508534657206816],[4.042374740120512,49.4686932052203],[4.057558677988911,49.45118663443426],[4.037664843009763,49.43826214170175],[4.047972977986833,49.40564229475753]]]}}