{"type":"Feature","properties":{"code":"67","nom":"Bas-Rhin"},"geometry":{"type":"Polygon","coordinates":[[[7.635285449703197,49.0541613551771],[7.674493719844778,49.045038223564895],[7.707321827434022,49.05405939239169],[7.732229514556395,49.044360193628584],[7.7694289796184846,49.04774245099701],[7.794587260656014,49.065791918907415],[7.868785609773862,49.03415707326486],[7.8916198759125775,49.04759725259064],[7.91670251003609,49.04096826102967],[7.934626827531663,49.05780915030637],[7.963045952864435,49.04293379198175],[7.980055713019351,49.02611958784408],[7.996711900374363,49.02835488426032],[8.04922031277792,49.01418078522583],[8.091376040143569,48.98925821691501],[8.139803411862454,48.9784496512654],[8.222736022927482,48.97597079725059],[8.232836216038969,48.96697753356419],[8.195800936945588,48.956207796670824],[8.139135858085103,48.892894767368645],[8.124578710186213,48.87069214791491],[8.096320563319823,48.810383710147846],[8.058939302273348,48.78881229521909],[8.029130925797226,48.78647637177024],[8.02282921871248,48.7683571613944],[8.00494993955973,48.75878082453401],[7.969723932850821,48.75544146180311],[7.9631400450945655,48.7213530972908],[7.890886576122132,48.663095896501474],[7.83981724689541,48.6413739851056],[7.828710432304629,48.61770955816417],[7.804169862129346,48.59233465434716],[7.800241352793423,48.57868703631089],[7.807039561191584,48.5211033498163],[7.794703889606317,48.50209025324464],[7.768199002101854,48.489657602973395],[7.764890504178269,48.456687573980204],[7.7359757519993035,48.40415792790444],[7.732004052005759,48.375403413096564],[7.7450285445207925,48.33566571677894],[7.733240771599047,48.31779594408542],[7.703153723776976,48.30881155728774],[7.667802806274936,48.223910814462734],[7.645993836509834,48.20894372463805],[7.628420489829124,48.18234169524649],[7.601153626284707,48.15837840879526],[7.597069643598031,48.13314665478638],[7.577312855212316,48.12036852180279],[7.519368638022094,48.12611186663136],[7.5125346837248,48.15232225264574],[7.477457496315403,48.15656192531237],[7.4675859539752825,48.16899525405458],[7.476943375699939,48.20353668428324],[7.44466546317087,48.21741894982423],[7.408909688142275,48.224103980885616],[7.397985372184995,48.23250486975424],[7.3502585424914155,48.24763679309355],[7.324540354627305,48.245301227144324],[7.312654881787611,48.26854265756791],[7.275183721811301,48.30523478704946],[7.241733352395135,48.302429901416254],[7.198281537029947,48.31046786102034],[7.184818696745765,48.33615437512855],[7.120494270164923,48.33334864685793],[7.0785233740914295,48.35107311533077],[7.108026244714085,48.376989845150604],[7.095873788299803,48.4270217723305],[7.11688383670396,48.484885014570324],[7.097693072924202,48.48762107861984],[7.123165369028565,48.513592265556596],[7.080630193411291,48.51267454477156],[7.064487678486664,48.52339791207404],[7.079359770973246,48.53641761270014],[7.114376678081027,48.537389878992194],[7.147094880277466,48.52694681230707],[7.167909935894842,48.527596443549314],[7.1924855682726525,48.54879290260453],[7.2183172603088295,48.55264406598888],[7.256281654444217,48.588675507652],[7.256388448234081,48.60150853250187],[7.278427796440234,48.625202388791344],[7.270398382732597,48.63054438708614],[7.30435493964854,48.6602012988693],[7.2645955424124935,48.662703775725404],[7.242261522633183,48.69210964676438],[7.260168326105747,48.69429915361379],[7.266625221422177,48.714209030699415],[7.286884538061931,48.73134414106466],[7.3064497001602975,48.7691099850618],[7.291233271693293,48.79399531609868],[7.262026914660001,48.797761488092036],[7.228655644882326,48.828038818777635],[7.196675525429877,48.828301758643974],[7.195876686739622,48.840397988184655],[7.149408408912651,48.84470403837187],[7.146671555297553,48.82130284961471],[7.1231658021967155,48.80450097964112],[7.088166864000689,48.79249269644048],[7.079303305840072,48.81404016744667],[7.054514540544794,48.813704386223854],[7.051334597348638,48.84628529036997],[7.086623738193806,48.847740597072104],[7.081165552464466,48.864100481733125],[7.050249140492324,48.85934342449812],[7.044405156028646,48.87353491651631],[6.988916052470446,48.8911922591983],[6.964601688658047,48.90452526765522],[6.955547179403453,48.922319717315936],[6.978894125394516,48.93334137925148],[6.98921640979739,48.95992878867804],[7.032219488521415,48.95604910228417],[7.038359726746952,48.99687346466287],[7.05300726402484,49.00729189414574],[7.054911912536333,49.03061918771655],[7.078659891943001,49.05036062768427],[7.068107134587352,49.066879969038716],[7.103885148469087,49.074161754697926],[7.108081132396537,49.04341471828652],[7.119477346819226,49.03721652969957],[7.130505931552783,49.00459350678602],[7.174240270723143,49.006365681338195],[7.209311457091751,48.9800881370531],[7.236031367305892,48.987818615118876],[7.293949845247019,48.97157404948427],[7.326851980608823,48.943372742020955],[7.358876660684313,48.95760287154302],[7.392311568753424,48.952706941018526],[7.451630239981024,48.967962755037526],[7.479572330825655,48.96139105276517],[7.50187360937539,48.94425222519554],[7.533247825039657,48.93350273583194],[7.57839213753989,48.95740241810784],[7.591218725544888,48.993724868247604],[7.609553546221074,49.02123201245433],[7.6400276339065405,49.049114242922506],[7.635285449703197,49.0541613551771]]]}}