{"type":"Feature","properties":{"code":"69","nom":"Rhône"},"geometry":{"type":"Polygon","coordinates":[[[4.388079599211451,46.21978851671503],[4.392045244906183,46.26302385998399],[4.405813600867752,46.29606050757099],[4.458369104418381,46.29697584037131],[4.488464517812633,46.28799447923909],[4.504000511619177,46.26712967638222],[4.537259095086993,46.269909752755986],[4.557791734390365,46.294551693366884],[4.58651066847238,46.26869366799675],[4.618564521857389,46.26479290298609],[4.617019082985369,46.28062156129126],[4.6546541224676705,46.30348939899555],[4.688792316232356,46.30134017113633],[4.707543694868305,46.2846591310526],[4.679555470888074,46.25866738898982],[4.735773074768783,46.234243689563726],[4.720630389105726,46.22239538927804],[4.735252824806332,46.210851459521535],[4.7208781171109155,46.19392061792661],[4.730529789085251,46.1783721277199],[4.757472202390895,46.17225721411849],[4.780213475718984,46.176677022719375],[4.802383406855843,46.15689004179432],[4.7974461577782055,46.14070125939972],[4.74842216438804,46.092116678231136],[4.76168298760261,46.068835281873454],[4.739924532383598,46.044545739209596],[4.74583632453276,46.03479022524953],[4.754510768697905,45.972272809968736],[4.729096921230878,45.94909221230217],[4.737325990745241,45.938166671490364],[4.771751698096339,45.939227157903346],[4.7885556818887975,45.92396575312498],[4.805862172264801,45.921565090394125],[4.805177333218323,45.89632861459743],[4.8480352687938995,45.91297548186924],[4.88069852397936,45.897169382005984],[4.88382693945437,45.879994069300665],[4.909016569606379,45.87410386475139],[4.9012173780094885,45.86033670744545],[4.916119464335568,45.84545668995466],[4.918340642420571,45.80702873296715],[4.963083585101699,45.81097052424602],[5.013451311336389,45.80505705540713],[5.044790298055403,45.8117360670572],[5.101067478338776,45.81337808264365],[5.089312645190639,45.784275022180616],[5.059330594890989,45.79197852353507],[5.068368951685849,45.765473881827624],[5.093091174921406,45.766089791057205],[5.094526879742294,45.739453359509234],[5.126011929215237,45.73790916787724],[5.159431081299061,45.7088530167123],[5.131061214476138,45.7077086126494],[5.1081318769103605,45.68802493937274],[5.059543480830934,45.66509793238911],[5.058062092364437,45.65324362294234],[5.035148740524161,45.63720294798379],[5.038083762231331,45.61507172104689],[5.0047455923475,45.62311113752578],[4.997963145407583,45.60341491364353],[4.9719731415095545,45.61268302966118],[4.927527809638902,45.605706962994894],[4.901457719834113,45.606267804658444],[4.864457684448963,45.59360146128447],[4.85277784466551,45.57887851405256],[4.828114865183135,45.58789311790868],[4.808696981728118,45.5723005698916],[4.840117013694024,45.543291913290595],[4.864438371893341,45.5373424891419],[4.868481734036511,45.5234402120416],[4.8412638959614664,45.50060628572331],[4.782279555986659,45.47220452723034],[4.775917949204341,45.45421052340817],[4.756935570818616,45.45570734978024],[4.739409870606086,45.48659464798714],[4.721827573373719,45.49439543048306],[4.700228209366997,45.478251319676815],[4.661754663860458,45.486753449800155],[4.6505036163787885,45.52825095564595],[4.684974417954742,45.55444421417092],[4.672311111048541,45.5702781100426],[4.636946590180618,45.54563402439237],[4.625186588148891,45.5690598812714],[4.582929001860563,45.57473357946033],[4.568607549526933,45.583472510511605],[4.521074741734986,45.57279549516226],[4.501195680541532,45.585509531030695],[4.44944567617998,45.607317262662356],[4.440485898400948,45.62348155684874],[4.410284239143385,45.632050806327356],[4.391675108287153,45.6629035906777],[4.365920195904948,45.67115339597],[4.3738410092708815,45.7118281564325],[4.397995092909568,45.751428954900874],[4.373503657509452,45.74949633164302],[4.3493620257561165,45.77130357540371],[4.375871288793124,45.782079121045285],[4.376223580241809,45.82463846230085],[4.396210392438567,45.860049159409144],[4.357305400190197,45.867818212138175],[4.342152967764877,45.87717650941675],[4.32322164118184,45.90393193479993],[4.34541858135298,45.915369145765204],[4.34518756578921,45.928106708428984],[4.293912264205216,45.95339953385285],[4.298100713331312,45.96566297835176],[4.249195496150678,45.9953837193519],[4.300566276670547,45.99131120846098],[4.312509748657016,46.00559232184622],[4.262156206087431,46.0353981231568],[4.254288650960761,46.05273202617171],[4.285739765481103,46.05353257676386],[4.309660723089374,46.079736904576485],[4.306153355734185,46.10204949110961],[4.321566636697419,46.1292227390098],[4.361588426954295,46.13845862089166],[4.380275754005176,46.150004219111246],[4.410785750373344,46.13662430946693],[4.438590902796802,46.16787882969539],[4.395991931108271,46.18913351748368],[4.422612723182659,46.2025561207876],[4.388079599211451,46.21978851671503]]]}}