{"type":"Feature","properties":{"code":"64","nom":"Pyrénées-Atlantiques"},"geometry":{"type":"Polygon","coordinates":[[[-0.24283655874306692,43.58497620901365],[-0.21060677583663345,43.59323717586582],[-0.20474047168197715,43.583595044006366],[-0.17292754407472402,43.59364235835892],[-0.1604496417177948,43.58057113664128],[-0.12160423721761877,43.58624235445866],[-0.09678297320877491,43.582405897631695],[-0.0889353115702106,43.55720120791489],[-0.06439614081942817,43.54514708135416],[-0.040131786150039817,43.512605402100824],[-0.04931853949113948,43.49246722068145],[-0.03395773428648386,43.4748821154567],[-0.06575363832737609,43.46348011949314],[-0.06960017201868417,43.43296649967561],[-0.04274822802160633,43.410433038551396],[-0.03370932429921264,43.43246529630011],[-0.01653409524496999,43.44394693211105],[0.009655310320461439,43.422201547264585],[-0.003925534377874021,43.3934664638352],[-0.005254456755174934,43.37375854928626],[0.029503346533208717,43.34615364492955],[0.010318158747631801,43.32531563972634],[-0.024871748469064887,43.32949512965254],[-0.046122416801734574,43.300855792904],[-0.04438748267104296,43.285276684905334],[-0.017007531250723754,43.270453175934975],[-0.04586866874069626,43.23214073673146],[-0.07252865439013752,43.22439059831667],[-0.06787400013058484,43.17711979316513],[-0.1177014616836111,43.1803266630819],[-0.12625382600229515,43.157664646038775],[-0.14613235140227143,43.128235959977104],[-0.1708703509900363,43.11342325510858],[-0.19098404402245078,43.11120001485184],[-0.18776412338244444,43.08332759879084],[-0.1991458409823786,43.064411115641306],[-0.20042576352682828,43.042716040400485],[-0.22443426834756924,43.033763083786916],[-0.2599408711456362,43.038273850395626],[-0.2648355668439734,43.009960256978964],[-0.2872360879456974,43.00592033944367],[-0.29228087888317733,42.991102936760555],[-0.28159092548449843,42.93356279018235],[-0.32717226195000754,42.91649889360632],[-0.30706856228167917,42.86996632786312],[-0.3134428634980887,42.84937505970757],[-0.32147747742734595,42.837156313582035],[-0.34754008403707837,42.8359138333211],[-0.3679794649305534,42.81384420795455],[-0.3925972910093655,42.79955853388815],[-0.40923534884558577,42.80775176126848],[-0.4443073733042952,42.79644188968569],[-0.509645724461578,42.825392555785875],[-0.5248214033720447,42.81169922814938],[-0.5228809859764464,42.799053820578806],[-0.5438135992737796,42.79316107597114],[-0.5512049085825593,42.77751593074885],[-0.570596979524969,42.782910869511355],[-0.56886355590546,42.806821287959146],[-0.5927365436827333,42.80323323591071],[-0.6036291574211501,42.83261701820438],[-0.6488576242634109,42.85520307403128],[-0.6786504294307736,42.88435162671404],[-0.6989906898468694,42.87965527922473],[-0.7252987547541817,42.891321607770166],[-0.7349914574877744,42.91217714898651],[-0.7250694205419334,42.92302821420027],[-0.751639105301494,42.966938899771456],[-0.7878117200655661,42.964220133379236],[-0.8100187374291915,42.95143307665448],[-0.8650339469969248,42.950782024634954],[-0.8997253347034583,42.961944671110295],[-0.9464504061324416,42.95406127408886],[-1.0005051395543532,42.97795014220868],[-1.0064443208237912,42.988993997889715],[-1.0830603615120118,43.00168071076038],[-1.1130329544941873,43.02237691659177],[-1.1334470820212093,43.01037270050248],[-1.1668982697369847,43.03557738093639],[-1.1807234359906535,43.03252804425024],[-1.2286741205591398,43.055160334686654],[-1.2471934082929712,43.042415611440845],[-1.2642856059829322,43.044567445791834],[-1.2835261465024137,43.06128566378849],[-1.308546707643754,43.06868136866409],[-1.2986667955038385,43.093279481535944],[-1.2802211653973743,43.1182176727211],[-1.3220188073653838,43.112341489609655],[-1.3461709053432147,43.091146616577],[-1.3409221159462987,43.08017084901461],[-1.3547480564678596,43.02846729741783],[-1.441215102138327,43.04630623466782],[-1.471735353863028,43.08109307328759],[-1.4708729299201966,43.09171395485682],[-1.415487839708494,43.12745746864605],[-1.416022603215192,43.1497408035206],[-1.4034369386574947,43.15976006228705],[-1.4020241459530187,43.17787126578672],[-1.3844898703699202,43.19125222875264],[-1.3826552191243804,43.25302936103839],[-1.4132056044596777,43.273416064289286],[-1.4388514488237716,43.2665172949958],[-1.4954242196638288,43.28272765553131],[-1.5053245319871684,43.29278486875202],[-1.5647156489015603,43.28791168353549],[-1.5581480152327398,43.276925958606746],[-1.577703455461285,43.25064368535375],[-1.6086713312434922,43.251911493906945],[-1.6303674039621392,43.28444921654921],[-1.6225991787656453,43.30062353105162],[-1.6671377641602614,43.31445979762466],[-1.694148056872775,43.31228000342086],[-1.7297463174854624,43.295677171644435],[-1.7577102787128112,43.344006413921115],[-1.7871316386117875,43.35136807471246],[-1.7889705724558977,43.3740616062586],[-1.7620152282748711,43.37589213130254],[-1.6391097857903005,43.40836090393235],[-1.6014509805064314,43.433291711283985],[-1.5629953964271497,43.484727946611734],[-1.5480683309573409,43.49597169694441],[-1.5248665484221002,43.52970134669009],[-1.5014142682685339,43.526946780448405],[-1.4765954372767023,43.539347276261424],[-1.4641103174097,43.51978418733692],[-1.4311182651313608,43.51461371523744],[-1.4153887215828598,43.49717030109977],[-1.3679078186199811,43.49490465671754],[-1.3274966286590806,43.50492395449724],[-1.2888696900073222,43.49872862084951],[-1.2173167238027949,43.53073810827331],[-1.1956162981323255,43.546095049204695],[-1.1708199655376668,43.5456098839176],[-1.1315682094233597,43.51069576475205],[-1.1639945144136432,43.50839178467792],[-1.1625744604180746,43.49153545937573],[-1.1195951980376606,43.50151151366748],[-1.109247829938908,43.51412989565137],[-1.073598211038545,43.51939437447959],[-1.0265078502683154,43.503370175677496],[-0.9933935609538049,43.505388046842114],[-0.98987372975074,43.53346243559243],[-0.9758267609662757,43.53928445138307],[-0.9509135778063627,43.53212326134325],[-0.8966906468904682,43.55048921576566],[-0.8556394802658646,43.541912093762534],[-0.8426740269835161,43.55356012044782],[-0.7817805196343679,43.564167159066834],[-0.7682806920100282,43.57948154907272],[-0.7180970591845858,43.54064303476207],[-0.7009707203498448,43.56096357592762],[-0.670807186170969,43.5667169721834],[-0.6008401126869658,43.538204154807815],[-0.5670718315523744,43.558215555933955],[-0.5571744316529481,43.542797175106195],[-0.5105948945954394,43.563209686236384],[-0.5076560922832347,43.56923087293328],[-0.44992960469658516,43.595703984518344],[-0.43347042112212875,43.580338984734894],[-0.4634382109634287,43.566589232141745],[-0.45203767058593636,43.550435492790825],[-0.4060419475368964,43.568225638621044],[-0.35359679862890814,43.561780875085],[-0.33595845896027376,43.55085163558024],[-0.30369046804673383,43.560276850255974],[-0.2763965148657968,43.584761045574],[-0.24283655874306692,43.58497620901365]],[[-0.10332953356469002,43.35858355910215],[-0.09014219532070926,43.35886208428034],[-0.08727094997091522,43.33384409231069],[-0.11552121102299735,43.33237650784547],[-0.11030601684007735,43.31299058296239],[-0.07504166669941048,43.30713969252607],[-0.06249932084582573,43.346711256254366],[-0.08317321572204538,43.37135001696728],[-0.10332953356469002,43.35858355910215]],[[-0.10307533206661205,43.2428172034933],[-0.07983617553877999,43.26236925486353],[-0.09617852463729769,43.28547921988103],[-0.09202865057224784,43.300470229904995],[-0.11185509693098625,43.31039821912341],[-0.1373518115949468,43.28574075772358],[-0.1406176398389843,43.27194385552744],[-0.12194467153732959,43.24335344245164],[-0.10307533206661205,43.2428172034933]]]}}