{"type":"Feature","properties":{"code":"94","nom":"Val-de-Marne"},"geometry":{"type":"Polygon","coordinates":[[[2.3318953139887446,48.81701271305569],[2.363949262797974,48.81631512383787],[2.4006819201840903,48.82909612370583],[2.4384502049151475,48.818235158647155],[2.4626974524261254,48.81905707868419],[2.4622646327720443,48.84253748930953],[2.416339717281352,48.84923827340741],[2.4815340793391782,48.86140985004899],[2.533679919545506,48.84510353911671],[2.5922804883088015,48.8074366758147],[2.607003437584154,48.77439762384403],[2.5854093346308815,48.74171196622536],[2.585211502726328,48.727239448802735],[2.5688040564289847,48.707222628077005],[2.571660318442073,48.69201409164602],[2.5538667808447078,48.68832401270366],[2.531076672373326,48.69978570765512],[2.5157508385679277,48.72893861768784],[2.5035365695581286,48.735211482171685],[2.454965343815732,48.72228146116879],[2.4141357629081504,48.71799549181414],[2.3707067322771356,48.720175922532974],[2.3546837090965482,48.73856509020945],[2.3207180175230313,48.74875623508064],[2.3087015923862384,48.75541506900493],[2.3258120232145614,48.78191098020334],[2.318696288355829,48.78799561087479],[2.3318953139887446,48.81701271305569]]]}}